{
"type": "FeatureCollection",
"name": "encroachment_2016_2026_smooth",
"crs": { "type": "name", "properties": { "name": "urn:ogc:def:crs:OGC:1.3:CRS84" } },
"features": [
{ "type": "Feature", "properties": { "enc_type": "Urban/Housing Expansion", "area_ha": 0.11, "risk_level": "Low Risk", "period": "2016 - 2026" }, "geometry": { "type": "Polygon", "coordinates": [ [ [ 79.824131370781501, 7.18622897489846 ], [ 79.824131422829225, 7.186766801998066 ], [ 79.824278899533226, 7.186768801144209 ], [ 79.82431108588608, 7.186856633526469 ], [ 79.824400813318775, 7.186856633526471 ], [ 79.824400813318789, 7.186677074432649 ], [ 79.824321311406905, 7.186660489708601 ], [ 79.824310981790433, 7.186497411375821 ], [ 79.824223151953518, 7.18646526605268 ], [ 79.824221150262005, 7.186227916790578 ], [ 79.824131370781501, 7.18622897489846 ] ] ] } },
{ "type": "Feature", "properties": { "enc_type": "Urban/Housing Expansion", "area_ha": 0.18, "risk_level": "Low Risk", "period": "2016 - 2026" }, "geometry": { "type": "Polygon", "coordinates": [ [ [ 79.824400917415218, 7.193234776006706 ], [ 79.824400917415232, 7.193593998157374 ], [ 79.824470573820079, 7.193601671087614 ], [ 79.824490748943674, 7.19368382968579 ], [ 79.824567266679878, 7.193697126305483 ], [ 79.824580580472073, 7.193773661214202 ], [ 79.82466272915967, 7.193793810319695 ], [ 79.824670412000529, 7.193863492742623 ], [ 79.824817888198524, 7.193865491888546 ], [ 79.82485007505737, 7.193953324271009 ], [ 79.82493980248843, 7.193953324271007 ], [ 79.82493980248843, 7.193863596705604 ], [ 79.824866577109304, 7.193853280254698 ], [ 79.824849970960059, 7.193773765177191 ], [ 79.824767822271014, 7.19375361607614 ], [ 79.824760139431632, 7.193683933648775 ], [ 79.824683621693353, 7.193670637033093 ], [ 79.824670307903276, 7.193504270591946 ], [ 79.824583975038351, 7.193476303546404 ], [ 79.824580476374877, 7.193055112949874 ], [ 79.824490748943617, 7.193055112949878 ], [ 79.824485350483755, 7.193210820581913 ], [ 79.824400917415218, 7.193234776006706 ] ] ] } },
{ "type": "Feature", "properties": { "enc_type": "Urban/Housing Expansion", "area_ha": 0.19, "risk_level": "Low Risk", "period": "2016 - 2026" }, "geometry": { "type": "Polygon", "coordinates": [ [ [ 79.824041591301025, 7.188653368057704 ], [ 79.824041591301011, 7.18874309562313 ], [ 79.824129421129797, 7.188775240946526 ], [ 79.824131422829467, 7.188922758679953 ], [ 79.824217755731937, 7.188950725730567 ], [ 79.82422125435788, 7.189102421736777 ], [ 79.824400813318533, 7.189102421736777 ], [ 79.824400813318533, 7.188922862642946 ], [ 79.824318664547235, 7.188902713540567 ], [ 79.824311903842016, 7.188779545641919 ], [ 79.824400813318576, 7.188743095623124 ], [ 79.824406211726725, 7.188587388003254 ], [ 79.824490644847018, 7.188563432566297 ], [ 79.824510819745655, 7.188481273970202 ], [ 79.824580476375417, 7.18847360103788 ], [ 79.824580476375402, 7.188383873472474 ], [ 79.824490748943091, 7.188383873472473 ], [ 79.824454252286003, 7.18847278413891 ], [ 79.824221254357838, 7.188473705000903 ], [ 79.824207940720441, 7.18855023991372 ], [ 79.824131422829453, 7.188563536529291 ], [ 79.824111247931882, 7.188645695131715 ], [ 79.824041591301025, 7.188653368057704 ] ] ] } },
{ "type": "Feature", "properties": { "enc_type": "Urban/Housing Expansion", "area_ha": 0.11, "risk_level": "Low Risk", "period": "2016 - 2026" }, "geometry": { "type": "Polygon", "coordinates": [ [ [ 79.825209401169133, 7.177604090063078 ], [ 79.825209401169133, 7.177783649156834 ], [ 79.825388960132301, 7.177783649156835 ], [ 79.825402273463695, 7.177707114261598 ], [ 79.825478791660757, 7.177693817628409 ], [ 79.825478791660785, 7.17733459547785 ], [ 79.825299232697546, 7.177334595477853 ], [ 79.825297231047102, 7.177571944718885 ], [ 79.825209401169133, 7.177604090063078 ] ] ] } },
{ "type": "Feature", "properties": { "enc_type": "Urban/Housing Expansion", "area_ha": 0.13, "risk_level": "Low Risk", "period": "2016 - 2026" }, "geometry": { "type": "Polygon", "coordinates": [ [ [ 79.825389012179173, 7.178413631927494 ], [ 79.825389064226059, 7.178592132912526 ], [ 79.825478843708652, 7.178637404955841 ], [ 79.825471213166523, 7.178751750814608 ], [ 79.825389064226087, 7.178771899932435 ], [ 79.825389064226087, 7.178951459026177 ], [ 79.825465582387082, 7.178964755658447 ], [ 79.825478895754543, 7.179041290554604 ], [ 79.825658454717427, 7.179041290554604 ], [ 79.825658454717427, 7.17886173146085 ], [ 79.82556889325987, 7.178820891761235 ], [ 79.825568623189042, 7.178412573818791 ], [ 79.825389012179173, 7.178413631927494 ] ] ] } },
{ "type": "Feature", "properties": { "enc_type": "Urban/Housing Expansion", "area_ha": 0.06, "risk_level": "Low Risk", "period": "2016 - 2026" }, "geometry": { "type": "Polygon", "coordinates": [ [ [ 79.828982325360855, 7.163141213988858 ], [ 79.828982325360869, 7.163320773082388 ], [ 79.829058843959046, 7.1633340697404 ], [ 79.82907215688931, 7.163410604610801 ], [ 79.829161884327178, 7.163410604610803 ], [ 79.829161884327206, 7.163051382460446 ], [ 79.829072156889282, 7.163051382460448 ], [ 79.829058843968141, 7.163127917336052 ], [ 79.828982325360855, 7.163141213988858 ] ] ] } },
{ "type": "Feature", "properties": { "enc_type": "Urban/Housing Expansion", "area_ha": 0.07, "risk_level": "Low Risk", "period": "2016 - 2026" }, "geometry": { "type": "Polygon", "coordinates": [ [ [ 79.828982325360784, 7.16251239328997 ], [ 79.828982325360812, 7.162871615440331 ], [ 79.82907205279885, 7.162871615440337 ], [ 79.829077450910944, 7.162715907886442 ], [ 79.829161884327263, 7.16269195238351 ], [ 79.829161884327277, 7.162422561761555 ], [ 79.829072156889225, 7.162422561761557 ], [ 79.829058843986331, 7.162499096636805 ], [ 79.828982325360784, 7.16251239328997 ] ] ] } },
{ "type": "Feature", "properties": { "enc_type": "Urban/Housing Expansion", "area_ha": 0.06, "risk_level": "Low Risk", "period": "2016 - 2026" }, "geometry": { "type": "Polygon", "coordinates": [ [ [ 79.829611146059619, 7.161703909534279 ], [ 79.829611146059605, 7.16179363709939 ], [ 79.829790705026269, 7.16179363709939 ], [ 79.829798387343658, 7.161723954741317 ], [ 79.829880536554654, 7.161703805570963 ], [ 79.829893849440126, 7.161627270705952 ], [ 79.82997036808311, 7.161613974042546 ], [ 79.829970368083096, 7.161524246477465 ], [ 79.829790809116432, 7.161524246477464 ], [ 79.829777496236233, 7.161600781348819 ], [ 79.82970097758799, 7.161614078005868 ], [ 79.829680803837817, 7.161696236584353 ], [ 79.829611146059619, 7.161703909534279 ] ] ] } },
{ "type": "Feature", "properties": { "enc_type": "Urban/Housing Expansion", "area_ha": 0.07, "risk_level": "Low Risk", "period": "2016 - 2026" }, "geometry": { "type": "Polygon", "coordinates": [ [ [ 79.832216260383333, 7.159008963681977 ], [ 79.832216260383319, 7.15909869124697 ], [ 79.83230492842506, 7.159098743228776 ], [ 79.83231930064332, 7.159022156394813 ], [ 79.832395819350495, 7.159008859718561 ], [ 79.832395819350538, 7.158469974511493 ], [ 79.832306091911661, 7.158469974511505 ], [ 79.832305169921753, 7.158972513526663 ], [ 79.832216260383333, 7.159008963681977 ] ] ] } },
{ "type": "Feature", "properties": { "enc_type": "Urban/Housing Expansion", "area_ha": 0.11, "risk_level": "Low Risk", "period": "2016 - 2026" }, "geometry": { "type": "Polygon", "coordinates": [ [ [ 79.832665418024405, 7.150564800011274 ], [ 79.832665418024419, 7.150744359104622 ], [ 79.832741936969967, 7.150757655787014 ], [ 79.832755249552875, 7.150834190633038 ], [ 79.832844976993442, 7.150834190633038 ], [ 79.832850374971201, 7.150678483123268 ], [ 79.832934808521841, 7.150654527576211 ], [ 79.83293681006262, 7.15041717846968 ], [ 79.833024640050311, 7.150385032990981 ], [ 79.833024640050311, 7.150295305426051 ], [ 79.832934912609588, 7.150295305426051 ], [ 79.832902728727177, 7.150383137810382 ], [ 79.832755249552832, 7.150385136954475 ], [ 79.832749851579919, 7.150540844472994 ], [ 79.832665418024405, 7.150564800011274 ] ] ] } },
{ "type": "Feature", "properties": { "enc_type": "Urban/Housing Expansion", "area_ha": 0.07, "risk_level": "Low Risk", "period": "2016 - 2026" }, "geometry": { "type": "Polygon", "coordinates": [ [ [ 79.844433348242447, 7.113733873362678 ], [ 79.844433348242461, 7.113913432455424 ], [ 79.844523075690958, 7.113913432455425 ], [ 79.844530757249146, 7.113843750242399 ], [ 79.8446129072194, 7.113823600927011 ], [ 79.84462621878923, 7.113747066157713 ], [ 79.844702738747799, 7.113733769398609 ], [ 79.844702738747799, 7.113554210305864 ], [ 79.844523179770832, 7.113554210305866 ], [ 79.84451778220712, 7.113709917688201 ], [ 79.844433348242447, 7.113733873362678 ] ] ] } },
{ "type": "Feature", "properties": { "enc_type": "Urban/Housing Expansion", "area_ha": 0.27, "risk_level": "Moderate Risk", "period": "2016 - 2026" }, "geometry": { "type": "Polygon", "coordinates": [ [ [ 79.864375895510136, 7.082293896546335 ], [ 79.864375947546847, 7.083191049738103 ], [ 79.864452468293052, 7.083204346605009 ], [ 79.864465779075218, 7.083280881266522 ], [ 79.864555506529868, 7.083280881266525 ], [ 79.864568817313355, 7.083204346606029 ], [ 79.864645338058324, 7.083191049738114 ], [ 79.864645338058381, 7.082562333004146 ], [ 79.864563187620675, 7.082542183528116 ], [ 79.864555506529967, 7.082382669947323 ], [ 79.864478985757614, 7.082369373084606 ], [ 79.864465675001597, 7.082292838418908 ], [ 79.864375895510136, 7.082293896546335 ] ] ] } },
{ "type": "Feature", "properties": { "enc_type": "Urban/Housing Expansion", "area_ha": 0.07, "risk_level": "Low Risk", "period": "2016 - 2026" }, "geometry": { "type": "Polygon", "coordinates": [ [ [ 79.868687808873716, 6.969016339225664 ], [ 79.868687860897936, 6.96919484018303 ], [ 79.86877229648681, 6.969218796209097 ], [ 79.86877769242642, 6.969374503239841 ], [ 79.868865523169546, 6.969406649360312 ], [ 79.868867523954819, 6.969554166296669 ], [ 79.868957251434665, 6.969554166296669 ], [ 79.868957251434665, 6.96937460720541 ], [ 79.868868341536995, 6.969338156292096 ], [ 79.868867419906266, 6.969105112620182 ], [ 79.868790895930857, 6.969091815674963 ], [ 79.868777588377895, 6.969015281091766 ], [ 79.868687808873716, 6.969016339225664 ] ] ] } },
{ "type": "Feature", "properties": { "enc_type": "Urban/Housing Expansion", "area_ha": 0.09, "risk_level": "Low Risk", "period": "2016 - 2026" }, "geometry": { "type": "Polygon", "coordinates": [ [ [ 79.882342253222603, 7.021297230627651 ], [ 79.882342253222603, 7.021476789718666 ], [ 79.882497938356536, 7.02148218137479 ], [ 79.882521916279458, 7.021566621247067 ], [ 79.882611643747239, 7.021566621247069 ], [ 79.882624952849909, 7.021490086702601 ], [ 79.882701475275695, 7.021476789718652 ], [ 79.882701475275695, 7.021387062156069 ], [ 79.88263181175985, 7.021379389020142 ], [ 79.882611643747268, 7.021297230627653 ], [ 79.882535121312216, 7.021283933649208 ], [ 79.882521812218897, 7.021207399099239 ], [ 79.882432084750974, 7.021207399099239 ], [ 79.882418775658948, 7.021283933650215 ], [ 79.882342253222603, 7.021297230627651 ] ] ] } }
]
}
