{
"type": "FeatureCollection",
"name": "mangroves_simplified",
"crs": { "type": "name", "properties": { "name": "urn:ogc:def:crs:OGC:1.3:CRS84" } },
"xy_coordinate_resolution": 1e-06,
"features": [
{ "type": "Feature", "properties": { "count": 69, "label": 1 }, "geometry": { "type": "Polygon", "coordinates": [ [ [ 79.822874, 7.204284 ], [ 79.823682, 7.204284 ], [ 79.823682, 7.204374 ], [ 79.823772, 7.204374 ], [ 79.823772, 7.204553 ], [ 79.823592, 7.204553 ], [ 79.823592, 7.204643 ], [ 79.823503, 7.204643 ], [ 79.823503, 7.204733 ], [ 79.823413, 7.204733 ], [ 79.823413, 7.204913 ], [ 79.823323, 7.204913 ], [ 79.823323, 7.205003 ], [ 79.822964, 7.205003 ], [ 79.822964, 7.204913 ], [ 79.822874, 7.204913 ], [ 79.822874, 7.204823 ], [ 79.822784, 7.204823 ], [ 79.822784, 7.205003 ], [ 79.822694, 7.205003 ], [ 79.822694, 7.204733 ], [ 79.822784, 7.204733 ], [ 79.822784, 7.204643 ], [ 79.822694, 7.204643 ], [ 79.822694, 7.204464 ], [ 79.822874, 7.204464 ], [ 79.822874, 7.204284 ] ] ] } },
{ "type": "Feature", "properties": { "count": 63, "label": 1 }, "geometry": { "type": "Polygon", "coordinates": [ [ [ 79.823682, 7.18515 ], [ 79.823772, 7.18515 ], [ 79.823772, 7.18524 ], [ 79.823862, 7.18524 ], [ 79.823862, 7.18533 ], [ 79.823952, 7.18533 ], [ 79.823952, 7.185419 ], [ 79.824042, 7.185419 ], [ 79.824042, 7.185869 ], [ 79.824131, 7.185869 ], [ 79.824131, 7.185958 ], [ 79.824401, 7.185958 ], [ 79.824401, 7.186408 ], [ 79.824491, 7.186408 ], [ 79.824491, 7.186497 ], [ 79.824581, 7.186497 ], [ 79.824581, 7.186587 ], [ 79.82467, 7.186587 ], [ 79.82467, 7.186947 ], [ 79.824581, 7.186947 ], [ 79.824581, 7.187036 ], [ 79.824401, 7.187036 ], [ 79.824401, 7.186857 ], [ 79.824311, 7.186857 ], [ 79.824311, 7.186767 ], [ 79.824131, 7.186767 ], [ 79.824131, 7.186138 ], [ 79.824042, 7.186138 ], [ 79.824042, 7.185958 ], [ 79.823952, 7.185958 ], [ 79.823952, 7.185689 ], [ 79.823862, 7.185689 ], [ 79.823862, 7.185509 ], [ 79.823772, 7.185509 ], [ 79.823772, 7.18533 ], [ 79.823682, 7.18533 ], [ 79.823682, 7.18515 ] ] ] } },
{ "type": "Feature", "properties": { "count": 8, "label": 1 }, "geometry": { "type": "Polygon", "coordinates": [ [ [ 79.824042, 7.205452 ], [ 79.824131, 7.205452 ], [ 79.824131, 7.205542 ], [ 79.824401, 7.205542 ], [ 79.824401, 7.205631 ], [ 79.824491, 7.205631 ], [ 79.824491, 7.205721 ], [ 79.824311, 7.205721 ], [ 79.824311, 7.205631 ], [ 79.824221, 7.205631 ], [ 79.824221, 7.205721 ], [ 79.824131, 7.205721 ], [ 79.824131, 7.205631 ], [ 79.824042, 7.205631 ], [ 79.824042, 7.205452 ] ] ] } },
{ "type": "Feature", "properties": { "count": 39, "label": 1 }, "geometry": { "type": "Polygon", "coordinates": [ [ [ 79.824042, 7.180658 ], [ 79.824401, 7.180658 ], [ 79.824401, 7.180748 ], [ 79.824311, 7.180748 ], [ 79.824311, 7.180928 ], [ 79.824221, 7.180928 ], [ 79.824221, 7.181018 ], [ 79.824042, 7.181018 ], [ 79.824042, 7.181197 ], [ 79.823952, 7.181197 ], [ 79.823952, 7.181287 ], [ 79.823772, 7.181287 ], [ 79.823772, 7.181377 ], [ 79.823682, 7.181377 ], [ 79.823682, 7.181736 ], [ 79.823592, 7.181736 ], [ 79.823592, 7.182096 ], [ 79.823413, 7.182096 ], [ 79.823413, 7.181826 ], [ 79.823503, 7.181826 ], [ 79.823503, 7.181736 ], [ 79.823592, 7.181736 ], [ 79.823592, 7.181377 ], [ 79.823682, 7.181377 ], [ 79.823682, 7.181018 ], [ 79.823772, 7.181018 ], [ 79.823772, 7.180928 ], [ 79.823952, 7.180928 ], [ 79.823952, 7.180838 ], [ 79.824042, 7.180838 ], [ 79.824042, 7.180658 ] ] ] } },
{ "type": "Feature", "properties": { "count": 324, "label": 1 }, "geometry": { "type": "Polygon", "coordinates": [ [ [ 79.824491, 7.188384 ], [ 79.82467, 7.188384 ], [ 79.82467, 7.188563 ], [ 79.82476, 7.188563 ], [ 79.82476, 7.188743 ], [ 79.82467, 7.188743 ], [ 79.82467, 7.188833 ], [ 79.82476, 7.188833 ], [ 79.82476, 7.188923 ], [ 79.82485, 7.188923 ], [ 79.82485, 7.189192 ], [ 79.82476, 7.189192 ], [ 79.82476, 7.189372 ], [ 79.826197, 7.189372 ], [ 79.826197, 7.189462 ], [ 79.826287, 7.189462 ], [ 79.826287, 7.189552 ], [ 79.826377, 7.189552 ], [ 79.826377, 7.189641 ], [ 79.826467, 7.189641 ], [ 79.826467, 7.189731 ], [ 79.826557, 7.189731 ], [ 79.826557, 7.189821 ], [ 79.826647, 7.189821 ], [ 79.826647, 7.189911 ], [ 79.826736, 7.189911 ], [ 79.826736, 7.190091 ], [ 79.826826, 7.190091 ], [ 79.826826, 7.19018 ], [ 79.826736, 7.19018 ], [ 79.826736, 7.19036 ], [ 79.826557, 7.19036 ], [ 79.826557, 7.190091 ], [ 79.826377, 7.190091 ], [ 79.826377, 7.19018 ], [ 79.826287, 7.19018 ], [ 79.826287, 7.19027 ], [ 79.825928, 7.19027 ], [ 79.825928, 7.19018 ], [ 79.825748, 7.19018 ], [ 79.825748, 7.19027 ], [ 79.825659, 7.19027 ], [ 79.825659, 7.19018 ], [ 79.825569, 7.19018 ], [ 79.825569, 7.19027 ], [ 79.825389, 7.19027 ], [ 79.825389, 7.19036 ], [ 79.825299, 7.19036 ], [ 79.825299, 7.19045 ], [ 79.82494, 7.19045 ], [ 79.82494, 7.19036 ], [ 79.82476, 7.19036 ], [ 79.82476, 7.19045 ], [ 79.82467, 7.19045 ], [ 79.82467, 7.19054 ], [ 79.824581, 7.19054 ], [ 79.824581, 7.190719 ], [ 79.82467, 7.190719 ], [ 79.82467, 7.190809 ], [ 79.824581, 7.190809 ], [ 79.824581, 7.190899 ], [ 79.824491, 7.190899 ], [ 79.824491, 7.190809 ], [ 79.824221, 7.190809 ], [ 79.824221, 7.19027 ], [ 79.824311, 7.19027 ], [ 79.824311, 7.19018 ], [ 79.824491, 7.19018 ], [ 79.824491, 7.190091 ], [ 79.824581, 7.190091 ], [ 79.824581, 7.189911 ], [ 79.82467, 7.189911 ], [ 79.82467, 7.189821 ], [ 79.824581, 7.189821 ], [ 79.824581, 7.189731 ], [ 79.824491, 7.189731 ], [ 79.824491, 7.189552 ], [ 79.824401, 7.189552 ], [ 79.824401, 7.189462 ], [ 79.824311, 7.189462 ], [ 79.824311, 7.189372 ], [ 79.824491, 7.189372 ], [ 79.824491, 7.189192 ], [ 79.824401, 7.189192 ], [ 79.824401, 7.189102 ], [ 79.824221, 7.189102 ], [ 79.824221, 7.188923 ], [ 79.824131, 7.188923 ], [ 79.824131, 7.188743 ], [ 79.824042, 7.188743 ], [ 79.824042, 7.188653 ], [ 79.824131, 7.188653 ], [ 79.824131, 7.188563 ], [ 79.824221, 7.188563 ], [ 79.824221, 7.188474 ], [ 79.824491, 7.188474 ], [ 79.824491, 7.188384 ] ], [ [ 79.825479, 7.189911 ], [ 79.825479, 7.190091 ], [ 79.825389, 7.190091 ], [ 79.825389, 7.189911 ], [ 79.825479, 7.189911 ] ] ] } },
{ "type": "Feature", "properties": { "count": 1, "label": 1 }, "geometry": { "type": "Polygon", "coordinates": [ [ [ 79.82476, 7.19557 ], [ 79.82485, 7.19557 ], [ 79.82485, 7.19566 ], [ 79.82476, 7.19566 ], [ 79.82476, 7.19557 ] ] ] } },
{ "type": "Feature", "properties": { "count": 136, "label": 1 }, "geometry": { "type": "Polygon", "coordinates": [ [ [ 79.82476, 7.192606 ], [ 79.82512, 7.192606 ], [ 79.82512, 7.192696 ], [ 79.82503, 7.192696 ], [ 79.82503, 7.192875 ], [ 79.82485, 7.192875 ], [ 79.82485, 7.193325 ], [ 79.82476, 7.193325 ], [ 79.82476, 7.193414 ], [ 79.82485, 7.193414 ], [ 79.82485, 7.193504 ], [ 79.825299, 7.193504 ], [ 79.825299, 7.194043 ], [ 79.825389, 7.194043 ], [ 79.825389, 7.194223 ], [ 79.825299, 7.194223 ], [ 79.825299, 7.194582 ], [ 79.825389, 7.194582 ], [ 79.825389, 7.194852 ], [ 79.825209, 7.194852 ], [ 79.825209, 7.194762 ], [ 79.82512, 7.194762 ], [ 79.82512, 7.194582 ], [ 79.82503, 7.194582 ], [ 79.82503, 7.194313 ], [ 79.82512, 7.194313 ], [ 79.82512, 7.194223 ], [ 79.82503, 7.194223 ], [ 79.82503, 7.194133 ], [ 79.82512, 7.194133 ], [ 79.82512, 7.194043 ], [ 79.82503, 7.194043 ], [ 79.82503, 7.193953 ], [ 79.82485, 7.193953 ], [ 79.82485, 7.193864 ], [ 79.824311, 7.193864 ], [ 79.824311, 7.193774 ], [ 79.824221, 7.193774 ], [ 79.824221, 7.193684 ], [ 79.824311, 7.193684 ], [ 79.824311, 7.193594 ], [ 79.824221, 7.193594 ], [ 79.824221, 7.193504 ], [ 79.824131, 7.193504 ], [ 79.824131, 7.193325 ], [ 79.824221, 7.193325 ], [ 79.824221, 7.193235 ], [ 79.824311, 7.193235 ], [ 79.824311, 7.193055 ], [ 79.824401, 7.193055 ], [ 79.824401, 7.192965 ], [ 79.824581, 7.192965 ], [ 79.824581, 7.192696 ], [ 79.82476, 7.192696 ], [ 79.82476, 7.192606 ] ] ] } },
{ "type": "Feature", "properties": { "count": 35, "label": 1 }, "geometry": { "type": "Polygon", "coordinates": [ [ [ 79.82512, 7.202218 ], [ 79.825299, 7.202218 ], [ 79.825299, 7.202398 ], [ 79.825389, 7.202398 ], [ 79.825389, 7.202937 ], [ 79.825479, 7.202937 ], [ 79.825479, 7.203026 ], [ 79.825569, 7.203026 ], [ 79.825569, 7.203116 ], [ 79.825479, 7.203116 ], [ 79.825479, 7.203206 ], [ 79.825389, 7.203206 ], [ 79.825389, 7.203296 ], [ 79.825299, 7.203296 ], [ 79.825299, 7.203116 ], [ 79.825209, 7.203116 ], [ 79.825209, 7.202937 ], [ 79.82512, 7.202937 ], [ 79.82512, 7.202667 ], [ 79.82503, 7.202667 ], [ 79.82503, 7.202398 ], [ 79.82512, 7.202398 ], [ 79.82512, 7.202218 ] ] ] } },
{ "type": "Feature", "properties": { "count": 1, "label": 1 }, "geometry": { "type": "Polygon", "coordinates": [ [ [ 79.825209, 7.175718 ], [ 79.825299, 7.175718 ], [ 79.825299, 7.175807 ], [ 79.825209, 7.175807 ], [ 79.825209, 7.175718 ] ] ] } },
{ "type": "Feature", "properties": { "count": 59, "label": 1 }, "geometry": { "type": "Polygon", "coordinates": [ [ [ 79.825209, 7.187126 ], [ 79.825479, 7.187126 ], [ 79.825479, 7.187216 ], [ 79.825569, 7.187216 ], [ 79.825569, 7.187306 ], [ 79.825659, 7.187306 ], [ 79.825659, 7.187396 ], [ 79.825748, 7.187396 ], [ 79.825748, 7.187486 ], [ 79.825838, 7.187486 ], [ 79.825838, 7.187575 ], [ 79.825928, 7.187575 ], [ 79.825928, 7.188024 ], [ 79.825569, 7.188024 ], [ 79.825569, 7.187845 ], [ 79.825479, 7.187845 ], [ 79.825479, 7.187755 ], [ 79.825209, 7.187755 ], [ 79.825209, 7.187665 ], [ 79.82512, 7.187665 ], [ 79.82512, 7.187216 ], [ 79.825209, 7.187216 ], [ 79.825209, 7.187126 ] ] ] } },
{ "type": "Feature", "properties": { "count": 95, "label": 1 }, "geometry": { "type": "Polygon", "coordinates": [ [ [ 79.825479, 7.176975 ], [ 79.825569, 7.176975 ], [ 79.825569, 7.177155 ], [ 79.825659, 7.177155 ], [ 79.825659, 7.177874 ], [ 79.825838, 7.177874 ], [ 79.825838, 7.178143 ], [ 79.825659, 7.178143 ], [ 79.825659, 7.178682 ], [ 79.825748, 7.178682 ], [ 79.825748, 7.179041 ], [ 79.825479, 7.179041 ], [ 79.825479, 7.178952 ], [ 79.825389, 7.178952 ], [ 79.825389, 7.178772 ], [ 79.825479, 7.178772 ], [ 79.825479, 7.178592 ], [ 79.825389, 7.178592 ], [ 79.825389, 7.178413 ], [ 79.825479, 7.178413 ], [ 79.825479, 7.178323 ], [ 79.825389, 7.178323 ], [ 79.825389, 7.178233 ], [ 79.825209, 7.178233 ], [ 79.825209, 7.178143 ], [ 79.82503, 7.178143 ], [ 79.82503, 7.177874 ], [ 79.825299, 7.177874 ], [ 79.825299, 7.177784 ], [ 79.825209, 7.177784 ], [ 79.825209, 7.177604 ], [ 79.825299, 7.177604 ], [ 79.825299, 7.177335 ], [ 79.825389, 7.177335 ], [ 79.825389, 7.177245 ], [ 79.825299, 7.177245 ], [ 79.825299, 7.177155 ], [ 79.825389, 7.177155 ], [ 79.825389, 7.177065 ], [ 79.825479, 7.177065 ], [ 79.825479, 7.176975 ] ] ] } },
{ "type": "Feature", "properties": { "count": 1, "label": 1 }, "geometry": { "type": "Polygon", "coordinates": [ [ [ 79.825569, 7.198175 ], [ 79.825659, 7.198175 ], [ 79.825659, 7.198265 ], [ 79.825569, 7.198265 ], [ 79.825569, 7.198175 ] ] ] } },
{ "type": "Feature", "properties": { "count": 40, "label": 1 }, "geometry": { "type": "Polygon", "coordinates": [ [ [ 79.825659, 7.205272 ], [ 79.825748, 7.205272 ], [ 79.825748, 7.205362 ], [ 79.825838, 7.205362 ], [ 79.825838, 7.205452 ], [ 79.825748, 7.205452 ], [ 79.825748, 7.205542 ], [ 79.825659, 7.205542 ], [ 79.825659, 7.205631 ], [ 79.825569, 7.205631 ], [ 79.825569, 7.205721 ], [ 79.825479, 7.205721 ], [ 79.825479, 7.205901 ], [ 79.825389, 7.205901 ], [ 79.825389, 7.205991 ], [ 79.825209, 7.205991 ], [ 79.825209, 7.20617 ], [ 79.82512, 7.20617 ], [ 79.82512, 7.20626 ], [ 79.82503, 7.20626 ], [ 79.82503, 7.205901 ], [ 79.82494, 7.205901 ], [ 79.82494, 7.205811 ], [ 79.82467, 7.205811 ], [ 79.82467, 7.205631 ], [ 79.82476, 7.205631 ], [ 79.82476, 7.205721 ], [ 79.825209, 7.205721 ], [ 79.825209, 7.205631 ], [ 79.825299, 7.205631 ], [ 79.825299, 7.205542 ], [ 79.825479, 7.205542 ], [ 79.825479, 7.205452 ], [ 79.825569, 7.205452 ], [ 79.825569, 7.205362 ], [ 79.825659, 7.205362 ], [ 79.825659, 7.205272 ] ] ] } },
{ "type": "Feature", "properties": { "count": 101, "label": 1 }, "geometry": { "type": "Polygon", "coordinates": [ [ [ 79.825659, 7.179221 ], [ 79.825748, 7.179221 ], [ 79.825748, 7.179311 ], [ 79.825838, 7.179311 ], [ 79.825838, 7.17976 ], [ 79.825928, 7.17976 ], [ 79.825928, 7.17985 ], [ 79.825838, 7.17985 ], [ 79.825838, 7.180029 ], [ 79.825659, 7.180029 ], [ 79.825659, 7.180209 ], [ 79.825389, 7.180209 ], [ 79.825389, 7.180479 ], [ 79.825299, 7.180479 ], [ 79.825299, 7.180658 ], [ 79.825209, 7.180658 ], [ 79.825209, 7.180838 ], [ 79.82512, 7.180838 ], [ 79.82512, 7.180748 ], [ 79.82503, 7.180748 ], [ 79.82503, 7.180658 ], [ 79.82476, 7.180658 ], [ 79.82476, 7.180568 ], [ 79.82485, 7.180568 ], [ 79.82485, 7.180479 ], [ 79.82494, 7.180479 ], [ 79.82494, 7.180209 ], [ 79.82503, 7.180209 ], [ 79.82503, 7.17958 ], [ 79.825209, 7.17958 ], [ 79.825209, 7.179491 ], [ 79.825659, 7.179491 ], [ 79.825659, 7.179221 ] ] ] } },
{ "type": "Feature", "properties": { "count": 8, "label": 1 }, "geometry": { "type": "Polygon", "coordinates": [ [ [ 79.825838, 7.188294 ], [ 79.826018, 7.188294 ], [ 79.826018, 7.188563 ], [ 79.825748, 7.188563 ], [ 79.825748, 7.188384 ], [ 79.825838, 7.188384 ], [ 79.825838, 7.188294 ] ] ] } },
{ "type": "Feature", "properties": { "count": 155, "label": 1 }, "geometry": { "type": "Polygon", "coordinates": [ [ [ 79.826108, 7.194043 ], [ 79.826377, 7.194043 ], [ 79.826377, 7.194492 ], [ 79.826467, 7.194492 ], [ 79.826467, 7.194672 ], [ 79.826557, 7.194672 ], [ 79.826557, 7.194852 ], [ 79.826647, 7.194852 ], [ 79.826647, 7.194942 ], [ 79.826736, 7.194942 ], [ 79.826736, 7.195211 ], [ 79.826826, 7.195211 ], [ 79.826826, 7.19557 ], [ 79.826647, 7.19557 ], [ 79.826647, 7.195481 ], [ 79.826557, 7.195481 ], [ 79.826557, 7.19566 ], [ 79.826647, 7.19566 ], [ 79.826647, 7.19575 ], [ 79.826736, 7.19575 ], [ 79.826736, 7.19584 ], [ 79.826826, 7.19584 ], [ 79.826826, 7.19593 ], [ 79.826467, 7.19593 ], [ 79.826467, 7.19584 ], [ 79.826377, 7.19584 ], [ 79.826377, 7.19566 ], [ 79.825838, 7.19566 ], [ 79.825838, 7.19557 ], [ 79.825748, 7.19557 ], [ 79.825748, 7.195481 ], [ 79.825659, 7.195481 ], [ 79.825659, 7.195391 ], [ 79.825748, 7.195391 ], [ 79.825748, 7.194942 ], [ 79.825659, 7.194942 ], [ 79.825659, 7.194852 ], [ 79.825748, 7.194852 ], [ 79.825748, 7.194762 ], [ 79.825838, 7.194762 ], [ 79.825838, 7.194672 ], [ 79.826018, 7.194672 ], [ 79.826018, 7.194313 ], [ 79.826108, 7.194313 ], [ 79.826108, 7.194043 ] ] ] } },
{ "type": "Feature", "properties": { "count": 13, "label": 1 }, "geometry": { "type": "Polygon", "coordinates": [ [ [ 79.826377, 7.193235 ], [ 79.826647, 7.193235 ], [ 79.826647, 7.193325 ], [ 79.826557, 7.193325 ], [ 79.826557, 7.193414 ], [ 79.826467, 7.193414 ], [ 79.826467, 7.193504 ], [ 79.826377, 7.193504 ], [ 79.826377, 7.193953 ], [ 79.826287, 7.193953 ], [ 79.826287, 7.193325 ], [ 79.826377, 7.193325 ], [ 79.826377, 7.193235 ] ] ] } },
{ "type": "Feature", "properties": { "count": 40, "label": 1 }, "geometry": { "type": "Polygon", "coordinates": [ [ [ 79.826377, 7.187935 ], [ 79.826736, 7.187935 ], [ 79.826736, 7.188024 ], [ 79.826826, 7.188024 ], [ 79.826826, 7.188114 ], [ 79.826916, 7.188114 ], [ 79.826916, 7.188204 ], [ 79.827006, 7.188204 ], [ 79.827006, 7.188294 ], [ 79.826916, 7.188294 ], [ 79.826916, 7.188384 ], [ 79.826826, 7.188384 ], [ 79.826826, 7.188563 ], [ 79.826647, 7.188563 ], [ 79.826647, 7.188474 ], [ 79.826467, 7.188474 ], [ 79.826467, 7.188384 ], [ 79.826287, 7.188384 ], [ 79.826287, 7.188294 ], [ 79.826197, 7.188294 ], [ 79.826197, 7.188114 ], [ 79.826287, 7.188114 ], [ 79.826287, 7.188024 ], [ 79.826377, 7.188024 ], [ 79.826377, 7.187935 ] ] ] } },
{ "type": "Feature", "properties": { "count": 1, "label": 1 }, "geometry": { "type": "Polygon", "coordinates": [ [ [ 79.826826, 7.191977 ], [ 79.826916, 7.191977 ], [ 79.826916, 7.192067 ], [ 79.826826, 7.192067 ], [ 79.826826, 7.191977 ] ] ] } },
{ "type": "Feature", "properties": { "count": 11, "label": 1 }, "geometry": { "type": "Polygon", "coordinates": [ [ [ 79.826916, 7.196289 ], [ 79.827006, 7.196289 ], [ 79.827006, 7.196379 ], [ 79.827096, 7.196379 ], [ 79.827096, 7.196648 ], [ 79.827006, 7.196648 ], [ 79.827006, 7.196738 ], [ 79.826916, 7.196738 ], [ 79.826916, 7.196648 ], [ 79.826826, 7.196648 ], [ 79.826826, 7.196379 ], [ 79.826916, 7.196379 ], [ 79.826916, 7.196289 ] ] ] } },
{ "type": "Feature", "properties": { "count": 1, "label": 1 }, "geometry": { "type": "Polygon", "coordinates": [ [ [ 79.827006, 7.192786 ], [ 79.827096, 7.192786 ], [ 79.827096, 7.192875 ], [ 79.827006, 7.192875 ], [ 79.827006, 7.192786 ] ] ] } },
{ "type": "Feature", "properties": { "count": 37, "label": 1 }, "geometry": { "type": "Polygon", "coordinates": [ [ [ 79.827006, 7.186408 ], [ 79.827096, 7.186408 ], [ 79.827096, 7.186497 ], [ 79.827186, 7.186497 ], [ 79.827186, 7.186677 ], [ 79.827275, 7.186677 ], [ 79.827275, 7.186857 ], [ 79.827186, 7.186857 ], [ 79.827186, 7.186947 ], [ 79.827096, 7.186947 ], [ 79.827096, 7.187126 ], [ 79.827006, 7.187126 ], [ 79.827006, 7.187216 ], [ 79.826647, 7.187216 ], [ 79.826647, 7.186857 ], [ 79.826826, 7.186857 ], [ 79.826826, 7.186677 ], [ 79.826916, 7.186677 ], [ 79.826916, 7.186497 ], [ 79.827006, 7.186497 ], [ 79.827006, 7.186408 ] ] ] } },
{ "type": "Feature", "properties": { "count": 68, "label": 1 }, "geometry": { "type": "Polygon", "coordinates": [ [ [ 79.827006, 7.197636 ], [ 79.827186, 7.197636 ], [ 79.827186, 7.197726 ], [ 79.827275, 7.197726 ], [ 79.827275, 7.197996 ], [ 79.827365, 7.197996 ], [ 79.827365, 7.198265 ], [ 79.827275, 7.198265 ], [ 79.827275, 7.198445 ], [ 79.827365, 7.198445 ], [ 79.827365, 7.198625 ], [ 79.826826, 7.198625 ], [ 79.826826, 7.198355 ], [ 79.826736, 7.198355 ], [ 79.826736, 7.198175 ], [ 79.826557, 7.198175 ], [ 79.826557, 7.198086 ], [ 79.826647, 7.198086 ], [ 79.826647, 7.197816 ], [ 79.826826, 7.197816 ], [ 79.826826, 7.197726 ], [ 79.827006, 7.197726 ], [ 79.827006, 7.197636 ] ] ] } },
{ "type": "Feature", "properties": { "count": 6, "label": 1 }, "geometry": { "type": "Polygon", "coordinates": [ [ [ 79.827186, 7.19593 ], [ 79.827275, 7.19593 ], [ 79.827275, 7.19602 ], [ 79.827365, 7.19602 ], [ 79.827365, 7.196199 ], [ 79.827275, 7.196199 ], [ 79.827275, 7.196109 ], [ 79.827006, 7.196109 ], [ 79.827006, 7.19602 ], [ 79.827186, 7.19602 ], [ 79.827186, 7.19593 ] ] ] } },
{ "type": "Feature", "properties": { "count": 43, "label": 1 }, "geometry": { "type": "Polygon", "coordinates": [ [ [ 79.827275, 7.199882 ], [ 79.827365, 7.199882 ], [ 79.827365, 7.199972 ], [ 79.827455, 7.199972 ], [ 79.827455, 7.200062 ], [ 79.827545, 7.200062 ], [ 79.827545, 7.200421 ], [ 79.827635, 7.200421 ], [ 79.827635, 7.200691 ], [ 79.827725, 7.200691 ], [ 79.827725, 7.200781 ], [ 79.827635, 7.200781 ], [ 79.827635, 7.20087 ], [ 79.827186, 7.20087 ], [ 79.827186, 7.200421 ], [ 79.827275, 7.200421 ], [ 79.827275, 7.200152 ], [ 79.827186, 7.200152 ], [ 79.827186, 7.199972 ], [ 79.827275, 7.199972 ], [ 79.827275, 7.199882 ] ] ] } },
{ "type": "Feature", "properties": { "count": 6, "label": 1 }, "geometry": { "type": "Polygon", "coordinates": [ [ [ 79.827186, 7.191887 ], [ 79.827365, 7.191887 ], [ 79.827365, 7.192157 ], [ 79.827186, 7.192157 ], [ 79.827186, 7.191887 ] ] ] } },
{ "type": "Feature", "properties": { "count": 2, "label": 1 }, "geometry": { "type": "Polygon", "coordinates": [ [ [ 79.827365, 7.19584 ], [ 79.827455, 7.19584 ], [ 79.827455, 7.19593 ], [ 79.827545, 7.19593 ], [ 79.827545, 7.19602 ], [ 79.827455, 7.19602 ], [ 79.827455, 7.19593 ], [ 79.827365, 7.19593 ], [ 79.827365, 7.19584 ] ] ] } },
{ "type": "Feature", "properties": { "count": 4, "label": 1 }, "geometry": { "type": "Polygon", "coordinates": [ [ [ 79.827635, 7.19575 ], [ 79.827814, 7.19575 ], [ 79.827814, 7.19584 ], [ 79.827904, 7.19584 ], [ 79.827904, 7.19593 ], [ 79.827725, 7.19593 ], [ 79.827725, 7.19584 ], [ 79.827635, 7.19584 ], [ 79.827635, 7.19575 ] ] ] } },
{ "type": "Feature", "properties": { "count": 3, "label": 1 }, "geometry": { "type": "Polygon", "coordinates": [ [ [ 79.827635, 7.198535 ], [ 79.827904, 7.198535 ], [ 79.827904, 7.198625 ], [ 79.827635, 7.198625 ], [ 79.827635, 7.198535 ] ] ] } },
{ "type": "Feature", "properties": { "count": 37, "label": 1 }, "geometry": { "type": "Polygon", "coordinates": [ [ [ 79.828174, 7.197097 ], [ 79.828264, 7.197097 ], [ 79.828264, 7.197187 ], [ 79.828353, 7.197187 ], [ 79.828353, 7.197277 ], [ 79.828443, 7.197277 ], [ 79.828443, 7.197457 ], [ 79.828353, 7.197457 ], [ 79.828353, 7.197547 ], [ 79.828264, 7.197547 ], [ 79.828264, 7.197636 ], [ 79.828174, 7.197636 ], [ 79.828174, 7.197816 ], [ 79.828264, 7.197816 ], [ 79.828264, 7.197906 ], [ 79.828174, 7.197906 ], [ 79.828174, 7.198086 ], [ 79.828264, 7.198086 ], [ 79.828264, 7.198175 ], [ 79.828353, 7.198175 ], [ 79.828353, 7.198265 ], [ 79.828084, 7.198265 ], [ 79.828084, 7.198445 ], [ 79.827994, 7.198445 ], [ 79.827994, 7.197996 ], [ 79.827904, 7.197996 ], [ 79.827904, 7.197726 ], [ 79.827994, 7.197726 ], [ 79.827994, 7.197636 ], [ 79.828084, 7.197636 ], [ 79.828084, 7.197457 ], [ 79.828174, 7.197457 ], [ 79.828174, 7.197097 ] ] ] } },
{ "type": "Feature", "properties": { "count": 674, "label": 1 }, "geometry": { "type": "Polygon", "coordinates": [ [ [ 79.827904, 7.187216 ], [ 79.828264, 7.187216 ], [ 79.828264, 7.187306 ], [ 79.828533, 7.187306 ], [ 79.828533, 7.187396 ], [ 79.828623, 7.187396 ], [ 79.828623, 7.187575 ], [ 79.828713, 7.187575 ], [ 79.828713, 7.187665 ], [ 79.828803, 7.187665 ], [ 79.828803, 7.187935 ], [ 79.828892, 7.187935 ], [ 79.828892, 7.188653 ], [ 79.828982, 7.188653 ], [ 79.828982, 7.188923 ], [ 79.828892, 7.188923 ], [ 79.828892, 7.189462 ], [ 79.828982, 7.189462 ], [ 79.828982, 7.189552 ], [ 79.828892, 7.189552 ], [ 79.828892, 7.189821 ], [ 79.828982, 7.189821 ], [ 79.828982, 7.190091 ], [ 79.829072, 7.190091 ], [ 79.829072, 7.19018 ], [ 79.828982, 7.19018 ], [ 79.828982, 7.19054 ], [ 79.828892, 7.19054 ], [ 79.828892, 7.19063 ], [ 79.828803, 7.19063 ], [ 79.828803, 7.190719 ], [ 79.828713, 7.190719 ], [ 79.828713, 7.190989 ], [ 79.828623, 7.190989 ], [ 79.828623, 7.191079 ], [ 79.828533, 7.191079 ], [ 79.828533, 7.191169 ], [ 79.828443, 7.191169 ], [ 79.828443, 7.191258 ], [ 79.828353, 7.191258 ], [ 79.828353, 7.191348 ], [ 79.828264, 7.191348 ], [ 79.828264, 7.191528 ], [ 79.828174, 7.191528 ], [ 79.828174, 7.191708 ], [ 79.827904, 7.191708 ], [ 79.827904, 7.191618 ], [ 79.827814, 7.191618 ], [ 79.827814, 7.191528 ], [ 79.827725, 7.191528 ], [ 79.827725, 7.191348 ], [ 79.827635, 7.191348 ], [ 79.827635, 7.191258 ], [ 79.827545, 7.191258 ], [ 79.827545, 7.191169 ], [ 79.827455, 7.191169 ], [ 79.827455, 7.190001 ], [ 79.827635, 7.190001 ], [ 79.827635, 7.189731 ], [ 79.827545, 7.189731 ], [ 79.827545, 7.189641 ], [ 79.827455, 7.189641 ], [ 79.827455, 7.189192 ], [ 79.827545, 7.189192 ], [ 79.827545, 7.189102 ], [ 79.827455, 7.189102 ], [ 79.827455, 7.189013 ], [ 79.827635, 7.189013 ], [ 79.827635, 7.188833 ], [ 79.827545, 7.188833 ], [ 79.827545, 7.187935 ], [ 79.827635, 7.187935 ], [ 79.827635, 7.187575 ], [ 79.827725, 7.187575 ], [ 79.827725, 7.187306 ], [ 79.827904, 7.187306 ], [ 79.827904, 7.187216 ] ] ] } },
{ "type": "Feature", "properties": { "count": 34, "label": 1 }, "geometry": { "type": "Polygon", "coordinates": [ [ [ 79.828174, 7.166285 ], [ 79.828264, 7.166285 ], [ 79.828264, 7.166375 ], [ 79.828353, 7.166375 ], [ 79.828353, 7.166734 ], [ 79.828264, 7.166734 ], [ 79.828264, 7.166914 ], [ 79.828174, 7.166914 ], [ 79.828174, 7.167004 ], [ 79.828084, 7.167004 ], [ 79.828084, 7.167184 ], [ 79.827814, 7.167184 ], [ 79.827814, 7.167273 ], [ 79.827725, 7.167273 ], [ 79.827725, 7.167004 ], [ 79.827814, 7.167004 ], [ 79.827814, 7.166824 ], [ 79.827994, 7.166824 ], [ 79.827994, 7.166734 ], [ 79.828084, 7.166734 ], [ 79.828084, 7.166375 ], [ 79.828174, 7.166375 ], [ 79.828174, 7.166285 ] ] ] } },
{ "type": "Feature", "properties": { "count": 3, "label": 1 }, "geometry": { "type": "Polygon", "coordinates": [ [ [ 79.828174, 7.196469 ], [ 79.828353, 7.196469 ], [ 79.828353, 7.196558 ], [ 79.828264, 7.196558 ], [ 79.828264, 7.196648 ], [ 79.828174, 7.196648 ], [ 79.828174, 7.196469 ] ] ] } },
{ "type": "Feature", "properties": { "count": 1, "label": 1 }, "geometry": { "type": "Polygon", "coordinates": [ [ [ 79.828892, 7.191528 ], [ 79.828982, 7.191528 ], [ 79.828982, 7.191618 ], [ 79.828892, 7.191618 ], [ 79.828892, 7.191528 ] ] ] } },
{ "type": "Feature", "properties": { "count": 1, "label": 1 }, "geometry": { "type": "Polygon", "coordinates": [ [ [ 79.828982, 7.197277 ], [ 79.829072, 7.197277 ], [ 79.829072, 7.197367 ], [ 79.828982, 7.197367 ], [ 79.828982, 7.197277 ] ] ] } },
{ "type": "Feature", "properties": { "count": 8, "label": 1 }, "geometry": { "type": "Polygon", "coordinates": [ [ [ 79.829162, 7.20096 ], [ 79.829342, 7.20096 ], [ 79.829342, 7.20114 ], [ 79.829252, 7.20114 ], [ 79.829252, 7.20123 ], [ 79.829162, 7.20123 ], [ 79.829162, 7.20132 ], [ 79.829072, 7.20132 ], [ 79.829072, 7.20105 ], [ 79.829162, 7.20105 ], [ 79.829162, 7.20096 ] ] ] } },
{ "type": "Feature", "properties": { "count": 94, "label": 1 }, "geometry": { "type": "Polygon", "coordinates": [ [ [ 79.829791, 7.198265 ], [ 79.829881, 7.198265 ], [ 79.829881, 7.198355 ], [ 79.82997, 7.198355 ], [ 79.82997, 7.198535 ], [ 79.83006, 7.198535 ], [ 79.83006, 7.198625 ], [ 79.83015, 7.198625 ], [ 79.83015, 7.198714 ], [ 79.83024, 7.198714 ], [ 79.83024, 7.198804 ], [ 79.83015, 7.198804 ], [ 79.83015, 7.198984 ], [ 79.82997, 7.198984 ], [ 79.82997, 7.198894 ], [ 79.829881, 7.198894 ], [ 79.829881, 7.198804 ], [ 79.829701, 7.198804 ], [ 79.829701, 7.198714 ], [ 79.829611, 7.198714 ], [ 79.829611, 7.198625 ], [ 79.829521, 7.198625 ], [ 79.829521, 7.198714 ], [ 79.829342, 7.198714 ], [ 79.829342, 7.198804 ], [ 79.829252, 7.198804 ], [ 79.829252, 7.199253 ], [ 79.829342, 7.199253 ], [ 79.829342, 7.199613 ], [ 79.829252, 7.199613 ], [ 79.829252, 7.199703 ], [ 79.829162, 7.199703 ], [ 79.829162, 7.199613 ], [ 79.829072, 7.199613 ], [ 79.829072, 7.199433 ], [ 79.828982, 7.199433 ], [ 79.828982, 7.199253 ], [ 79.828892, 7.199253 ], [ 79.828892, 7.199164 ], [ 79.828982, 7.199164 ], [ 79.828982, 7.198894 ], [ 79.828892, 7.198894 ], [ 79.828892, 7.198804 ], [ 79.828803, 7.198804 ], [ 79.828803, 7.198535 ], [ 79.828713, 7.198535 ], [ 79.828713, 7.198445 ], [ 79.829791, 7.198445 ], [ 79.829791, 7.198265 ] ] ] } },
{ "type": "Feature", "properties": { "count": 247, "label": 1 }, "geometry": { "type": "Polygon", "coordinates": [ [ [ 79.829791, 7.161524 ], [ 79.83006, 7.161524 ], [ 79.83006, 7.161614 ], [ 79.83015, 7.161614 ], [ 79.83015, 7.161704 ], [ 79.83024, 7.161704 ], [ 79.83024, 7.161794 ], [ 79.83015, 7.161794 ], [ 79.83015, 7.161884 ], [ 79.829791, 7.161884 ], [ 79.829791, 7.162333 ], [ 79.829881, 7.162333 ], [ 79.829881, 7.162423 ], [ 79.82997, 7.162423 ], [ 79.82997, 7.162602 ], [ 79.829791, 7.162602 ], [ 79.829791, 7.162961 ], [ 79.829611, 7.162961 ], [ 79.829611, 7.163141 ], [ 79.829521, 7.163141 ], [ 79.829521, 7.163231 ], [ 79.829431, 7.163231 ], [ 79.829431, 7.164219 ], [ 79.829342, 7.164219 ], [ 79.829342, 7.164489 ], [ 79.829072, 7.164489 ], [ 79.829072, 7.164578 ], [ 79.828982, 7.164578 ], [ 79.828982, 7.164758 ], [ 79.828803, 7.164758 ], [ 79.828803, 7.164938 ], [ 79.828713, 7.164938 ], [ 79.828713, 7.165207 ], [ 79.828623, 7.165207 ], [ 79.828623, 7.165656 ], [ 79.828443, 7.165656 ], [ 79.828443, 7.165477 ], [ 79.828264, 7.165477 ], [ 79.828264, 7.165387 ], [ 79.828174, 7.165387 ], [ 79.828174, 7.165297 ], [ 79.828264, 7.165297 ], [ 79.828264, 7.165207 ], [ 79.828443, 7.165207 ], [ 79.828443, 7.165117 ], [ 79.828533, 7.165117 ], [ 79.828533, 7.165028 ], [ 79.828623, 7.165028 ], [ 79.828623, 7.164129 ], [ 79.828713, 7.164129 ], [ 79.828713, 7.164039 ], [ 79.828803, 7.164039 ], [ 79.828803, 7.16377 ], [ 79.828982, 7.16377 ], [ 79.828982, 7.16368 ], [ 79.828892, 7.16368 ], [ 79.828892, 7.16359 ], [ 79.828982, 7.16359 ], [ 79.828982, 7.1635 ], [ 79.829072, 7.1635 ], [ 79.829072, 7.163321 ], [ 79.828982, 7.163321 ], [ 79.828982, 7.163141 ], [ 79.829072, 7.163141 ], [ 79.829072, 7.162872 ], [ 79.828982, 7.162872 ], [ 79.828982, 7.162512 ], [ 79.829072, 7.162512 ], [ 79.829072, 7.162423 ], [ 79.829252, 7.162423 ], [ 79.829252, 7.162333 ], [ 79.829431, 7.162333 ], [ 79.829431, 7.162153 ], [ 79.829611, 7.162153 ], [ 79.829611, 7.161704 ], [ 79.829701, 7.161704 ], [ 79.829701, 7.161614 ], [ 79.829791, 7.161614 ], [ 79.829791, 7.161524 ] ] ] } },
{ "type": "Feature", "properties": { "count": 34, "label": 1 }, "geometry": { "type": "Polygon", "coordinates": [ [ [ 79.83024, 7.200062 ], [ 79.83033, 7.200062 ], [ 79.83033, 7.200152 ], [ 79.83042, 7.200152 ], [ 79.83042, 7.200242 ], [ 79.830779, 7.200242 ], [ 79.830779, 7.200331 ], [ 79.830869, 7.200331 ], [ 79.830869, 7.200601 ], [ 79.830779, 7.200601 ], [ 79.830779, 7.200511 ], [ 79.830689, 7.200511 ], [ 79.830689, 7.200601 ], [ 79.830599, 7.200601 ], [ 79.830599, 7.200511 ], [ 79.830509, 7.200511 ], [ 79.830509, 7.200601 ], [ 79.83033, 7.200601 ], [ 79.83033, 7.200511 ], [ 79.83006, 7.200511 ], [ 79.83006, 7.200421 ], [ 79.82997, 7.200421 ], [ 79.82997, 7.200331 ], [ 79.83006, 7.200331 ], [ 79.83006, 7.200242 ], [ 79.83024, 7.200242 ], [ 79.83024, 7.200062 ] ] ] } },
{ "type": "Feature", "properties": { "count": 1688, "label": 1 }, "geometry": { "type": "Polygon", "coordinates": [ [ [ 79.830689, 7.19036 ], [ 79.830779, 7.19036 ], [ 79.830779, 7.19045 ], [ 79.830959, 7.19045 ], [ 79.830959, 7.19054 ], [ 79.831138, 7.19054 ], [ 79.831138, 7.19063 ], [ 79.831318, 7.19063 ], [ 79.831318, 7.190719 ], [ 79.831408, 7.190719 ], [ 79.831408, 7.190809 ], [ 79.831498, 7.190809 ], [ 79.831498, 7.191079 ], [ 79.831587, 7.191079 ], [ 79.831587, 7.191169 ], [ 79.831767, 7.191169 ], [ 79.831767, 7.191348 ], [ 79.831857, 7.191348 ], [ 79.831857, 7.191438 ], [ 79.831947, 7.191438 ], [ 79.831947, 7.191618 ], [ 79.832037, 7.191618 ], [ 79.832037, 7.191708 ], [ 79.832126, 7.191708 ], [ 79.832126, 7.192067 ], [ 79.832216, 7.192067 ], [ 79.832216, 7.192247 ], [ 79.832126, 7.192247 ], [ 79.832126, 7.192426 ], [ 79.832216, 7.192426 ], [ 79.832216, 7.192786 ], [ 79.832126, 7.192786 ], [ 79.832126, 7.193594 ], [ 79.832037, 7.193594 ], [ 79.832037, 7.194043 ], [ 79.831857, 7.194043 ], [ 79.831857, 7.194313 ], [ 79.831767, 7.194313 ], [ 79.831767, 7.194582 ], [ 79.831677, 7.194582 ], [ 79.831677, 7.194672 ], [ 79.831587, 7.194672 ], [ 79.831587, 7.194942 ], [ 79.831498, 7.194942 ], [ 79.831498, 7.195121 ], [ 79.831587, 7.195121 ], [ 79.831587, 7.195211 ], [ 79.831498, 7.195211 ], [ 79.831498, 7.195391 ], [ 79.831408, 7.195391 ], [ 79.831408, 7.19566 ], [ 79.831318, 7.19566 ], [ 79.831318, 7.19602 ], [ 79.831228, 7.19602 ], [ 79.831228, 7.196289 ], [ 79.831138, 7.196289 ], [ 79.831138, 7.196379 ], [ 79.830689, 7.196379 ], [ 79.830689, 7.196469 ], [ 79.830509, 7.196469 ], [ 79.830509, 7.196648 ], [ 79.830599, 7.196648 ], [ 79.830599, 7.196918 ], [ 79.830509, 7.196918 ], [ 79.830509, 7.197008 ], [ 79.83042, 7.197008 ], [ 79.83042, 7.196918 ], [ 79.83033, 7.196918 ], [ 79.83033, 7.196828 ], [ 79.83024, 7.196828 ], [ 79.83024, 7.196738 ], [ 79.83015, 7.196738 ], [ 79.83015, 7.196558 ], [ 79.83006, 7.196558 ], [ 79.83006, 7.196469 ], [ 79.82997, 7.196469 ], [ 79.82997, 7.196379 ], [ 79.829881, 7.196379 ], [ 79.829881, 7.196289 ], [ 79.829611, 7.196289 ], [ 79.829611, 7.196109 ], [ 79.829521, 7.196109 ], [ 79.829521, 7.19602 ], [ 79.829342, 7.19602 ], [ 79.829342, 7.19593 ], [ 79.829252, 7.19593 ], [ 79.829252, 7.19557 ], [ 79.829162, 7.19557 ], [ 79.829162, 7.195481 ], [ 79.829072, 7.195481 ], [ 79.829072, 7.195391 ], [ 79.828982, 7.195391 ], [ 79.828982, 7.195301 ], [ 79.828803, 7.195301 ], [ 79.828803, 7.195121 ], [ 79.828713, 7.195121 ], [ 79.828713, 7.195031 ], [ 79.828623, 7.195031 ], [ 79.828623, 7.193504 ], [ 79.828803, 7.193504 ], [ 79.828803, 7.193325 ], [ 79.828892, 7.193325 ], [ 79.828892, 7.193145 ], [ 79.828982, 7.193145 ], [ 79.828982, 7.193055 ], [ 79.829072, 7.193055 ], [ 79.829072, 7.192875 ], [ 79.829162, 7.192875 ], [ 79.829162, 7.192786 ], [ 79.829252, 7.192786 ], [ 79.829252, 7.192696 ], [ 79.829342, 7.192696 ], [ 79.829342, 7.192606 ], [ 79.829431, 7.192606 ], [ 79.829431, 7.192516 ], [ 79.829521, 7.192516 ], [ 79.829521, 7.192336 ], [ 79.829611, 7.192336 ], [ 79.829611, 7.192247 ], [ 79.829701, 7.192247 ], [ 79.829701, 7.192157 ], [ 79.83006, 7.192157 ], [ 79.83006, 7.192247 ], [ 79.83015, 7.192247 ], [ 79.83015, 7.192336 ], [ 79.83024, 7.192336 ], [ 79.83024, 7.192426 ], [ 79.83033, 7.192426 ], [ 79.83033, 7.192516 ], [ 79.830509, 7.192516 ], [ 79.830509, 7.192426 ], [ 79.83042, 7.192426 ], [ 79.83042, 7.192336 ], [ 79.83033, 7.192336 ], [ 79.83033, 7.192067 ], [ 79.83024, 7.192067 ], [ 79.83024, 7.191528 ], [ 79.83033, 7.191528 ], [ 79.83033, 7.191258 ], [ 79.83042, 7.191258 ], [ 79.83042, 7.190989 ], [ 79.830509, 7.190989 ], [ 79.830509, 7.19045 ], [ 79.830689, 7.19045 ], [ 79.830689, 7.19036 ] ], [ [ 79.829521, 7.194762 ], [ 79.829521, 7.194852 ], [ 79.829611, 7.194852 ], [ 79.829611, 7.194942 ], [ 79.829701, 7.194942 ], [ 79.829701, 7.195031 ], [ 79.829791, 7.195031 ], [ 79.829791, 7.195121 ], [ 79.829881, 7.195121 ], [ 79.829881, 7.195211 ], [ 79.82997, 7.195211 ], [ 79.82997, 7.195481 ], [ 79.83006, 7.195481 ], [ 79.83006, 7.19557 ], [ 79.82997, 7.19557 ], [ 79.82997, 7.19566 ], [ 79.829701, 7.19566 ], [ 79.829701, 7.19557 ], [ 79.829521, 7.19557 ], [ 79.829521, 7.195481 ], [ 79.829431, 7.195481 ], [ 79.829431, 7.195301 ], [ 79.829342, 7.195301 ], [ 79.829342, 7.194762 ], [ 79.829521, 7.194762 ] ], [ [ 79.83024, 7.194133 ], [ 79.83024, 7.194223 ], [ 79.83033, 7.194223 ], [ 79.83033, 7.194313 ], [ 79.83042, 7.194313 ], [ 79.83042, 7.194492 ], [ 79.83024, 7.194492 ], [ 79.83024, 7.194582 ], [ 79.83006, 7.194582 ], [ 79.83006, 7.194672 ], [ 79.829791, 7.194672 ], [ 79.829791, 7.194403 ], [ 79.82997, 7.194403 ], [ 79.82997, 7.194313 ], [ 79.829881, 7.194313 ], [ 79.829881, 7.194133 ], [ 79.83024, 7.194133 ] ] ] } },
{ "type": "Feature", "properties": { "count": 3, "label": 1 }, "geometry": { "type": "Polygon", "coordinates": [ [ [ 79.830689, 7.157122 ], [ 79.830869, 7.157122 ], [ 79.830869, 7.157212 ], [ 79.830779, 7.157212 ], [ 79.830779, 7.157302 ], [ 79.830689, 7.157302 ], [ 79.830689, 7.157122 ] ] ] } },
{ "type": "Feature", "properties": { "count": 103, "label": 1 }, "geometry": { "type": "Polygon", "coordinates": [ [ [ 79.830779, 7.186228 ], [ 79.830959, 7.186228 ], [ 79.830959, 7.186497 ], [ 79.831048, 7.186497 ], [ 79.831048, 7.186587 ], [ 79.831138, 7.186587 ], [ 79.831138, 7.186857 ], [ 79.831228, 7.186857 ], [ 79.831228, 7.186947 ], [ 79.831318, 7.186947 ], [ 79.831318, 7.187396 ], [ 79.831228, 7.187396 ], [ 79.831228, 7.188024 ], [ 79.831138, 7.188024 ], [ 79.831138, 7.188204 ], [ 79.830869, 7.188204 ], [ 79.830869, 7.187935 ], [ 79.830779, 7.187935 ], [ 79.830779, 7.187126 ], [ 79.830689, 7.187126 ], [ 79.830689, 7.186497 ], [ 79.830779, 7.186497 ], [ 79.830779, 7.186228 ] ] ] } },
{ "type": "Feature", "properties": { "count": 1, "label": 1 }, "geometry": { "type": "Polygon", "coordinates": [ [ [ 79.831048, 7.190001 ], [ 79.831138, 7.190001 ], [ 79.831138, 7.190091 ], [ 79.831048, 7.190091 ], [ 79.831048, 7.190001 ] ] ] } },
{ "type": "Feature", "properties": { "count": 10, "label": 1 }, "geometry": { "type": "Polygon", "coordinates": [ [ [ 79.831048, 7.153978 ], [ 79.831318, 7.153978 ], [ 79.831318, 7.154068 ], [ 79.831408, 7.154068 ], [ 79.831408, 7.154158 ], [ 79.831318, 7.154158 ], [ 79.831318, 7.154248 ], [ 79.831048, 7.154248 ], [ 79.831048, 7.153978 ] ] ] } },
{ "type": "Feature", "properties": { "count": 19, "label": 1 }, "geometry": { "type": "Polygon", "coordinates": [ [ [ 79.831587, 7.157302 ], [ 79.831677, 7.157302 ], [ 79.831677, 7.157841 ], [ 79.831498, 7.157841 ], [ 79.831498, 7.157751 ], [ 79.831408, 7.157751 ], [ 79.831408, 7.157661 ], [ 79.831138, 7.157661 ], [ 79.831138, 7.157482 ], [ 79.831587, 7.157482 ], [ 79.831587, 7.157302 ] ] ] } },
{ "type": "Feature", "properties": { "count": 208, "label": 1 }, "geometry": { "type": "Polygon", "coordinates": [ [ [ 79.832126, 7.152272 ], [ 79.832306, 7.152272 ], [ 79.832306, 7.152541 ], [ 79.832216, 7.152541 ], [ 79.832216, 7.152721 ], [ 79.832126, 7.152721 ], [ 79.832126, 7.15308 ], [ 79.832216, 7.15308 ], [ 79.832216, 7.15317 ], [ 79.832306, 7.15317 ], [ 79.832306, 7.15326 ], [ 79.832396, 7.15326 ], [ 79.832396, 7.153529 ], [ 79.832486, 7.153529 ], [ 79.832486, 7.153799 ], [ 79.832396, 7.153799 ], [ 79.832396, 7.153889 ], [ 79.832306, 7.153889 ], [ 79.832306, 7.153709 ], [ 79.832216, 7.153709 ], [ 79.832216, 7.153619 ], [ 79.831677, 7.153619 ], [ 79.831677, 7.153709 ], [ 79.831587, 7.153709 ], [ 79.831587, 7.153799 ], [ 79.831408, 7.153799 ], [ 79.831408, 7.153709 ], [ 79.831228, 7.153709 ], [ 79.831228, 7.153619 ], [ 79.831048, 7.153619 ], [ 79.831048, 7.153529 ], [ 79.830959, 7.153529 ], [ 79.830959, 7.153439 ], [ 79.830869, 7.153439 ], [ 79.830869, 7.15335 ], [ 79.830689, 7.15335 ], [ 79.830689, 7.15326 ], [ 79.830599, 7.15326 ], [ 79.830599, 7.15308 ], [ 79.830779, 7.15308 ], [ 79.830779, 7.15317 ], [ 79.830869, 7.15317 ], [ 79.830869, 7.15326 ], [ 79.830959, 7.15326 ], [ 79.830959, 7.15299 ], [ 79.830779, 7.15299 ], [ 79.830779, 7.1529 ], [ 79.830869, 7.1529 ], [ 79.830869, 7.152811 ], [ 79.830959, 7.152811 ], [ 79.830959, 7.152721 ], [ 79.831138, 7.152721 ], [ 79.831138, 7.152541 ], [ 79.831498, 7.152541 ], [ 79.831498, 7.152272 ], [ 79.831677, 7.152272 ], [ 79.831677, 7.152361 ], [ 79.831767, 7.152361 ], [ 79.831767, 7.152451 ], [ 79.831857, 7.152451 ], [ 79.831857, 7.152541 ], [ 79.832126, 7.152541 ], [ 79.832126, 7.152272 ] ], [ [ 79.831947, 7.152631 ], [ 79.831947, 7.152721 ], [ 79.831857, 7.152721 ], [ 79.831857, 7.152631 ], [ 79.831947, 7.152631 ] ] ] } },
{ "type": "Feature", "properties": { "count": 565, "label": 1 }, "geometry": { "type": "Polygon", "coordinates": [ [ [ 79.832306, 7.154248 ], [ 79.832486, 7.154248 ], [ 79.832486, 7.154607 ], [ 79.832396, 7.154607 ], [ 79.832396, 7.154787 ], [ 79.832486, 7.154787 ], [ 79.832486, 7.155326 ], [ 79.832396, 7.155326 ], [ 79.832396, 7.155505 ], [ 79.832306, 7.155505 ], [ 79.832306, 7.156224 ], [ 79.832216, 7.156224 ], [ 79.832216, 7.156404 ], [ 79.832306, 7.156404 ], [ 79.832306, 7.156673 ], [ 79.832396, 7.156673 ], [ 79.832396, 7.156763 ], [ 79.832486, 7.156763 ], [ 79.832486, 7.156853 ], [ 79.832576, 7.156853 ], [ 79.832576, 7.157033 ], [ 79.832665, 7.157033 ], [ 79.832665, 7.157482 ], [ 79.832755, 7.157482 ], [ 79.832755, 7.15829 ], [ 79.832665, 7.15829 ], [ 79.832665, 7.15838 ], [ 79.832486, 7.15838 ], [ 79.832486, 7.15856 ], [ 79.832576, 7.15856 ], [ 79.832576, 7.159099 ], [ 79.832396, 7.159099 ], [ 79.832396, 7.159189 ], [ 79.832306, 7.159189 ], [ 79.832306, 7.159278 ], [ 79.832216, 7.159278 ], [ 79.832216, 7.159368 ], [ 79.832126, 7.159368 ], [ 79.832126, 7.159548 ], [ 79.832037, 7.159548 ], [ 79.832037, 7.159638 ], [ 79.831857, 7.159638 ], [ 79.831857, 7.159728 ], [ 79.831587, 7.159728 ], [ 79.831587, 7.159817 ], [ 79.831498, 7.159817 ], [ 79.831498, 7.159907 ], [ 79.831318, 7.159907 ], [ 79.831318, 7.159997 ], [ 79.831228, 7.159997 ], [ 79.831228, 7.160177 ], [ 79.831138, 7.160177 ], [ 79.831138, 7.160267 ], [ 79.831048, 7.160267 ], [ 79.831048, 7.160446 ], [ 79.830959, 7.160446 ], [ 79.830959, 7.160536 ], [ 79.830869, 7.160536 ], [ 79.830869, 7.160626 ], [ 79.830779, 7.160626 ], [ 79.830779, 7.160806 ], [ 79.830689, 7.160806 ], [ 79.830689, 7.161075 ], [ 79.830509, 7.161075 ], [ 79.830509, 7.161255 ], [ 79.83033, 7.161255 ], [ 79.83033, 7.161345 ], [ 79.83024, 7.161345 ], [ 79.83024, 7.161165 ], [ 79.83015, 7.161165 ], [ 79.83015, 7.160985 ], [ 79.83006, 7.160985 ], [ 79.83006, 7.160806 ], [ 79.82997, 7.160806 ], [ 79.82997, 7.160626 ], [ 79.83033, 7.160626 ], [ 79.83033, 7.160536 ], [ 79.830509, 7.160536 ], [ 79.830509, 7.160446 ], [ 79.830779, 7.160446 ], [ 79.830779, 7.160356 ], [ 79.830869, 7.160356 ], [ 79.830869, 7.160267 ], [ 79.830959, 7.160267 ], [ 79.830959, 7.159638 ], [ 79.831048, 7.159638 ], [ 79.831048, 7.159548 ], [ 79.831408, 7.159548 ], [ 79.831408, 7.159458 ], [ 79.831857, 7.159458 ], [ 79.831857, 7.159368 ], [ 79.832037, 7.159368 ], [ 79.832037, 7.159278 ], [ 79.832126, 7.159278 ], [ 79.832126, 7.159099 ], [ 79.832216, 7.159099 ], [ 79.832216, 7.158829 ], [ 79.832306, 7.158829 ], [ 79.832306, 7.15865 ], [ 79.832216, 7.15865 ], [ 79.832216, 7.15856 ], [ 79.832306, 7.15856 ], [ 79.832306, 7.157572 ], [ 79.832396, 7.157572 ], [ 79.832396, 7.157392 ], [ 79.832306, 7.157392 ], [ 79.832306, 7.157302 ], [ 79.832396, 7.157302 ], [ 79.832396, 7.157212 ], [ 79.832306, 7.157212 ], [ 79.832306, 7.157122 ], [ 79.832216, 7.157122 ], [ 79.832216, 7.157212 ], [ 79.832126, 7.157212 ], [ 79.832126, 7.157122 ], [ 79.831767, 7.157122 ], [ 79.831767, 7.157212 ], [ 79.831677, 7.157212 ], [ 79.831677, 7.157122 ], [ 79.831408, 7.157122 ], [ 79.831408, 7.156943 ], [ 79.831318, 7.156943 ], [ 79.831318, 7.156853 ], [ 79.831228, 7.156853 ], [ 79.831228, 7.156583 ], [ 79.831138, 7.156583 ], [ 79.831138, 7.156494 ], [ 79.831048, 7.156494 ], [ 79.831048, 7.156404 ], [ 79.830959, 7.156404 ], [ 79.830959, 7.156314 ], [ 79.830869, 7.156314 ], [ 79.830869, 7.156224 ], [ 79.830689, 7.156224 ], [ 79.830689, 7.156044 ], [ 79.831228, 7.156044 ], [ 79.831228, 7.155955 ], [ 79.831318, 7.155955 ], [ 79.831318, 7.155685 ], [ 79.831408, 7.155685 ], [ 79.831408, 7.154966 ], [ 79.831498, 7.154966 ], [ 79.831498, 7.154877 ], [ 79.831947, 7.154877 ], [ 79.831947, 7.154607 ], [ 79.832037, 7.154607 ], [ 79.832037, 7.154428 ], [ 79.832216, 7.154428 ], [ 79.832216, 7.154338 ], [ 79.832306, 7.154338 ], [ 79.832306, 7.154248 ] ] ] } },
{ "type": "Feature", "properties": { "count": 11, "label": 1 }, "geometry": { "type": "Polygon", "coordinates": [ [ [ 79.832576, 7.208326 ], [ 79.832755, 7.208326 ], [ 79.832755, 7.208596 ], [ 79.832576, 7.208596 ], [ 79.832576, 7.208686 ], [ 79.832396, 7.208686 ], [ 79.832396, 7.208506 ], [ 79.832486, 7.208506 ], [ 79.832486, 7.208416 ], [ 79.832576, 7.208416 ], [ 79.832576, 7.208326 ] ] ] } },
{ "type": "Feature", "properties": { "count": 36, "label": 1 }, "geometry": { "type": "Polygon", "coordinates": [ [ [ 79.832576, 7.151104 ], [ 79.832845, 7.151104 ], [ 79.832845, 7.151643 ], [ 79.832665, 7.151643 ], [ 79.832665, 7.151733 ], [ 79.832576, 7.151733 ], [ 79.832576, 7.151822 ], [ 79.832486, 7.151822 ], [ 79.832486, 7.152002 ], [ 79.832306, 7.152002 ], [ 79.832306, 7.151912 ], [ 79.832396, 7.151912 ], [ 79.832396, 7.151463 ], [ 79.832306, 7.151463 ], [ 79.832306, 7.151373 ], [ 79.832396, 7.151373 ], [ 79.832396, 7.151283 ], [ 79.832486, 7.151283 ], [ 79.832486, 7.151194 ], [ 79.832576, 7.151194 ], [ 79.832576, 7.151104 ] ] ] } },
{ "type": "Feature", "properties": { "count": 48, "label": 1 }, "geometry": { "type": "Polygon", "coordinates": [ [ [ 79.832845, 7.150205 ], [ 79.833294, 7.150205 ], [ 79.833294, 7.150565 ], [ 79.833204, 7.150565 ], [ 79.833204, 7.150744 ], [ 79.833115, 7.150744 ], [ 79.833115, 7.150834 ], [ 79.833025, 7.150834 ], [ 79.833025, 7.150924 ], [ 79.832845, 7.150924 ], [ 79.832845, 7.150834 ], [ 79.832755, 7.150834 ], [ 79.832755, 7.150744 ], [ 79.832665, 7.150744 ], [ 79.832665, 7.150655 ], [ 79.832576, 7.150655 ], [ 79.832576, 7.150295 ], [ 79.832845, 7.150295 ], [ 79.832845, 7.150205 ] ] ] } },
{ "type": "Feature", "properties": { "count": 927, "label": 1 }, "geometry": { "type": "Polygon", "coordinates": [ [ [ 79.833025, 7.188204 ], [ 79.833743, 7.188204 ], [ 79.833743, 7.188294 ], [ 79.833923, 7.188294 ], [ 79.833923, 7.188384 ], [ 79.834013, 7.188384 ], [ 79.834013, 7.188474 ], [ 79.834193, 7.188474 ], [ 79.834193, 7.188563 ], [ 79.834282, 7.188563 ], [ 79.834282, 7.188833 ], [ 79.834372, 7.188833 ], [ 79.834372, 7.189641 ], [ 79.834462, 7.189641 ], [ 79.834462, 7.189821 ], [ 79.834552, 7.189821 ], [ 79.834552, 7.190091 ], [ 79.834642, 7.190091 ], [ 79.834642, 7.19036 ], [ 79.834731, 7.19036 ], [ 79.834731, 7.19054 ], [ 79.834821, 7.19054 ], [ 79.834821, 7.190899 ], [ 79.834911, 7.190899 ], [ 79.834911, 7.190989 ], [ 79.834821, 7.190989 ], [ 79.834821, 7.191528 ], [ 79.834731, 7.191528 ], [ 79.834731, 7.192606 ], [ 79.834642, 7.192606 ], [ 79.834642, 7.192875 ], [ 79.834731, 7.192875 ], [ 79.834731, 7.193055 ], [ 79.834642, 7.193055 ], [ 79.834642, 7.193145 ], [ 79.834462, 7.193145 ], [ 79.834462, 7.193055 ], [ 79.834372, 7.193055 ], [ 79.834372, 7.192875 ], [ 79.834282, 7.192875 ], [ 79.834282, 7.192247 ], [ 79.834193, 7.192247 ], [ 79.834193, 7.192157 ], [ 79.834013, 7.192157 ], [ 79.834013, 7.192067 ], [ 79.833384, 7.192067 ], [ 79.833384, 7.191977 ], [ 79.833294, 7.191977 ], [ 79.833294, 7.191797 ], [ 79.833204, 7.191797 ], [ 79.833204, 7.191708 ], [ 79.833025, 7.191708 ], [ 79.833025, 7.191618 ], [ 79.832935, 7.191618 ], [ 79.832935, 7.191348 ], [ 79.832845, 7.191348 ], [ 79.832845, 7.191258 ], [ 79.832755, 7.191258 ], [ 79.832755, 7.190719 ], [ 79.832665, 7.190719 ], [ 79.832665, 7.189911 ], [ 79.832576, 7.189911 ], [ 79.832576, 7.189462 ], [ 79.832486, 7.189462 ], [ 79.832486, 7.188833 ], [ 79.832576, 7.188833 ], [ 79.832576, 7.188474 ], [ 79.832665, 7.188474 ], [ 79.832665, 7.188294 ], [ 79.833025, 7.188294 ], [ 79.833025, 7.188204 ] ] ] } },
{ "type": "Feature", "properties": { "count": 12, "label": 1 }, "geometry": { "type": "Polygon", "coordinates": [ [ [ 79.833564, 7.149666 ], [ 79.833833, 7.149666 ], [ 79.833833, 7.149756 ], [ 79.833564, 7.149756 ], [ 79.833564, 7.149846 ], [ 79.833474, 7.149846 ], [ 79.833474, 7.149936 ], [ 79.833384, 7.149936 ], [ 79.833384, 7.150116 ], [ 79.833204, 7.150116 ], [ 79.833204, 7.149936 ], [ 79.833294, 7.149936 ], [ 79.833294, 7.149756 ], [ 79.833564, 7.149756 ], [ 79.833564, 7.149666 ] ] ] } },
{ "type": "Feature", "properties": { "count": 5, "label": 1 }, "geometry": { "type": "Polygon", "coordinates": [ [ [ 79.833743, 7.199164 ], [ 79.833923, 7.199164 ], [ 79.833923, 7.199343 ], [ 79.833833, 7.199343 ], [ 79.833833, 7.199433 ], [ 79.833743, 7.199433 ], [ 79.833743, 7.199164 ] ] ] } },
{ "type": "Feature", "properties": { "count": 1, "label": 1 }, "geometry": { "type": "Polygon", "coordinates": [ [ [ 79.834282, 7.207518 ], [ 79.834372, 7.207518 ], [ 79.834372, 7.207608 ], [ 79.834282, 7.207608 ], [ 79.834282, 7.207518 ] ] ] } },
{ "type": "Feature", "properties": { "count": 11, "label": 1 }, "geometry": { "type": "Polygon", "coordinates": [ [ [ 79.834282, 7.149038 ], [ 79.834372, 7.149038 ], [ 79.834372, 7.149217 ], [ 79.834282, 7.149217 ], [ 79.834282, 7.149307 ], [ 79.834103, 7.149307 ], [ 79.834103, 7.149577 ], [ 79.834013, 7.149577 ], [ 79.834013, 7.149397 ], [ 79.833923, 7.149397 ], [ 79.833923, 7.149307 ], [ 79.834013, 7.149307 ], [ 79.834013, 7.149217 ], [ 79.834103, 7.149217 ], [ 79.834103, 7.149127 ], [ 79.834282, 7.149127 ], [ 79.834282, 7.149038 ] ] ] } },
{ "type": "Feature", "properties": { "count": 1, "label": 1 }, "geometry": { "type": "Polygon", "coordinates": [ [ [ 79.834372, 7.207698 ], [ 79.834462, 7.207698 ], [ 79.834462, 7.207787 ], [ 79.834372, 7.207787 ], [ 79.834372, 7.207698 ] ] ] } },
{ "type": "Feature", "properties": { "count": 99, "label": 1 }, "geometry": { "type": "Polygon", "coordinates": [ [ [ 79.834731, 7.14221 ], [ 79.834821, 7.14221 ], [ 79.834821, 7.1423 ], [ 79.83527, 7.1423 ], [ 79.83527, 7.14239 ], [ 79.83536, 7.14239 ], [ 79.83536, 7.14248 ], [ 79.83545, 7.14248 ], [ 79.83545, 7.1423 ], [ 79.83563, 7.1423 ], [ 79.83563, 7.14239 ], [ 79.835809, 7.14239 ], [ 79.835809, 7.14248 ], [ 79.835899, 7.14248 ], [ 79.835899, 7.14257 ], [ 79.835809, 7.14257 ], [ 79.835809, 7.142749 ], [ 79.835899, 7.142749 ], [ 79.835899, 7.142839 ], [ 79.835809, 7.142839 ], [ 79.835809, 7.142929 ], [ 79.83572, 7.142929 ], [ 79.83572, 7.143109 ], [ 79.83563, 7.143109 ], [ 79.83563, 7.143199 ], [ 79.83527, 7.143199 ], [ 79.83527, 7.143109 ], [ 79.835181, 7.143109 ], [ 79.835181, 7.143019 ], [ 79.835091, 7.143019 ], [ 79.835091, 7.142929 ], [ 79.834911, 7.142929 ], [ 79.834911, 7.142839 ], [ 79.834731, 7.142839 ], [ 79.834731, 7.142749 ], [ 79.834642, 7.142749 ], [ 79.834642, 7.14257 ], [ 79.834731, 7.14257 ], [ 79.834731, 7.14221 ] ] ] } },
{ "type": "Feature", "properties": { "count": 4, "label": 1 }, "geometry": { "type": "Polygon", "coordinates": [ [ [ 79.835181, 7.148409 ], [ 79.83527, 7.148409 ], [ 79.83527, 7.148499 ], [ 79.83536, 7.148499 ], [ 79.83536, 7.148588 ], [ 79.835091, 7.148588 ], [ 79.835091, 7.148499 ], [ 79.835181, 7.148499 ], [ 79.835181, 7.148409 ] ] ] } },
{ "type": "Feature", "properties": { "count": 16, "label": 1 }, "geometry": { "type": "Polygon", "coordinates": [ [ [ 79.83545, 7.203925 ], [ 79.83554, 7.203925 ], [ 79.83554, 7.204104 ], [ 79.83563, 7.204104 ], [ 79.83563, 7.204374 ], [ 79.83572, 7.204374 ], [ 79.83572, 7.204464 ], [ 79.835809, 7.204464 ], [ 79.835809, 7.204553 ], [ 79.83572, 7.204553 ], [ 79.83572, 7.204733 ], [ 79.835809, 7.204733 ], [ 79.835809, 7.204823 ], [ 79.83563, 7.204823 ], [ 79.83563, 7.204643 ], [ 79.83554, 7.204643 ], [ 79.83554, 7.204553 ], [ 79.83563, 7.204553 ], [ 79.83563, 7.204464 ], [ 79.83554, 7.204464 ], [ 79.83554, 7.204284 ], [ 79.83545, 7.204284 ], [ 79.83545, 7.203925 ] ] ] } },
{ "type": "Feature", "properties": { "count": 70, "label": 1 }, "geometry": { "type": "Polygon", "coordinates": [ [ [ 79.83563, 7.205362 ], [ 79.835809, 7.205362 ], [ 79.835809, 7.205452 ], [ 79.835899, 7.205452 ], [ 79.835899, 7.205631 ], [ 79.835809, 7.205631 ], [ 79.835809, 7.205721 ], [ 79.83563, 7.205721 ], [ 79.83563, 7.205991 ], [ 79.83572, 7.205991 ], [ 79.83572, 7.20626 ], [ 79.835809, 7.20626 ], [ 79.835809, 7.20644 ], [ 79.835899, 7.20644 ], [ 79.835899, 7.206979 ], [ 79.835809, 7.206979 ], [ 79.835809, 7.207069 ], [ 79.83572, 7.207069 ], [ 79.83572, 7.207248 ], [ 79.83554, 7.207248 ], [ 79.83554, 7.207338 ], [ 79.835181, 7.207338 ], [ 79.835181, 7.207248 ], [ 79.835091, 7.207248 ], [ 79.835091, 7.207069 ], [ 79.835181, 7.207069 ], [ 79.835181, 7.206979 ], [ 79.83536, 7.206979 ], [ 79.83536, 7.206889 ], [ 79.83554, 7.206889 ], [ 79.83554, 7.206799 ], [ 79.83563, 7.206799 ], [ 79.83563, 7.206709 ], [ 79.83572, 7.206709 ], [ 79.83572, 7.20653 ], [ 79.83563, 7.20653 ], [ 79.83563, 7.20635 ], [ 79.83572, 7.20635 ], [ 79.83572, 7.20626 ], [ 79.83563, 7.20626 ], [ 79.83563, 7.20617 ], [ 79.83554, 7.20617 ], [ 79.83554, 7.205811 ], [ 79.83545, 7.205811 ], [ 79.83545, 7.205721 ], [ 79.83554, 7.205721 ], [ 79.83554, 7.205452 ], [ 79.83563, 7.205452 ], [ 79.83563, 7.205362 ] ] ] } },
{ "type": "Feature", "properties": { "count": 3195, "label": 1 }, "geometry": { "type": "Polygon", "coordinates": [ [ [ 79.836348, 7.188384 ], [ 79.836438, 7.188384 ], [ 79.836438, 7.188474 ], [ 79.836708, 7.188474 ], [ 79.836708, 7.188743 ], [ 79.836798, 7.188743 ], [ 79.836798, 7.188833 ], [ 79.836887, 7.188833 ], [ 79.836887, 7.188923 ], [ 79.837067, 7.188923 ], [ 79.837067, 7.189013 ], [ 79.837157, 7.189013 ], [ 79.837157, 7.189102 ], [ 79.837247, 7.189102 ], [ 79.837247, 7.189282 ], [ 79.837426, 7.189282 ], [ 79.837426, 7.189372 ], [ 79.837516, 7.189372 ], [ 79.837516, 7.189462 ], [ 79.837606, 7.189462 ], [ 79.837606, 7.189552 ], [ 79.837696, 7.189552 ], [ 79.837696, 7.189641 ], [ 79.837786, 7.189641 ], [ 79.837786, 7.189731 ], [ 79.837876, 7.189731 ], [ 79.837876, 7.189821 ], [ 79.838055, 7.189821 ], [ 79.838055, 7.189911 ], [ 79.838145, 7.189911 ], [ 79.838145, 7.190001 ], [ 79.838235, 7.190001 ], [ 79.838235, 7.190091 ], [ 79.838325, 7.190091 ], [ 79.838325, 7.19027 ], [ 79.838235, 7.19027 ], [ 79.838235, 7.19045 ], [ 79.838145, 7.19045 ], [ 79.838145, 7.19054 ], [ 79.837876, 7.19054 ], [ 79.837876, 7.191618 ], [ 79.837696, 7.191618 ], [ 79.837696, 7.191797 ], [ 79.837516, 7.191797 ], [ 79.837516, 7.191977 ], [ 79.837426, 7.191977 ], [ 79.837426, 7.192067 ], [ 79.837337, 7.192067 ], [ 79.837337, 7.192157 ], [ 79.837247, 7.192157 ], [ 79.837247, 7.192247 ], [ 79.837157, 7.192247 ], [ 79.837157, 7.192336 ], [ 79.836977, 7.192336 ], [ 79.836977, 7.192516 ], [ 79.836887, 7.192516 ], [ 79.836887, 7.192606 ], [ 79.836798, 7.192606 ], [ 79.836798, 7.192696 ], [ 79.836708, 7.192696 ], [ 79.836708, 7.192875 ], [ 79.836618, 7.192875 ], [ 79.836618, 7.193055 ], [ 79.836528, 7.193055 ], [ 79.836528, 7.193145 ], [ 79.836348, 7.193145 ], [ 79.836348, 7.193325 ], [ 79.836528, 7.193325 ], [ 79.836528, 7.193414 ], [ 79.836708, 7.193414 ], [ 79.836708, 7.193325 ], [ 79.836887, 7.193325 ], [ 79.836887, 7.193235 ], [ 79.837067, 7.193235 ], [ 79.837067, 7.193325 ], [ 79.837516, 7.193325 ], [ 79.837516, 7.193414 ], [ 79.837606, 7.193414 ], [ 79.837606, 7.193504 ], [ 79.837696, 7.193504 ], [ 79.837696, 7.193594 ], [ 79.837786, 7.193594 ], [ 79.837786, 7.193684 ], [ 79.837876, 7.193684 ], [ 79.837876, 7.194672 ], [ 79.838325, 7.194672 ], [ 79.838325, 7.194582 ], [ 79.838504, 7.194582 ], [ 79.838504, 7.194492 ], [ 79.838594, 7.194492 ], [ 79.838594, 7.194582 ], [ 79.838864, 7.194582 ], [ 79.838864, 7.194672 ], [ 79.839313, 7.194672 ], [ 79.839313, 7.194942 ], [ 79.839403, 7.194942 ], [ 79.839403, 7.195031 ], [ 79.839493, 7.195031 ], [ 79.839493, 7.195211 ], [ 79.839582, 7.195211 ], [ 79.839582, 7.195301 ], [ 79.839493, 7.195301 ], [ 79.839493, 7.195391 ], [ 79.839313, 7.195391 ], [ 79.839313, 7.195301 ], [ 79.839043, 7.195301 ], [ 79.839043, 7.195481 ], [ 79.838954, 7.195481 ], [ 79.838954, 7.19557 ], [ 79.838864, 7.19557 ], [ 79.838864, 7.195481 ], [ 79.838594, 7.195481 ], [ 79.838594, 7.19566 ], [ 79.838504, 7.19566 ], [ 79.838504, 7.19575 ], [ 79.838415, 7.19575 ], [ 79.838415, 7.196109 ], [ 79.838325, 7.196109 ], [ 79.838325, 7.196199 ], [ 79.838145, 7.196199 ], [ 79.838145, 7.196109 ], [ 79.838055, 7.196109 ], [ 79.838055, 7.196199 ], [ 79.837965, 7.196199 ], [ 79.837965, 7.196289 ], [ 79.837876, 7.196289 ], [ 79.837876, 7.197457 ], [ 79.838684, 7.197457 ], [ 79.838684, 7.197547 ], [ 79.838774, 7.197547 ], [ 79.838774, 7.197636 ], [ 79.838594, 7.197636 ], [ 79.838594, 7.197726 ], [ 79.838415, 7.197726 ], [ 79.838415, 7.198175 ], [ 79.838325, 7.198175 ], [ 79.838325, 7.198714 ], [ 79.838145, 7.198714 ], [ 79.838145, 7.198894 ], [ 79.838055, 7.198894 ], [ 79.838055, 7.198984 ], [ 79.837965, 7.198984 ], [ 79.837965, 7.199164 ], [ 79.837876, 7.199164 ], [ 79.837876, 7.200062 ], [ 79.838145, 7.200062 ], [ 79.838145, 7.200152 ], [ 79.838235, 7.200152 ], [ 79.838235, 7.200242 ], [ 79.838325, 7.200242 ], [ 79.838325, 7.200331 ], [ 79.838415, 7.200331 ], [ 79.838415, 7.200421 ], [ 79.837965, 7.200421 ], [ 79.837965, 7.200511 ], [ 79.837876, 7.200511 ], [ 79.837876, 7.20087 ], [ 79.837426, 7.20087 ], [ 79.837426, 7.20096 ], [ 79.836887, 7.20096 ], [ 79.836887, 7.20105 ], [ 79.836708, 7.20105 ], [ 79.836708, 7.20096 ], [ 79.836348, 7.20096 ], [ 79.836348, 7.20087 ], [ 79.836259, 7.20087 ], [ 79.836259, 7.200781 ], [ 79.836079, 7.200781 ], [ 79.836079, 7.200691 ], [ 79.835989, 7.200691 ], [ 79.835989, 7.200601 ], [ 79.835899, 7.200601 ], [ 79.835899, 7.200421 ], [ 79.835809, 7.200421 ], [ 79.835809, 7.199972 ], [ 79.835899, 7.199972 ], [ 79.835899, 7.199882 ], [ 79.835989, 7.199882 ], [ 79.835989, 7.199613 ], [ 79.836079, 7.199613 ], [ 79.836079, 7.199343 ], [ 79.836169, 7.199343 ], [ 79.836169, 7.199253 ], [ 79.836259, 7.199253 ], [ 79.836259, 7.199343 ], [ 79.836438, 7.199343 ], [ 79.836438, 7.199164 ], [ 79.836348, 7.199164 ], [ 79.836348, 7.199074 ], [ 79.836259, 7.199074 ], [ 79.836259, 7.198804 ], [ 79.836348, 7.198804 ], [ 79.836348, 7.198535 ], [ 79.836438, 7.198535 ], [ 79.836438, 7.198355 ], [ 79.836348, 7.198355 ], [ 79.836348, 7.198175 ], [ 79.836438, 7.198175 ], [ 79.836438, 7.198086 ], [ 79.836348, 7.198086 ], [ 79.836348, 7.197726 ], [ 79.836259, 7.197726 ], [ 79.836259, 7.197457 ], [ 79.836079, 7.197457 ], [ 79.836079, 7.197367 ], [ 79.835989, 7.197367 ], [ 79.835989, 7.197008 ], [ 79.835899, 7.197008 ], [ 79.835899, 7.196828 ], [ 79.835809, 7.196828 ], [ 79.835809, 7.196469 ], [ 79.83572, 7.196469 ], [ 79.83572, 7.19557 ], [ 79.835809, 7.19557 ], [ 79.835809, 7.195301 ], [ 79.835899, 7.195301 ], [ 79.835899, 7.195211 ], [ 79.835989, 7.195211 ], [ 79.835989, 7.195121 ], [ 79.836169, 7.195121 ], [ 79.836169, 7.194762 ], [ 79.835899, 7.194762 ], [ 79.835899, 7.194852 ], [ 79.835809, 7.194852 ], [ 79.835809, 7.195031 ], [ 79.83563, 7.195031 ], [ 79.83563, 7.195121 ], [ 79.83554, 7.195121 ], [ 79.83554, 7.193684 ], [ 79.83563, 7.193684 ], [ 79.83563, 7.193504 ], [ 79.83554, 7.193504 ], [ 79.83554, 7.193414 ], [ 79.83536, 7.193414 ], [ 79.83536, 7.192875 ], [ 79.83545, 7.192875 ], [ 79.83545, 7.192786 ], [ 79.83536, 7.192786 ], [ 79.83536, 7.192606 ], [ 79.83545, 7.192606 ], [ 79.83545, 7.191708 ], [ 79.83554, 7.191708 ], [ 79.83554, 7.19027 ], [ 79.83563, 7.19027 ], [ 79.83563, 7.189821 ], [ 79.83572, 7.189821 ], [ 79.83572, 7.189462 ], [ 79.835809, 7.189462 ], [ 79.835809, 7.189282 ], [ 79.835989, 7.189282 ], [ 79.835989, 7.189013 ], [ 79.836079, 7.189013 ], [ 79.836079, 7.188833 ], [ 79.836169, 7.188833 ], [ 79.836169, 7.188743 ], [ 79.836259, 7.188743 ], [ 79.836259, 7.188474 ], [ 79.836348, 7.188474 ], [ 79.836348, 7.188384 ] ], [ [ 79.837157, 7.195481 ], [ 79.837157, 7.19557 ], [ 79.837247, 7.19557 ], [ 79.837247, 7.19566 ], [ 79.837337, 7.19566 ], [ 79.837337, 7.19584 ], [ 79.837426, 7.19584 ], [ 79.837426, 7.19602 ], [ 79.837157, 7.19602 ], [ 79.837157, 7.19593 ], [ 79.836798, 7.19593 ], [ 79.836798, 7.196109 ], [ 79.836708, 7.196109 ], [ 79.836708, 7.19593 ], [ 79.836618, 7.19593 ], [ 79.836618, 7.19557 ], [ 79.836708, 7.19557 ], [ 79.836708, 7.195481 ], [ 79.836798, 7.195481 ], [ 79.836798, 7.19557 ], [ 79.836887, 7.19557 ], [ 79.836887, 7.195481 ], [ 79.837157, 7.195481 ] ] ] } },
{ "type": "Feature", "properties": { "count": 628, "label": 1 }, "geometry": { "type": "Polygon", "coordinates": [ [ [ 79.836977, 7.202218 ], [ 79.837337, 7.202218 ], [ 79.837337, 7.202308 ], [ 79.837426, 7.202308 ], [ 79.837426, 7.202398 ], [ 79.837516, 7.202398 ], [ 79.837516, 7.202487 ], [ 79.837606, 7.202487 ], [ 79.837606, 7.202577 ], [ 79.837696, 7.202577 ], [ 79.837696, 7.202667 ], [ 79.837786, 7.202667 ], [ 79.837786, 7.202847 ], [ 79.837876, 7.202847 ], [ 79.837876, 7.204464 ], [ 79.837786, 7.204464 ], [ 79.837786, 7.204553 ], [ 79.837696, 7.204553 ], [ 79.837696, 7.205272 ], [ 79.837606, 7.205272 ], [ 79.837606, 7.205991 ], [ 79.837696, 7.205991 ], [ 79.837696, 7.20617 ], [ 79.837786, 7.20617 ], [ 79.837786, 7.20626 ], [ 79.837876, 7.20626 ], [ 79.837876, 7.206799 ], [ 79.837696, 7.206799 ], [ 79.837696, 7.206889 ], [ 79.837606, 7.206889 ], [ 79.837606, 7.207069 ], [ 79.837426, 7.207069 ], [ 79.837426, 7.207159 ], [ 79.837337, 7.207159 ], [ 79.837337, 7.207248 ], [ 79.836887, 7.207248 ], [ 79.836887, 7.207159 ], [ 79.836798, 7.207159 ], [ 79.836798, 7.206889 ], [ 79.836708, 7.206889 ], [ 79.836708, 7.20635 ], [ 79.836798, 7.20635 ], [ 79.836798, 7.205991 ], [ 79.836708, 7.205991 ], [ 79.836708, 7.205452 ], [ 79.836618, 7.205452 ], [ 79.836618, 7.205092 ], [ 79.836528, 7.205092 ], [ 79.836528, 7.204733 ], [ 79.836438, 7.204733 ], [ 79.836438, 7.204374 ], [ 79.836528, 7.204374 ], [ 79.836528, 7.204194 ], [ 79.836438, 7.204194 ], [ 79.836438, 7.203925 ], [ 79.836348, 7.203925 ], [ 79.836348, 7.203835 ], [ 79.836259, 7.203835 ], [ 79.836259, 7.203925 ], [ 79.836169, 7.203925 ], [ 79.836169, 7.203745 ], [ 79.836079, 7.203745 ], [ 79.836079, 7.203116 ], [ 79.836169, 7.203116 ], [ 79.836169, 7.202937 ], [ 79.836438, 7.202937 ], [ 79.836438, 7.202847 ], [ 79.836798, 7.202847 ], [ 79.836798, 7.202487 ], [ 79.836887, 7.202487 ], [ 79.836887, 7.202398 ], [ 79.836977, 7.202398 ], [ 79.836977, 7.202218 ] ], [ [ 79.837157, 7.205092 ], [ 79.837157, 7.205272 ], [ 79.837247, 7.205272 ], [ 79.837247, 7.205631 ], [ 79.837157, 7.205631 ], [ 79.837157, 7.205452 ], [ 79.837067, 7.205452 ], [ 79.837067, 7.205092 ], [ 79.837157, 7.205092 ] ], [ [ 79.837157, 7.204553 ], [ 79.837157, 7.204733 ], [ 79.837067, 7.204733 ], [ 79.837067, 7.204553 ], [ 79.837157, 7.204553 ] ], [ [ 79.837067, 7.204374 ], [ 79.837067, 7.204553 ], [ 79.836887, 7.204553 ], [ 79.836887, 7.204374 ], [ 79.837067, 7.204374 ] ], [ [ 79.836798, 7.202937 ], [ 79.836798, 7.203026 ], [ 79.836887, 7.203026 ], [ 79.836887, 7.203116 ], [ 79.836977, 7.203116 ], [ 79.836977, 7.203296 ], [ 79.837067, 7.203296 ], [ 79.837067, 7.203565 ], [ 79.837157, 7.203565 ], [ 79.837157, 7.203745 ], [ 79.836977, 7.203745 ], [ 79.836977, 7.203835 ], [ 79.836887, 7.203835 ], [ 79.836887, 7.203925 ], [ 79.836798, 7.203925 ], [ 79.836798, 7.204104 ], [ 79.836708, 7.204104 ], [ 79.836708, 7.204284 ], [ 79.836618, 7.204284 ], [ 79.836618, 7.204194 ], [ 79.836528, 7.204194 ], [ 79.836528, 7.203925 ], [ 79.836438, 7.203925 ], [ 79.836438, 7.203655 ], [ 79.836348, 7.203655 ], [ 79.836348, 7.203565 ], [ 79.836259, 7.203565 ], [ 79.836259, 7.203026 ], [ 79.836528, 7.203026 ], [ 79.836528, 7.202937 ], [ 79.836798, 7.202937 ] ] ] } },
{ "type": "Feature", "properties": { "count": 1, "label": 1 }, "geometry": { "type": "Polygon", "coordinates": [ [ [ 79.837606, 7.137539 ], [ 79.837696, 7.137539 ], [ 79.837696, 7.137629 ], [ 79.837606, 7.137629 ], [ 79.837606, 7.137539 ] ] ] } },
{ "type": "Feature", "properties": { "count": 2, "label": 1 }, "geometry": { "type": "Polygon", "coordinates": [ [ [ 79.837696, 7.144277 ], [ 79.837786, 7.144277 ], [ 79.837786, 7.144366 ], [ 79.837876, 7.144366 ], [ 79.837876, 7.144456 ], [ 79.837786, 7.144456 ], [ 79.837786, 7.144366 ], [ 79.837696, 7.144366 ], [ 79.837696, 7.144277 ] ] ] } },
{ "type": "Feature", "properties": { "count": 23, "label": 1 }, "geometry": { "type": "Polygon", "coordinates": [ [ [ 79.837786, 7.138887 ], [ 79.837876, 7.138887 ], [ 79.837876, 7.138976 ], [ 79.837965, 7.138976 ], [ 79.837965, 7.139066 ], [ 79.838055, 7.139066 ], [ 79.838055, 7.139156 ], [ 79.838145, 7.139156 ], [ 79.838145, 7.139336 ], [ 79.838055, 7.139336 ], [ 79.838055, 7.139515 ], [ 79.837965, 7.139515 ], [ 79.837965, 7.139875 ], [ 79.837876, 7.139875 ], [ 79.837876, 7.139695 ], [ 79.837786, 7.139695 ], [ 79.837786, 7.139246 ], [ 79.837876, 7.139246 ], [ 79.837876, 7.138976 ], [ 79.837786, 7.138976 ], [ 79.837786, 7.138887 ] ] ] } },
{ "type": "Feature", "properties": { "count": 161, "label": 1 }, "geometry": { "type": "Polygon", "coordinates": [ [ [ 79.837965, 7.139965 ], [ 79.838055, 7.139965 ], [ 79.838055, 7.140054 ], [ 79.838145, 7.140054 ], [ 79.838145, 7.140144 ], [ 79.838235, 7.140144 ], [ 79.838235, 7.140504 ], [ 79.838145, 7.140504 ], [ 79.838145, 7.140773 ], [ 79.838235, 7.140773 ], [ 79.838235, 7.140953 ], [ 79.838325, 7.140953 ], [ 79.838325, 7.141132 ], [ 79.838415, 7.141132 ], [ 79.838415, 7.141222 ], [ 79.838504, 7.141222 ], [ 79.838504, 7.141402 ], [ 79.838415, 7.141402 ], [ 79.838415, 7.141761 ], [ 79.838325, 7.141761 ], [ 79.838325, 7.14221 ], [ 79.838145, 7.14221 ], [ 79.838145, 7.1423 ], [ 79.838055, 7.1423 ], [ 79.838055, 7.14239 ], [ 79.837965, 7.14239 ], [ 79.837965, 7.142749 ], [ 79.837876, 7.142749 ], [ 79.837876, 7.143019 ], [ 79.837786, 7.143019 ], [ 79.837786, 7.143109 ], [ 79.837606, 7.143109 ], [ 79.837606, 7.143199 ], [ 79.837516, 7.143199 ], [ 79.837516, 7.142929 ], [ 79.837426, 7.142929 ], [ 79.837426, 7.142839 ], [ 79.837337, 7.142839 ], [ 79.837337, 7.14266 ], [ 79.837247, 7.14266 ], [ 79.837247, 7.14257 ], [ 79.837157, 7.14257 ], [ 79.837157, 7.14248 ], [ 79.836977, 7.14248 ], [ 79.836977, 7.14239 ], [ 79.836708, 7.14239 ], [ 79.836708, 7.14221 ], [ 79.837157, 7.14221 ], [ 79.837157, 7.1423 ], [ 79.837876, 7.1423 ], [ 79.837876, 7.14221 ], [ 79.838055, 7.14221 ], [ 79.838055, 7.142121 ], [ 79.838145, 7.142121 ], [ 79.838145, 7.141941 ], [ 79.838235, 7.141941 ], [ 79.838235, 7.141761 ], [ 79.838145, 7.141761 ], [ 79.838145, 7.141402 ], [ 79.838055, 7.141402 ], [ 79.838055, 7.141312 ], [ 79.838145, 7.141312 ], [ 79.838145, 7.141222 ], [ 79.838055, 7.141222 ], [ 79.838055, 7.141132 ], [ 79.837965, 7.141132 ], [ 79.837965, 7.140683 ], [ 79.837876, 7.140683 ], [ 79.837876, 7.140593 ], [ 79.837786, 7.140593 ], [ 79.837786, 7.140504 ], [ 79.837696, 7.140504 ], [ 79.837696, 7.140414 ], [ 79.837606, 7.140414 ], [ 79.837606, 7.140324 ], [ 79.837696, 7.140324 ], [ 79.837696, 7.140234 ], [ 79.837876, 7.140234 ], [ 79.837876, 7.140054 ], [ 79.837965, 7.140054 ], [ 79.837965, 7.139965 ] ] ] } },
{ "type": "Feature", "properties": { "count": 1, "label": 1 }, "geometry": { "type": "Polygon", "coordinates": [ [ [ 79.838504, 7.200152 ], [ 79.838594, 7.200152 ], [ 79.838594, 7.200242 ], [ 79.838504, 7.200242 ], [ 79.838504, 7.200152 ] ] ] } },
{ "type": "Feature", "properties": { "count": 1, "label": 1 }, "geometry": { "type": "Polygon", "coordinates": [ [ [ 79.838504, 7.19593 ], [ 79.838594, 7.19593 ], [ 79.838594, 7.19602 ], [ 79.838504, 7.19602 ], [ 79.838504, 7.19593 ] ] ] } },
{ "type": "Feature", "properties": { "count": 204, "label": 1 }, "geometry": { "type": "Polygon", "coordinates": [ [ [ 79.838325, 7.136461 ], [ 79.838774, 7.136461 ], [ 79.838774, 7.136551 ], [ 79.839043, 7.136551 ], [ 79.839043, 7.137629 ], [ 79.838954, 7.137629 ], [ 79.838954, 7.137719 ], [ 79.838864, 7.137719 ], [ 79.838864, 7.137899 ], [ 79.838774, 7.137899 ], [ 79.838774, 7.138348 ], [ 79.838684, 7.138348 ], [ 79.838684, 7.138437 ], [ 79.838504, 7.138437 ], [ 79.838504, 7.138527 ], [ 79.838415, 7.138527 ], [ 79.838415, 7.138617 ], [ 79.838325, 7.138617 ], [ 79.838325, 7.138527 ], [ 79.838235, 7.138527 ], [ 79.838235, 7.138437 ], [ 79.837876, 7.138437 ], [ 79.837876, 7.138617 ], [ 79.837965, 7.138617 ], [ 79.837965, 7.138797 ], [ 79.837876, 7.138797 ], [ 79.837876, 7.138617 ], [ 79.837786, 7.138617 ], [ 79.837786, 7.138437 ], [ 79.837876, 7.138437 ], [ 79.837876, 7.138168 ], [ 79.837965, 7.138168 ], [ 79.837965, 7.137719 ], [ 79.838055, 7.137719 ], [ 79.838055, 7.137809 ], [ 79.838325, 7.137809 ], [ 79.838325, 7.137539 ], [ 79.838235, 7.137539 ], [ 79.838235, 7.13727 ], [ 79.838145, 7.13727 ], [ 79.838145, 7.13709 ], [ 79.838055, 7.13709 ], [ 79.838055, 7.137 ], [ 79.838235, 7.137 ], [ 79.838235, 7.136551 ], [ 79.838325, 7.136551 ], [ 79.838325, 7.136461 ] ] ] } },
{ "type": "Feature", "properties": { "count": 12, "label": 1 }, "geometry": { "type": "Polygon", "coordinates": [ [ [ 79.838594, 7.199882 ], [ 79.838864, 7.199882 ], [ 79.838864, 7.199972 ], [ 79.838954, 7.199972 ], [ 79.838954, 7.200242 ], [ 79.838774, 7.200242 ], [ 79.838774, 7.200152 ], [ 79.838684, 7.200152 ], [ 79.838684, 7.200062 ], [ 79.838594, 7.200062 ], [ 79.838594, 7.199882 ] ] ] } },
{ "type": "Feature", "properties": { "count": 73, "label": 1 }, "geometry": { "type": "Polygon", "coordinates": [ [ [ 79.840211, 7.194403 ], [ 79.840301, 7.194403 ], [ 79.840301, 7.194492 ], [ 79.840481, 7.194492 ], [ 79.840481, 7.194582 ], [ 79.840571, 7.194582 ], [ 79.840571, 7.194672 ], [ 79.84075, 7.194672 ], [ 79.84075, 7.194762 ], [ 79.84084, 7.194762 ], [ 79.84084, 7.194852 ], [ 79.84102, 7.194852 ], [ 79.84102, 7.195031 ], [ 79.84093, 7.195031 ], [ 79.84093, 7.195121 ], [ 79.84084, 7.195121 ], [ 79.84084, 7.195211 ], [ 79.840301, 7.195211 ], [ 79.840301, 7.195301 ], [ 79.840032, 7.195301 ], [ 79.840032, 7.195211 ], [ 79.839852, 7.195211 ], [ 79.839852, 7.195121 ], [ 79.840032, 7.195121 ], [ 79.840032, 7.195031 ], [ 79.840121, 7.195031 ], [ 79.840121, 7.194762 ], [ 79.840032, 7.194762 ], [ 79.840032, 7.194582 ], [ 79.839942, 7.194582 ], [ 79.839942, 7.194492 ], [ 79.840211, 7.194492 ], [ 79.840211, 7.194403 ] ] ] } },
{ "type": "Feature", "properties": { "count": 11, "label": 1 }, "geometry": { "type": "Polygon", "coordinates": [ [ [ 79.840121, 7.198894 ], [ 79.840391, 7.198894 ], [ 79.840391, 7.198984 ], [ 79.840481, 7.198984 ], [ 79.840481, 7.199164 ], [ 79.840121, 7.199164 ], [ 79.840121, 7.198894 ] ] ] } },
{ "type": "Feature", "properties": { "count": 3, "label": 1 }, "geometry": { "type": "Polygon", "coordinates": [ [ [ 79.842457, 7.114902 ], [ 79.842547, 7.114902 ], [ 79.842547, 7.114991 ], [ 79.842637, 7.114991 ], [ 79.842637, 7.115081 ], [ 79.842457, 7.115081 ], [ 79.842457, 7.114902 ] ] ] } },
{ "type": "Feature", "properties": { "count": 7, "label": 1 }, "geometry": { "type": "Polygon", "coordinates": [ [ [ 79.842457, 7.11562 ], [ 79.842637, 7.11562 ], [ 79.842637, 7.11571 ], [ 79.842816, 7.11571 ], [ 79.842816, 7.11589 ], [ 79.842637, 7.11589 ], [ 79.842637, 7.1158 ], [ 79.842547, 7.1158 ], [ 79.842547, 7.11571 ], [ 79.842457, 7.11571 ], [ 79.842457, 7.11562 ] ] ] } },
{ "type": "Feature", "properties": { "count": 3, "label": 1 }, "geometry": { "type": "Polygon", "coordinates": [ [ [ 79.842726, 7.114902 ], [ 79.842816, 7.114902 ], [ 79.842816, 7.114991 ], [ 79.842906, 7.114991 ], [ 79.842906, 7.115081 ], [ 79.842726, 7.115081 ], [ 79.842726, 7.114902 ] ] ] } },
{ "type": "Feature", "properties": { "count": 1, "label": 1 }, "geometry": { "type": "Polygon", "coordinates": [ [ [ 79.842816, 7.115441 ], [ 79.842906, 7.115441 ], [ 79.842906, 7.11553 ], [ 79.842816, 7.11553 ], [ 79.842816, 7.115441 ] ] ] } },
{ "type": "Feature", "properties": { "count": 1263, "label": 1 }, "geometry": { "type": "Polygon", "coordinates": [ [ [ 79.842547, 7.195121 ], [ 79.843086, 7.195121 ], [ 79.843086, 7.195211 ], [ 79.843625, 7.195211 ], [ 79.843625, 7.195301 ], [ 79.843894, 7.195301 ], [ 79.843894, 7.195391 ], [ 79.844254, 7.195391 ], [ 79.844254, 7.195481 ], [ 79.844613, 7.195481 ], [ 79.844613, 7.19557 ], [ 79.844703, 7.19557 ], [ 79.844703, 7.19566 ], [ 79.844882, 7.19566 ], [ 79.844882, 7.19575 ], [ 79.844972, 7.19575 ], [ 79.844972, 7.19584 ], [ 79.845332, 7.19584 ], [ 79.845332, 7.19593 ], [ 79.845511, 7.19593 ], [ 79.845511, 7.19602 ], [ 79.845691, 7.19602 ], [ 79.845691, 7.196109 ], [ 79.84596, 7.196109 ], [ 79.84596, 7.196199 ], [ 79.84605, 7.196199 ], [ 79.84605, 7.196289 ], [ 79.84623, 7.196289 ], [ 79.84623, 7.196379 ], [ 79.84632, 7.196379 ], [ 79.84632, 7.196469 ], [ 79.846589, 7.196469 ], [ 79.846589, 7.196558 ], [ 79.846679, 7.196558 ], [ 79.846679, 7.196648 ], [ 79.846769, 7.196648 ], [ 79.846769, 7.196918 ], [ 79.846859, 7.196918 ], [ 79.846859, 7.197097 ], [ 79.846949, 7.197097 ], [ 79.846949, 7.197457 ], [ 79.846859, 7.197457 ], [ 79.846859, 7.197547 ], [ 79.846769, 7.197547 ], [ 79.846769, 7.198086 ], [ 79.846859, 7.198086 ], [ 79.846859, 7.198265 ], [ 79.846949, 7.198265 ], [ 79.846949, 7.198445 ], [ 79.847128, 7.198445 ], [ 79.847128, 7.198625 ], [ 79.847398, 7.198625 ], [ 79.847398, 7.198714 ], [ 79.847577, 7.198714 ], [ 79.847577, 7.198625 ], [ 79.848835, 7.198625 ], [ 79.848835, 7.198535 ], [ 79.848925, 7.198535 ], [ 79.848925, 7.198445 ], [ 79.849015, 7.198445 ], [ 79.849015, 7.198355 ], [ 79.849105, 7.198355 ], [ 79.849105, 7.197906 ], [ 79.849194, 7.197906 ], [ 79.849194, 7.197816 ], [ 79.849284, 7.197816 ], [ 79.849284, 7.197726 ], [ 79.849374, 7.197726 ], [ 79.849374, 7.197457 ], [ 79.849554, 7.197457 ], [ 79.849554, 7.197367 ], [ 79.849823, 7.197367 ], [ 79.849823, 7.197457 ], [ 79.849913, 7.197457 ], [ 79.849913, 7.197547 ], [ 79.849823, 7.197547 ], [ 79.849823, 7.197726 ], [ 79.849644, 7.197726 ], [ 79.849644, 7.197816 ], [ 79.849554, 7.197816 ], [ 79.849554, 7.197906 ], [ 79.849374, 7.197906 ], [ 79.849374, 7.198714 ], [ 79.849284, 7.198714 ], [ 79.849284, 7.198984 ], [ 79.849105, 7.198984 ], [ 79.849105, 7.199074 ], [ 79.848925, 7.199074 ], [ 79.848925, 7.199164 ], [ 79.848745, 7.199164 ], [ 79.848745, 7.199074 ], [ 79.848386, 7.199074 ], [ 79.848386, 7.199164 ], [ 79.848116, 7.199164 ], [ 79.848116, 7.199074 ], [ 79.848027, 7.199074 ], [ 79.848027, 7.198984 ], [ 79.847937, 7.198984 ], [ 79.847937, 7.199164 ], [ 79.847667, 7.199164 ], [ 79.847667, 7.199074 ], [ 79.847577, 7.199074 ], [ 79.847577, 7.199164 ], [ 79.847488, 7.199164 ], [ 79.847488, 7.199253 ], [ 79.847308, 7.199253 ], [ 79.847308, 7.199164 ], [ 79.847218, 7.199164 ], [ 79.847218, 7.199074 ], [ 79.847128, 7.199074 ], [ 79.847128, 7.198804 ], [ 79.847038, 7.198804 ], [ 79.847038, 7.198714 ], [ 79.846949, 7.198714 ], [ 79.846949, 7.198625 ], [ 79.846769, 7.198625 ], [ 79.846769, 7.198535 ], [ 79.846679, 7.198535 ], [ 79.846679, 7.198445 ], [ 79.846499, 7.198445 ], [ 79.846499, 7.198175 ], [ 79.84641, 7.198175 ], [ 79.84641, 7.198086 ], [ 79.84632, 7.198086 ], [ 79.84632, 7.197996 ], [ 79.84623, 7.197996 ], [ 79.84623, 7.197816 ], [ 79.84614, 7.197816 ], [ 79.84614, 7.197726 ], [ 79.84596, 7.197726 ], [ 79.84596, 7.197636 ], [ 79.845511, 7.197636 ], [ 79.845511, 7.197726 ], [ 79.845242, 7.197726 ], [ 79.845242, 7.197636 ], [ 79.844972, 7.197636 ], [ 79.844972, 7.197547 ], [ 79.844793, 7.197547 ], [ 79.844793, 7.197457 ], [ 79.843625, 7.197457 ], [ 79.843625, 7.197547 ], [ 79.843265, 7.197547 ], [ 79.843265, 7.197457 ], [ 79.842637, 7.197457 ], [ 79.842637, 7.197367 ], [ 79.842547, 7.197367 ], [ 79.842547, 7.197187 ], [ 79.842637, 7.197187 ], [ 79.842637, 7.197097 ], [ 79.842547, 7.197097 ], [ 79.842547, 7.196738 ], [ 79.842457, 7.196738 ], [ 79.842457, 7.196379 ], [ 79.842367, 7.196379 ], [ 79.842367, 7.19602 ], [ 79.842277, 7.19602 ], [ 79.842277, 7.195301 ], [ 79.842188, 7.195301 ], [ 79.842188, 7.195211 ], [ 79.842098, 7.195211 ], [ 79.842098, 7.195121 ], [ 79.842457, 7.195121 ], [ 79.842457, 7.195211 ], [ 79.842547, 7.195211 ], [ 79.842547, 7.195121 ] ], [ [ 79.842906, 7.19584 ], [ 79.842906, 7.19593 ], [ 79.843086, 7.19593 ], [ 79.843086, 7.19602 ], [ 79.843176, 7.19602 ], [ 79.843176, 7.196109 ], [ 79.843265, 7.196109 ], [ 79.843265, 7.196289 ], [ 79.842996, 7.196289 ], [ 79.842996, 7.196199 ], [ 79.842906, 7.196199 ], [ 79.842906, 7.196109 ], [ 79.842816, 7.196109 ], [ 79.842816, 7.19584 ], [ 79.842906, 7.19584 ] ] ] } },
{ "type": "Feature", "properties": { "count": 442, "label": 1 }, "geometry": { "type": "Polygon", "coordinates": [ [ [ 79.843445, 7.114991 ], [ 79.843625, 7.114991 ], [ 79.843625, 7.115081 ], [ 79.843804, 7.115081 ], [ 79.843804, 7.115171 ], [ 79.843894, 7.115171 ], [ 79.843894, 7.115261 ], [ 79.844074, 7.115261 ], [ 79.844074, 7.115351 ], [ 79.844164, 7.115351 ], [ 79.844164, 7.11553 ], [ 79.843894, 7.11553 ], [ 79.843894, 7.11562 ], [ 79.843984, 7.11562 ], [ 79.843984, 7.11571 ], [ 79.844343, 7.11571 ], [ 79.844343, 7.11589 ], [ 79.844164, 7.11589 ], [ 79.844164, 7.116159 ], [ 79.844074, 7.116159 ], [ 79.844074, 7.116429 ], [ 79.844254, 7.116429 ], [ 79.844254, 7.116519 ], [ 79.844613, 7.116519 ], [ 79.844613, 7.116608 ], [ 79.844793, 7.116608 ], [ 79.844793, 7.116698 ], [ 79.845062, 7.116698 ], [ 79.845062, 7.116608 ], [ 79.845332, 7.116608 ], [ 79.845332, 7.116698 ], [ 79.845421, 7.116698 ], [ 79.845421, 7.116878 ], [ 79.845511, 7.116878 ], [ 79.845511, 7.116968 ], [ 79.845601, 7.116968 ], [ 79.845601, 7.117058 ], [ 79.845691, 7.117058 ], [ 79.845691, 7.117147 ], [ 79.845871, 7.117147 ], [ 79.845871, 7.117237 ], [ 79.84596, 7.117237 ], [ 79.84596, 7.117597 ], [ 79.84605, 7.117597 ], [ 79.84605, 7.117866 ], [ 79.84596, 7.117866 ], [ 79.84596, 7.117956 ], [ 79.844793, 7.117956 ], [ 79.844793, 7.117866 ], [ 79.844703, 7.117866 ], [ 79.844703, 7.117956 ], [ 79.844433, 7.117956 ], [ 79.844433, 7.117866 ], [ 79.844254, 7.117866 ], [ 79.844254, 7.117776 ], [ 79.844164, 7.117776 ], [ 79.844164, 7.117507 ], [ 79.843984, 7.117507 ], [ 79.843984, 7.117417 ], [ 79.843894, 7.117417 ], [ 79.843894, 7.117237 ], [ 79.843804, 7.117237 ], [ 79.843804, 7.116878 ], [ 79.843715, 7.116878 ], [ 79.843715, 7.116519 ], [ 79.843625, 7.116519 ], [ 79.843625, 7.116069 ], [ 79.843535, 7.116069 ], [ 79.843535, 7.11598 ], [ 79.843176, 7.11598 ], [ 79.843176, 7.11589 ], [ 79.842996, 7.11589 ], [ 79.842996, 7.11571 ], [ 79.843086, 7.11571 ], [ 79.843086, 7.11562 ], [ 79.843176, 7.11562 ], [ 79.843176, 7.11553 ], [ 79.843086, 7.11553 ], [ 79.843086, 7.115441 ], [ 79.843265, 7.115441 ], [ 79.843265, 7.115351 ], [ 79.843355, 7.115351 ], [ 79.843355, 7.115261 ], [ 79.843445, 7.115261 ], [ 79.843445, 7.114991 ] ], [ [ 79.845781, 7.117686 ], [ 79.845781, 7.117776 ], [ 79.845871, 7.117776 ], [ 79.845871, 7.117866 ], [ 79.845601, 7.117866 ], [ 79.845601, 7.117776 ], [ 79.845691, 7.117776 ], [ 79.845691, 7.117686 ], [ 79.845781, 7.117686 ] ], [ [ 79.843984, 7.116249 ], [ 79.843984, 7.116339 ], [ 79.843894, 7.116339 ], [ 79.843894, 7.116249 ], [ 79.843984, 7.116249 ] ] ] } },
{ "type": "Feature", "properties": { "count": 7, "label": 1 }, "geometry": { "type": "Polygon", "coordinates": [ [ [ 79.847218, 7.107086 ], [ 79.847398, 7.107086 ], [ 79.847398, 7.107176 ], [ 79.847488, 7.107176 ], [ 79.847488, 7.107266 ], [ 79.847398, 7.107266 ], [ 79.847398, 7.107356 ], [ 79.847218, 7.107356 ], [ 79.847218, 7.107086 ] ] ] } },
{ "type": "Feature", "properties": { "count": 1, "label": 1 }, "geometry": { "type": "Polygon", "coordinates": [ [ [ 79.847937, 7.107356 ], [ 79.848027, 7.107356 ], [ 79.848027, 7.107446 ], [ 79.847937, 7.107446 ], [ 79.847937, 7.107356 ] ] ] } },
{ "type": "Feature", "properties": { "count": 992, "label": 1 }, "geometry": { "type": "Polygon", "coordinates": [ [ [ 79.848476, 7.107535 ], [ 79.848566, 7.107535 ], [ 79.848566, 7.107625 ], [ 79.848655, 7.107625 ], [ 79.848655, 7.107715 ], [ 79.848745, 7.107715 ], [ 79.848745, 7.107895 ], [ 79.848835, 7.107895 ], [ 79.848835, 7.108164 ], [ 79.848925, 7.108164 ], [ 79.848925, 7.108613 ], [ 79.849015, 7.108613 ], [ 79.849015, 7.108793 ], [ 79.849105, 7.108793 ], [ 79.849105, 7.109512 ], [ 79.849015, 7.109512 ], [ 79.849015, 7.109602 ], [ 79.848745, 7.109602 ], [ 79.848745, 7.109512 ], [ 79.848655, 7.109512 ], [ 79.848655, 7.109422 ], [ 79.848566, 7.109422 ], [ 79.848566, 7.109242 ], [ 79.848476, 7.109242 ], [ 79.848476, 7.109152 ], [ 79.848386, 7.109152 ], [ 79.848386, 7.109063 ], [ 79.847757, 7.109063 ], [ 79.847757, 7.109152 ], [ 79.847667, 7.109152 ], [ 79.847667, 7.109242 ], [ 79.847577, 7.109242 ], [ 79.847577, 7.109332 ], [ 79.847488, 7.109332 ], [ 79.847488, 7.109422 ], [ 79.847398, 7.109422 ], [ 79.847398, 7.109602 ], [ 79.847308, 7.109602 ], [ 79.847308, 7.11068 ], [ 79.847128, 7.11068 ], [ 79.847128, 7.111219 ], [ 79.847038, 7.111219 ], [ 79.847038, 7.111668 ], [ 79.846679, 7.111668 ], [ 79.846679, 7.111578 ], [ 79.846589, 7.111578 ], [ 79.846589, 7.111488 ], [ 79.846499, 7.111488 ], [ 79.846499, 7.111398 ], [ 79.84632, 7.111398 ], [ 79.84632, 7.111308 ], [ 79.84614, 7.111308 ], [ 79.84614, 7.111219 ], [ 79.84596, 7.111219 ], [ 79.84596, 7.111129 ], [ 79.845781, 7.111129 ], [ 79.845781, 7.111219 ], [ 79.845691, 7.111219 ], [ 79.845691, 7.111308 ], [ 79.845601, 7.111308 ], [ 79.845601, 7.111578 ], [ 79.845511, 7.111578 ], [ 79.845511, 7.111668 ], [ 79.844972, 7.111668 ], [ 79.844972, 7.111578 ], [ 79.844882, 7.111578 ], [ 79.844882, 7.112297 ], [ 79.844972, 7.112297 ], [ 79.844972, 7.112476 ], [ 79.845062, 7.112476 ], [ 79.845062, 7.112656 ], [ 79.844972, 7.112656 ], [ 79.844972, 7.112925 ], [ 79.845062, 7.112925 ], [ 79.845062, 7.113105 ], [ 79.845152, 7.113105 ], [ 79.845152, 7.113195 ], [ 79.845242, 7.113195 ], [ 79.845242, 7.113285 ], [ 79.845332, 7.113285 ], [ 79.845332, 7.113464 ], [ 79.845152, 7.113464 ], [ 79.845152, 7.113644 ], [ 79.845242, 7.113644 ], [ 79.845242, 7.113734 ], [ 79.845332, 7.113734 ], [ 79.845332, 7.113913 ], [ 79.845421, 7.113913 ], [ 79.845421, 7.114273 ], [ 79.845511, 7.114273 ], [ 79.845511, 7.114363 ], [ 79.845601, 7.114363 ], [ 79.845601, 7.114722 ], [ 79.845511, 7.114722 ], [ 79.845511, 7.114812 ], [ 79.845332, 7.114812 ], [ 79.845332, 7.115351 ], [ 79.845152, 7.115351 ], [ 79.845152, 7.11562 ], [ 79.845062, 7.11562 ], [ 79.845062, 7.11571 ], [ 79.844972, 7.11571 ], [ 79.844972, 7.11562 ], [ 79.844523, 7.11562 ], [ 79.844523, 7.115441 ], [ 79.844613, 7.115441 ], [ 79.844613, 7.115351 ], [ 79.844703, 7.115351 ], [ 79.844703, 7.115261 ], [ 79.844793, 7.115261 ], [ 79.844793, 7.114991 ], [ 79.844703, 7.114991 ], [ 79.844703, 7.114902 ], [ 79.844793, 7.114902 ], [ 79.844793, 7.114722 ], [ 79.844972, 7.114722 ], [ 79.844972, 7.114632 ], [ 79.844882, 7.114632 ], [ 79.844882, 7.114542 ], [ 79.844793, 7.114542 ], [ 79.844793, 7.114363 ], [ 79.844703, 7.114363 ], [ 79.844703, 7.114273 ], [ 79.844613, 7.114273 ], [ 79.844613, 7.114093 ], [ 79.844523, 7.114093 ], [ 79.844523, 7.114003 ], [ 79.844433, 7.114003 ], [ 79.844433, 7.113734 ], [ 79.844523, 7.113734 ], [ 79.844523, 7.113554 ], [ 79.844703, 7.113554 ], [ 79.844703, 7.113374 ], [ 79.844793, 7.113374 ], [ 79.844793, 7.112566 ], [ 79.844703, 7.112566 ], [ 79.844703, 7.112476 ], [ 79.844613, 7.112476 ], [ 79.844613, 7.112386 ], [ 79.844793, 7.112386 ], [ 79.844793, 7.112117 ], [ 79.844703, 7.112117 ], [ 79.844703, 7.111937 ], [ 79.844613, 7.111937 ], [ 79.844613, 7.111758 ], [ 79.844523, 7.111758 ], [ 79.844523, 7.111668 ], [ 79.844433, 7.111668 ], [ 79.844433, 7.111398 ], [ 79.844523, 7.111398 ], [ 79.844523, 7.111308 ], [ 79.844613, 7.111308 ], [ 79.844613, 7.111219 ], [ 79.844703, 7.111219 ], [ 79.844703, 7.111129 ], [ 79.844793, 7.111129 ], [ 79.844793, 7.111039 ], [ 79.845062, 7.111039 ], [ 79.845062, 7.110859 ], [ 79.845242, 7.110859 ], [ 79.845242, 7.110769 ], [ 79.845332, 7.110769 ], [ 79.845332, 7.11068 ], [ 79.845421, 7.11068 ], [ 79.845421, 7.11059 ], [ 79.845601, 7.11059 ], [ 79.845601, 7.1105 ], [ 79.845691, 7.1105 ], [ 79.845691, 7.11041 ], [ 79.845871, 7.11041 ], [ 79.845871, 7.11032 ], [ 79.84596, 7.11032 ], [ 79.84596, 7.110141 ], [ 79.84605, 7.110141 ], [ 79.84605, 7.110051 ], [ 79.84623, 7.110051 ], [ 79.84623, 7.109961 ], [ 79.84632, 7.109961 ], [ 79.84632, 7.109691 ], [ 79.84623, 7.109691 ], [ 79.84623, 7.109512 ], [ 79.84632, 7.109512 ], [ 79.84632, 7.109422 ], [ 79.846499, 7.109422 ], [ 79.846499, 7.109332 ], [ 79.846769, 7.109332 ], [ 79.846769, 7.109242 ], [ 79.846859, 7.109242 ], [ 79.846859, 7.108973 ], [ 79.847038, 7.108973 ], [ 79.847038, 7.108883 ], [ 79.847218, 7.108883 ], [ 79.847218, 7.108524 ], [ 79.847038, 7.108524 ], [ 79.847038, 7.108164 ], [ 79.847128, 7.108164 ], [ 79.847128, 7.108074 ], [ 79.847308, 7.108074 ], [ 79.847308, 7.108164 ], [ 79.847398, 7.108164 ], [ 79.847398, 7.108254 ], [ 79.847488, 7.108254 ], [ 79.847488, 7.108344 ], [ 79.847577, 7.108344 ], [ 79.847577, 7.108434 ], [ 79.848027, 7.108434 ], [ 79.848027, 7.108344 ], [ 79.848296, 7.108344 ], [ 79.848296, 7.108074 ], [ 79.847937, 7.108074 ], [ 79.847937, 7.107985 ], [ 79.847847, 7.107985 ], [ 79.847847, 7.107805 ], [ 79.847937, 7.107805 ], [ 79.847937, 7.107715 ], [ 79.848116, 7.107715 ], [ 79.848116, 7.107625 ], [ 79.848476, 7.107625 ], [ 79.848476, 7.107535 ] ], [ [ 79.847488, 7.109152 ], [ 79.847488, 7.109242 ], [ 79.847398, 7.109242 ], [ 79.847398, 7.109332 ], [ 79.847308, 7.109332 ], [ 79.847308, 7.109422 ], [ 79.847128, 7.109422 ], [ 79.847128, 7.109242 ], [ 79.847218, 7.109242 ], [ 79.847218, 7.109152 ], [ 79.847488, 7.109152 ] ] ] } },
{ "type": "Feature", "properties": { "count": 21, "label": 1 }, "geometry": { "type": "Polygon", "coordinates": [ [ [ 79.85126, 7.19584 ], [ 79.85144, 7.19584 ], [ 79.85144, 7.19593 ], [ 79.85153, 7.19593 ], [ 79.85153, 7.19602 ], [ 79.85144, 7.19602 ], [ 79.85144, 7.196199 ], [ 79.85126, 7.196199 ], [ 79.85126, 7.196109 ], [ 79.851171, 7.196109 ], [ 79.851171, 7.196199 ], [ 79.851081, 7.196199 ], [ 79.851081, 7.196289 ], [ 79.850811, 7.196289 ], [ 79.850811, 7.196199 ], [ 79.850901, 7.196199 ], [ 79.850901, 7.19602 ], [ 79.851081, 7.19602 ], [ 79.851081, 7.19593 ], [ 79.85126, 7.19593 ], [ 79.85126, 7.19584 ] ] ] } },
{ "type": "Feature", "properties": { "count": 3, "label": 1 }, "geometry": { "type": "Polygon", "coordinates": [ [ [ 79.852249, 7.195211 ], [ 79.852338, 7.195211 ], [ 79.852338, 7.195391 ], [ 79.852159, 7.195391 ], [ 79.852159, 7.195301 ], [ 79.852249, 7.195301 ], [ 79.852249, 7.195211 ] ] ] } },
{ "type": "Feature", "properties": { "count": 2010, "label": 1 }, "geometry": { "type": "Polygon", "coordinates": [ [ [ 79.863567, 7.09954 ], [ 79.865993, 7.09954 ], [ 79.865993, 7.09963 ], [ 79.866083, 7.09963 ], [ 79.866083, 7.09972 ], [ 79.866262, 7.09972 ], [ 79.866262, 7.09981 ], [ 79.866352, 7.09981 ], [ 79.866352, 7.0999 ], [ 79.866442, 7.0999 ], [ 79.866442, 7.09999 ], [ 79.866262, 7.09999 ], [ 79.866262, 7.100079 ], [ 79.866173, 7.100079 ], [ 79.866173, 7.100169 ], [ 79.866083, 7.100169 ], [ 79.866083, 7.100259 ], [ 79.866173, 7.100259 ], [ 79.866173, 7.100708 ], [ 79.866083, 7.100708 ], [ 79.866083, 7.100978 ], [ 79.866173, 7.100978 ], [ 79.866173, 7.101247 ], [ 79.866083, 7.101247 ], [ 79.866083, 7.101337 ], [ 79.865993, 7.101337 ], [ 79.865993, 7.101427 ], [ 79.865903, 7.101427 ], [ 79.865903, 7.101517 ], [ 79.865634, 7.101517 ], [ 79.865634, 7.101607 ], [ 79.865544, 7.101607 ], [ 79.865544, 7.101696 ], [ 79.865454, 7.101696 ], [ 79.865454, 7.101876 ], [ 79.865364, 7.101876 ], [ 79.865364, 7.102056 ], [ 79.865274, 7.102056 ], [ 79.865274, 7.102146 ], [ 79.865184, 7.102146 ], [ 79.865184, 7.102235 ], [ 79.865095, 7.102235 ], [ 79.865095, 7.102325 ], [ 79.865005, 7.102325 ], [ 79.865005, 7.102415 ], [ 79.864915, 7.102415 ], [ 79.864915, 7.102325 ], [ 79.864825, 7.102325 ], [ 79.864825, 7.102235 ], [ 79.864735, 7.102235 ], [ 79.864735, 7.102146 ], [ 79.864556, 7.102146 ], [ 79.864556, 7.102235 ], [ 79.864466, 7.102235 ], [ 79.864466, 7.102325 ], [ 79.864376, 7.102325 ], [ 79.864376, 7.102595 ], [ 79.864286, 7.102595 ], [ 79.864286, 7.102864 ], [ 79.864376, 7.102864 ], [ 79.864376, 7.102954 ], [ 79.864286, 7.102954 ], [ 79.864286, 7.102864 ], [ 79.864196, 7.102864 ], [ 79.864196, 7.103044 ], [ 79.864106, 7.103044 ], [ 79.864106, 7.103224 ], [ 79.864017, 7.103224 ], [ 79.864017, 7.103493 ], [ 79.863927, 7.103493 ], [ 79.863927, 7.103673 ], [ 79.863837, 7.103673 ], [ 79.863837, 7.103852 ], [ 79.863657, 7.103852 ], [ 79.863657, 7.104032 ], [ 79.863567, 7.104032 ], [ 79.863567, 7.104122 ], [ 79.863478, 7.104122 ], [ 79.863478, 7.104302 ], [ 79.863388, 7.104302 ], [ 79.863388, 7.104391 ], [ 79.863298, 7.104391 ], [ 79.863298, 7.104481 ], [ 79.863118, 7.104481 ], [ 79.863118, 7.104571 ], [ 79.862939, 7.104571 ], [ 79.862939, 7.104661 ], [ 79.862759, 7.104661 ], [ 79.862759, 7.104571 ], [ 79.862669, 7.104571 ], [ 79.862669, 7.104661 ], [ 79.862579, 7.104661 ], [ 79.862579, 7.104751 ], [ 79.8624, 7.104751 ], [ 79.8624, 7.104661 ], [ 79.86231, 7.104661 ], [ 79.86231, 7.104751 ], [ 79.86222, 7.104751 ], [ 79.86222, 7.104841 ], [ 79.86213, 7.104841 ], [ 79.86213, 7.10493 ], [ 79.861861, 7.10493 ], [ 79.861861, 7.10502 ], [ 79.861591, 7.10502 ], [ 79.861591, 7.10493 ], [ 79.861501, 7.10493 ], [ 79.861501, 7.104661 ], [ 79.861411, 7.104661 ], [ 79.861411, 7.103493 ], [ 79.861322, 7.103493 ], [ 79.861322, 7.103403 ], [ 79.861411, 7.103403 ], [ 79.861411, 7.103134 ], [ 79.861322, 7.103134 ], [ 79.861322, 7.103044 ], [ 79.861411, 7.103044 ], [ 79.861411, 7.102415 ], [ 79.861322, 7.102415 ], [ 79.861322, 7.102325 ], [ 79.861411, 7.102325 ], [ 79.861411, 7.102235 ], [ 79.861501, 7.102235 ], [ 79.861501, 7.101966 ], [ 79.861591, 7.101966 ], [ 79.861591, 7.101696 ], [ 79.861681, 7.101696 ], [ 79.861681, 7.101607 ], [ 79.861771, 7.101607 ], [ 79.861771, 7.101337 ], [ 79.861861, 7.101337 ], [ 79.861861, 7.101247 ], [ 79.86195, 7.101247 ], [ 79.86195, 7.101157 ], [ 79.86204, 7.101157 ], [ 79.86204, 7.100888 ], [ 79.86213, 7.100888 ], [ 79.86213, 7.100708 ], [ 79.86222, 7.100708 ], [ 79.86222, 7.100618 ], [ 79.86231, 7.100618 ], [ 79.86231, 7.100529 ], [ 79.8624, 7.100529 ], [ 79.8624, 7.100439 ], [ 79.862489, 7.100439 ], [ 79.862489, 7.100349 ], [ 79.862579, 7.100349 ], [ 79.862579, 7.100259 ], [ 79.862759, 7.100259 ], [ 79.862759, 7.100169 ], [ 79.862849, 7.100169 ], [ 79.862849, 7.100079 ], [ 79.863028, 7.100079 ], [ 79.863028, 7.09999 ], [ 79.863118, 7.09999 ], [ 79.863118, 7.0999 ], [ 79.863208, 7.0999 ], [ 79.863208, 7.09981 ], [ 79.863298, 7.09981 ], [ 79.863298, 7.09963 ], [ 79.863567, 7.09963 ], [ 79.863567, 7.09954 ] ], [ [ 79.865993, 7.100798 ], [ 79.865993, 7.100978 ], [ 79.865723, 7.100978 ], [ 79.865723, 7.100798 ], [ 79.865993, 7.100798 ] ] ] } },
{ "type": "Feature", "properties": { "count": 1403, "label": 1 }, "geometry": { "type": "Polygon", "coordinates": [ [ [ 79.866891, 7.100349 ], [ 79.867071, 7.100349 ], [ 79.867071, 7.100439 ], [ 79.867161, 7.100439 ], [ 79.867161, 7.100529 ], [ 79.867251, 7.100529 ], [ 79.867251, 7.100708 ], [ 79.86734, 7.100708 ], [ 79.86734, 7.100798 ], [ 79.86743, 7.100798 ], [ 79.86743, 7.100978 ], [ 79.86752, 7.100978 ], [ 79.86752, 7.101068 ], [ 79.86761, 7.101068 ], [ 79.86761, 7.101337 ], [ 79.8677, 7.101337 ], [ 79.8677, 7.101607 ], [ 79.867789, 7.101607 ], [ 79.867789, 7.103493 ], [ 79.8677, 7.103493 ], [ 79.8677, 7.103763 ], [ 79.86761, 7.103763 ], [ 79.86761, 7.104122 ], [ 79.86743, 7.104122 ], [ 79.86743, 7.104302 ], [ 79.86734, 7.104302 ], [ 79.86734, 7.104391 ], [ 79.867251, 7.104391 ], [ 79.867251, 7.104571 ], [ 79.867161, 7.104571 ], [ 79.867161, 7.104661 ], [ 79.867071, 7.104661 ], [ 79.867071, 7.104751 ], [ 79.866981, 7.104751 ], [ 79.866981, 7.10502 ], [ 79.866801, 7.10502 ], [ 79.866801, 7.10511 ], [ 79.866712, 7.10511 ], [ 79.866712, 7.10529 ], [ 79.866622, 7.10529 ], [ 79.866622, 7.105379 ], [ 79.866532, 7.105379 ], [ 79.866532, 7.105469 ], [ 79.866442, 7.105469 ], [ 79.866442, 7.105559 ], [ 79.866352, 7.105559 ], [ 79.866352, 7.105649 ], [ 79.866262, 7.105649 ], [ 79.866262, 7.105739 ], [ 79.866173, 7.105739 ], [ 79.866173, 7.105829 ], [ 79.866083, 7.105829 ], [ 79.866083, 7.105918 ], [ 79.865993, 7.105918 ], [ 79.865993, 7.106098 ], [ 79.865723, 7.106098 ], [ 79.865723, 7.106188 ], [ 79.865544, 7.106188 ], [ 79.865544, 7.106278 ], [ 79.865364, 7.106278 ], [ 79.865364, 7.106188 ], [ 79.865274, 7.106188 ], [ 79.865274, 7.106278 ], [ 79.865005, 7.106278 ], [ 79.865005, 7.106457 ], [ 79.864825, 7.106457 ], [ 79.864825, 7.106547 ], [ 79.864286, 7.106547 ], [ 79.864286, 7.106637 ], [ 79.864196, 7.106637 ], [ 79.864196, 7.106547 ], [ 79.864017, 7.106547 ], [ 79.864017, 7.106637 ], [ 79.863927, 7.106637 ], [ 79.863927, 7.106547 ], [ 79.863298, 7.106547 ], [ 79.863298, 7.106457 ], [ 79.862849, 7.106457 ], [ 79.862849, 7.106368 ], [ 79.862669, 7.106368 ], [ 79.862669, 7.106278 ], [ 79.862489, 7.106278 ], [ 79.862489, 7.106098 ], [ 79.86231, 7.106098 ], [ 79.86231, 7.105918 ], [ 79.862489, 7.105918 ], [ 79.862489, 7.105829 ], [ 79.862579, 7.105829 ], [ 79.862579, 7.105918 ], [ 79.862759, 7.105918 ], [ 79.862759, 7.105829 ], [ 79.862849, 7.105829 ], [ 79.862849, 7.105739 ], [ 79.863028, 7.105739 ], [ 79.863028, 7.105649 ], [ 79.863118, 7.105649 ], [ 79.863118, 7.105559 ], [ 79.863208, 7.105559 ], [ 79.863208, 7.105379 ], [ 79.863657, 7.105379 ], [ 79.863657, 7.10529 ], [ 79.863747, 7.10529 ], [ 79.863747, 7.1052 ], [ 79.863927, 7.1052 ], [ 79.863927, 7.10511 ], [ 79.864106, 7.10511 ], [ 79.864106, 7.10493 ], [ 79.864196, 7.10493 ], [ 79.864196, 7.104841 ], [ 79.864376, 7.104841 ], [ 79.864376, 7.10493 ], [ 79.864556, 7.10493 ], [ 79.864556, 7.104841 ], [ 79.864735, 7.104841 ], [ 79.864735, 7.104751 ], [ 79.864825, 7.104751 ], [ 79.864825, 7.104841 ], [ 79.865274, 7.104841 ], [ 79.865274, 7.104661 ], [ 79.865634, 7.104661 ], [ 79.865634, 7.104571 ], [ 79.865723, 7.104571 ], [ 79.865723, 7.104212 ], [ 79.865813, 7.104212 ], [ 79.865813, 7.104122 ], [ 79.865723, 7.104122 ], [ 79.865723, 7.103852 ], [ 79.865634, 7.103852 ], [ 79.865634, 7.103763 ], [ 79.865723, 7.103763 ], [ 79.865723, 7.103673 ], [ 79.865544, 7.103673 ], [ 79.865544, 7.103493 ], [ 79.865634, 7.103493 ], [ 79.865634, 7.103313 ], [ 79.865544, 7.103313 ], [ 79.865544, 7.103134 ], [ 79.865634, 7.103134 ], [ 79.865634, 7.103044 ], [ 79.865993, 7.103044 ], [ 79.865993, 7.102954 ], [ 79.866083, 7.102954 ], [ 79.866083, 7.102685 ], [ 79.866173, 7.102685 ], [ 79.866173, 7.102595 ], [ 79.866352, 7.102595 ], [ 79.866352, 7.102505 ], [ 79.866262, 7.102505 ], [ 79.866262, 7.102235 ], [ 79.866352, 7.102235 ], [ 79.866352, 7.102056 ], [ 79.866442, 7.102056 ], [ 79.866442, 7.101966 ], [ 79.866622, 7.101966 ], [ 79.866622, 7.101696 ], [ 79.866712, 7.101696 ], [ 79.866712, 7.101427 ], [ 79.866891, 7.101427 ], [ 79.866891, 7.101247 ], [ 79.866801, 7.101247 ], [ 79.866801, 7.101157 ], [ 79.866712, 7.101157 ], [ 79.866712, 7.100708 ], [ 79.866801, 7.100708 ], [ 79.866801, 7.100798 ], [ 79.866981, 7.100798 ], [ 79.866981, 7.100439 ], [ 79.866891, 7.100439 ], [ 79.866891, 7.100349 ] ], [ [ 79.863657, 7.106368 ], [ 79.863657, 7.106457 ], [ 79.863567, 7.106457 ], [ 79.863567, 7.106368 ], [ 79.863657, 7.106368 ] ], [ [ 79.864466, 7.105739 ], [ 79.864466, 7.105829 ], [ 79.864376, 7.105829 ], [ 79.864376, 7.105739 ], [ 79.864466, 7.105739 ] ], [ [ 79.864017, 7.1052 ], [ 79.864017, 7.10529 ], [ 79.863927, 7.10529 ], [ 79.863927, 7.1052 ], [ 79.864017, 7.1052 ] ], [ [ 79.864376, 7.10493 ], [ 79.864376, 7.10511 ], [ 79.864286, 7.10511 ], [ 79.864286, 7.10493 ], [ 79.864376, 7.10493 ] ], [ [ 79.866981, 7.100978 ], [ 79.866981, 7.101068 ], [ 79.866891, 7.101068 ], [ 79.866891, 7.100978 ], [ 79.866981, 7.100978 ] ] ] } },
{ "type": "Feature", "properties": { "count": 976, "label": 1 }, "geometry": { "type": "Polygon", "coordinates": [ [ [ 79.866891, 7.149756 ], [ 79.867251, 7.149756 ], [ 79.867251, 7.149846 ], [ 79.86734, 7.149846 ], [ 79.86734, 7.150205 ], [ 79.86743, 7.150205 ], [ 79.86743, 7.150295 ], [ 79.86752, 7.150295 ], [ 79.86752, 7.150834 ], [ 79.86761, 7.150834 ], [ 79.86761, 7.151014 ], [ 79.8677, 7.151014 ], [ 79.8677, 7.151373 ], [ 79.867789, 7.151373 ], [ 79.867789, 7.152361 ], [ 79.867879, 7.152361 ], [ 79.867879, 7.152811 ], [ 79.867969, 7.152811 ], [ 79.867969, 7.1529 ], [ 79.868059, 7.1529 ], [ 79.868059, 7.15299 ], [ 79.868149, 7.15299 ], [ 79.868149, 7.15317 ], [ 79.868059, 7.15317 ], [ 79.868059, 7.153439 ], [ 79.867969, 7.153439 ], [ 79.867969, 7.153529 ], [ 79.867879, 7.153529 ], [ 79.867879, 7.153799 ], [ 79.867789, 7.153799 ], [ 79.867789, 7.154338 ], [ 79.8677, 7.154338 ], [ 79.8677, 7.154428 ], [ 79.86761, 7.154428 ], [ 79.86761, 7.154607 ], [ 79.86752, 7.154607 ], [ 79.86752, 7.154877 ], [ 79.86743, 7.154877 ], [ 79.86743, 7.155146 ], [ 79.867251, 7.155146 ], [ 79.867251, 7.155236 ], [ 79.867161, 7.155236 ], [ 79.867161, 7.155595 ], [ 79.867071, 7.155595 ], [ 79.867071, 7.155955 ], [ 79.866981, 7.155955 ], [ 79.866981, 7.156044 ], [ 79.866891, 7.156044 ], [ 79.866891, 7.156134 ], [ 79.866801, 7.156134 ], [ 79.866801, 7.156314 ], [ 79.866712, 7.156314 ], [ 79.866712, 7.156494 ], [ 79.866442, 7.156494 ], [ 79.866442, 7.156134 ], [ 79.866352, 7.156134 ], [ 79.866352, 7.156044 ], [ 79.866262, 7.156044 ], [ 79.866262, 7.155865 ], [ 79.866173, 7.155865 ], [ 79.866173, 7.154966 ], [ 79.866083, 7.154966 ], [ 79.866083, 7.153799 ], [ 79.866173, 7.153799 ], [ 79.866173, 7.15317 ], [ 79.866352, 7.15317 ], [ 79.866352, 7.152811 ], [ 79.866442, 7.152811 ], [ 79.866442, 7.152721 ], [ 79.866532, 7.152721 ], [ 79.866532, 7.152451 ], [ 79.866622, 7.152451 ], [ 79.866622, 7.150834 ], [ 79.866712, 7.150834 ], [ 79.866712, 7.150116 ], [ 79.866801, 7.150116 ], [ 79.866801, 7.149846 ], [ 79.866891, 7.149846 ], [ 79.866891, 7.149756 ] ] ] } },
{ "type": "Feature", "properties": { "count": 1, "label": 1 }, "geometry": { "type": "Polygon", "coordinates": [ [ [ 79.869047, 7.156943 ], [ 79.869137, 7.156943 ], [ 79.869137, 7.157033 ], [ 79.869047, 7.157033 ], [ 79.869047, 7.156943 ] ] ] } },
{ "type": "Feature", "properties": { "count": 20, "label": 1 }, "geometry": { "type": "Polygon", "coordinates": [ [ [ 79.869676, 7.153709 ], [ 79.869945, 7.153709 ], [ 79.869945, 7.153799 ], [ 79.870035, 7.153799 ], [ 79.870035, 7.153889 ], [ 79.870125, 7.153889 ], [ 79.870125, 7.153978 ], [ 79.870035, 7.153978 ], [ 79.870035, 7.154068 ], [ 79.869766, 7.154068 ], [ 79.869766, 7.154158 ], [ 79.869586, 7.154158 ], [ 79.869586, 7.153889 ], [ 79.869676, 7.153889 ], [ 79.869676, 7.153709 ] ] ] } },
{ "type": "Feature", "properties": { "count": 1, "label": 1 }, "geometry": { "type": "Polygon", "coordinates": [ [ [ 79.870035, 7.151283 ], [ 79.870125, 7.151283 ], [ 79.870125, 7.151373 ], [ 79.870035, 7.151373 ], [ 79.870035, 7.151283 ] ] ] } },
{ "type": "Feature", "properties": { "count": 24, "label": 1 }, "geometry": { "type": "Polygon", "coordinates": [ [ [ 79.871203, 7.150924 ], [ 79.871293, 7.150924 ], [ 79.871293, 7.151194 ], [ 79.871203, 7.151194 ], [ 79.871203, 7.151283 ], [ 79.871113, 7.151283 ], [ 79.871113, 7.151373 ], [ 79.870754, 7.151373 ], [ 79.870754, 7.151463 ], [ 79.870664, 7.151463 ], [ 79.870664, 7.151104 ], [ 79.870934, 7.151104 ], [ 79.870934, 7.151014 ], [ 79.871203, 7.151014 ], [ 79.871203, 7.150924 ] ] ] } }
]
}
