{
"type": "FeatureCollection",
"name": "railways",
"crs": { "type": "name", "properties": { "name": "urn:ogc:def:crs:OGC:1.3:CRS84" } },
"features": [
{ "type": "Feature", "properties": { }, "geometry": { "type": "LineString", "coordinates": [ [ 79.86646634041891, 6.816741837150951 ], [ 79.866671161135912, 6.816521675956079 ], [ 79.867249695723189, 6.815753662168784 ], [ 79.868020232096413, 6.815178281104972 ], [ 79.86892796379118, 6.81471302612351 ], [ 79.870137979508129, 6.814248333420805 ], [ 79.871292724810061, 6.813948341195656 ], [ 79.872255207934145, 6.81359305250639 ], [ 79.873299926798992, 6.813347785904523 ], [ 79.874619398619046, 6.813130494920686 ], [ 79.876544051486277, 6.812584707584178 ], [ 79.87789125560397, 6.812230119303161 ], [ 79.878825997571681, 6.812012104430249 ], [ 79.879375911191858, 6.811848312952911 ], [ 79.880695986499461, 6.811301391082432 ], [ 79.881328441474935, 6.811082813600494 ] ] } },
{ "type": "Feature", "properties": { }, "geometry": { "type": "LineString", "coordinates": [ [ 79.8720164739388, 6.813681178428198 ], [ 79.872172510521878, 6.813730237594849 ], [ 79.873628977150702, 6.81373294714089 ], [ 79.874371053073105, 6.813679390323901 ], [ 79.875168294073603, 6.813516063382804 ], [ 79.875882838308812, 6.81348992092282 ], [ 79.87703727451391, 6.813354720774953 ] ] } },
{ "type": "Feature", "properties": { }, "geometry": { "type": "LineString", "coordinates": [ [ 79.87234080597365, 6.813572956911197 ], [ 79.87247541004291, 6.813401187699407 ], [ 79.873108790539632, 6.812688202802544 ], [ 79.873494334442782, 6.812249434473845 ], [ 79.873852448316185, 6.811783146939555 ], [ 79.874320278787451, 6.811426934098403 ], [ 79.875255580776994, 6.810906780969542 ], [ 79.876025846075194, 6.810468723499047 ] ] } },
{ "type": "Feature", "properties": { }, "geometry": { "type": "LineString", "coordinates": [ [ 79.842937641246934, 6.939717832704017 ], [ 79.842938614486016, 6.939221291835756 ], [ 79.843001305380682, 6.93892659224564 ], [ 79.843157074521741, 6.938678625633558 ], [ 79.843281543799819, 6.938554733430144 ], [ 79.843949623437027, 6.938369836254649 ], [ 79.845176901754087, 6.938092928170924 ], [ 79.84590703269771, 6.937939183123198 ], [ 79.846590881436754, 6.937630176905138 ], [ 79.847290287883112, 6.937305682888893 ], [ 79.847538860650118, 6.937244098967216 ], [ 79.847849395078455, 6.937260220414545 ], [ 79.848097725906598, 6.93732277158865 ], [ 79.848625021227321, 6.937665170976236 ], [ 79.850113500870464, 6.938816320743553 ], [ 79.851849778698679, 6.940309321139434 ], [ 79.85223711421871, 6.940760064889106 ], [ 79.852763543732266, 6.941552451900487 ], [ 79.853886345935507, 6.943106326110129 ], [ 79.854598731645154, 6.944100792661252 ], [ 79.855093660803533, 6.945125872185314 ], [ 79.855449315356836, 6.945902410118239 ], [ 79.855874249112119, 6.946989421990608 ], [ 79.85666128680748, 6.949535732211564 ], [ 79.856977614671337, 6.950575982911309 ], [ 79.85739395068461, 6.952097454027754 ], [ 79.857594625001568, 6.952718521936749 ], [ 79.857764781925724, 6.953060224647567 ], [ 79.858090107253318, 6.953464294736797 ], [ 79.858399784406203, 6.953930402558611 ], [ 79.858608704443085, 6.954303213872524 ], [ 79.858809530794971, 6.954846696737849 ], [ 79.859165646315091, 6.955390478877587 ], [ 79.859770165134449, 6.955965773415 ], [ 79.860576710965248, 6.956463871100547 ], [ 79.861166451305664, 6.956651210080661 ], [ 79.861671022037726, 6.956714248421357 ], [ 79.861816202047834, 6.956739072650481 ] ] } },
{ "type": "Feature", "properties": { }, "geometry": { "type": "LineString", "coordinates": [ [ 79.852745657008981, 6.933041701527695 ], [ 79.85381491826071, 6.93284505055072 ], [ 79.85468546230004, 6.932573493985221 ], [ 79.855133330799248, 6.932350799982808 ], [ 79.85560634431053, 6.931979115015197 ], [ 79.855955261191994, 6.931507830968817 ], [ 79.856329034875159, 6.931036594458142 ], [ 79.856852192211846, 6.93044144601514 ], [ 79.857549111150419, 6.929970830326305 ], [ 79.85814635990026, 6.929624221071266 ], [ 79.859863672235988, 6.928509725706451 ], [ 79.86046077462791, 6.928237632379652 ], [ 79.861007923341234, 6.928089641839386 ], [ 79.861679120600243, 6.928066087503365 ], [ 79.862524081807649, 6.928167064011302 ], [ 79.863170184239749, 6.928267658977504 ], [ 79.863443568288091, 6.928293021355778 ], [ 79.863504496243365, 6.928291291730961 ] ] } },
{ "type": "Feature", "properties": { }, "geometry": { "type": "LineString", "coordinates": [ [ 79.85492576661639, 6.93267286661801 ], [ 79.855257378715834, 6.932475238437793 ], [ 79.85585453623834, 6.932178312208073 ], [ 79.856401738318723, 6.932005488038846 ], [ 79.857048322431368, 6.931857694388759 ], [ 79.857545904501066, 6.931635093574978 ], [ 79.857794815016561, 6.931461693579149 ], [ 79.858492165136923, 6.930767518788168 ], [ 79.859139846031852, 6.930048407459702 ], [ 79.860036194861379, 6.929280092346718 ], [ 79.860857587230811, 6.928710350439062 ], [ 79.861230877466525, 6.928487506877584 ], [ 79.861927456501832, 6.928190762271086 ], [ 79.862073454926687, 6.928113212339445 ] ] } },
{ "type": "Feature", "properties": { }, "geometry": { "type": "LineString", "coordinates": [ [ 79.848013334998043, 6.933596693324939 ], [ 79.848086615035854, 6.933679661890226 ], [ 79.848170508463582, 6.933728341515125 ], [ 79.848667467061119, 6.93382866672833 ], [ 79.849462717322496, 6.933929570801472 ], [ 79.850258257690058, 6.933881435409507 ], [ 79.850979369868583, 6.933758635001314 ], [ 79.852222780768372, 6.933487806075018 ], [ 79.853093374682686, 6.933191413002733 ], [ 79.854560790148398, 6.932771971850072 ], [ 79.856649930647563, 6.932204684861525 ], [ 79.857520520392839, 6.931908282984823 ], [ 79.858416205894514, 6.931487728374261 ], [ 79.859013742922031, 6.930992079655434 ], [ 79.859835521419598, 6.930223621968499 ], [ 79.860657011145278, 6.929604201137361 ], [ 79.861403735903863, 6.929083994867023 ], [ 79.862423700419541, 6.928663669537945 ], [ 79.863169851395824, 6.928441537522279 ], [ 79.863302169220674, 6.928420460307644 ], [ 79.863370384064424, 6.928404367899114 ], [ 79.863618319622304, 6.9283370693284 ] ] } },
{ "type": "Feature", "properties": { }, "geometry": { "type": "LineString", "coordinates": [ [ 79.85621921173734, 6.960974334358087 ], [ 79.856917208110161, 6.960975684489676 ], [ 79.857251593060525, 6.960907567748635 ], [ 79.85776323885726, 6.960682620205946 ], [ 79.858078170667667, 6.960506408812254 ], [ 79.858422936861203, 6.96015343509689 ], [ 79.859319808356148, 6.958986190589316 ], [ 79.85982254922753, 6.958279880607304 ], [ 79.8602265629778, 6.957789492831083 ], [ 79.860566523715832, 6.957377567869655 ], [ 79.86086194207121, 6.957122730040469 ], [ 79.861176946143971, 6.956907222949999 ], [ 79.861629430669836, 6.95677056651822 ], [ 79.862032628343698, 6.956702578200096 ], [ 79.862612762553979, 6.956644752658331 ], [ 79.863369871103814, 6.956577442661263 ], [ 79.864175983021383, 6.956588812011903 ], [ 79.86570470161368, 6.956581916809437 ], [ 79.866038951160874, 6.956582556377132 ], [ 79.866619198217208, 6.956465786028743 ], [ 79.867169858495828, 6.956398075106058 ], [ 79.868212024608368, 6.956350948467881 ], [ 79.870921518942893, 6.956429786730361 ], [ 79.873244018330979, 6.956458758520221 ], [ 79.874311737019539, 6.95638403868728 ], [ 79.874972511910528, 6.956247149762164 ], [ 79.875910071080611, 6.955957293617879 ], [ 79.876479000396216, 6.955651389601792 ], [ 79.877279124184383, 6.954931498318353 ], [ 79.87789468496041, 6.954334049141711 ], [ 79.878540791628552, 6.953828750667064 ], [ 79.879294740355689, 6.953154815116219 ], [ 79.880502520569763, 6.952113355555419 ], [ 79.882348713613709, 6.950566572930717 ], [ 79.883687535372943, 6.949264415707496 ], [ 79.884526039065392, 6.948544581157349 ], [ 79.884911059513357, 6.948008085130323 ], [ 79.885219276450158, 6.947471445040499 ], [ 79.885435300884353, 6.946949981349714 ], [ 79.885590170146614, 6.946274912698093 ], [ 79.885621465704105, 6.945967990195861 ], [ 79.885681090626136, 6.94565150952605 ] ] } },
{ "type": "Feature", "properties": { }, "geometry": { "type": "LineString", "coordinates": [ [ 79.875483768766955, 6.938579601247993 ], [ 79.875513251095569, 6.937716905967375 ], [ 79.875292759717098, 6.936491939882631 ], [ 79.875127181169191, 6.935684537621158 ], [ 79.874961181938644, 6.935099779962492 ], [ 79.874656192792187, 6.934375606374041 ], [ 79.874156513328799, 6.933511911441204 ], [ 79.873878902646027, 6.933038265352068 ], [ 79.873573178419349, 6.932703719355795 ], [ 79.873323050319684, 6.932424939688285 ], [ 79.873100509439183, 6.932285365433652 ], [ 79.872599674296978, 6.93203394180372 ], [ 79.872238039535105, 6.931810611938152 ], [ 79.87170919654082, 6.93164262642924 ], [ 79.871402946655508, 6.931586384852022 ], [ 79.870902007637824, 6.931390620729326 ], [ 79.869955884829679, 6.930971366240026 ], [ 79.868954010097369, 6.93057983478754 ], [ 79.868425328999336, 6.930328354341899 ], [ 79.867980093653827, 6.930132693338961 ], [ 79.867674057564884, 6.929965127444078 ], [ 79.866560520561862, 6.929712532088541 ], [ 79.865530536044872, 6.929460093609975 ] ] } },
{ "type": "Feature", "properties": { }, "geometry": { "type": "LineString", "coordinates": [ [ 79.865557536065651, 6.929905434878934 ], [ 79.866531767692706, 6.930185597837819 ], [ 79.867422714700339, 6.930326447324546 ], [ 79.868202419812533, 6.930383591806123 ], [ 79.868598135980434, 6.930410554413418 ] ] } },
{ "type": "Feature", "properties": { }, "geometry": { "type": "LineString", "coordinates": [ [ 79.873295153469982, 6.932305775711853 ], [ 79.873740808771359, 6.932425729586724 ], [ 79.87449224767721, 6.932705456233135 ], [ 79.875466282133317, 6.933096924586938 ], [ 79.876412730444827, 6.933349185699122 ], [ 79.877136374704577, 6.933601025444351 ] ] } },
{ "type": "Feature", "properties": { }, "geometry": { "type": "LineString", "coordinates": [ [ 79.877264758555043, 6.939362220284417 ], [ 79.876709841014673, 6.938247946687702 ], [ 79.876210890435587, 6.936994624888118 ], [ 79.875739740311019, 6.935769185976492 ], [ 79.87554599473934, 6.935128714697745 ], [ 79.875379995088863, 6.934543957130658 ], [ 79.875157820882109, 6.934209569593173 ], [ 79.874768753570365, 6.933763544124028 ], [ 79.874574272833655, 6.93351270072983 ], [ 79.874072798797457, 6.932896851018834 ] ] } },
{ "type": "Feature", "properties": { }, "geometry": { "type": "LineString", "coordinates": [ [ 79.889507268713288, 6.930383405192922 ], [ 79.889471395451523, 6.929962088343292 ], [ 79.889270977011023, 6.929320683244803 ], [ 79.889124930457967, 6.929009053169808 ], [ 79.88903376641565, 6.928752470691973 ], [ 79.888924035816913, 6.92862406030066 ], [ 79.888886332620373, 6.92855281477189 ] ] } },
{ "type": "Feature", "properties": { }, "geometry": { "type": "LineString", "coordinates": [ [ 79.884231908461871, 6.943157925890905 ], [ 79.884293256120301, 6.942904954690085 ], [ 79.884529400394456, 6.94208487570154 ], [ 79.884882764700762, 6.941308972069289 ], [ 79.885456235544012, 6.940445566215693 ], [ 79.886205740717656, 6.939538531394176 ], [ 79.886661767261415, 6.938748165144949 ], [ 79.886897576366877, 6.938103909458556 ], [ 79.886986811388155, 6.937430076053697 ], [ 79.88696582906033, 6.936887906707128 ], [ 79.886907670183163, 6.936624059285654 ], [ 79.886747036085708, 6.936272107841954 ], [ 79.886556994620292, 6.935964058042881 ], [ 79.886161948626025, 6.935509104238704 ], [ 79.885561789551076, 6.934965854467778 ], [ 79.884917506759805, 6.93449578251627 ], [ 79.88432255420885, 6.934110051945975 ], [ 79.884011657741738, 6.933743166950406 ], [ 79.8838838050454, 6.933504830380002 ], [ 79.883829540060447, 6.933120109776853 ], [ 79.88388610197886, 6.932277716342668 ], [ 79.884107240871998, 6.931637097564334 ], [ 79.884659074997785, 6.930575846412924 ], [ 79.885118410006584, 6.92997230188325 ], [ 79.885816112786827, 6.929314255530655 ], [ 79.886559394943419, 6.928784499279809 ], [ 79.88710964963316, 6.928565741150617 ], [ 79.88754966199896, 6.928493299017235 ], [ 79.88822780399056, 6.928494560048895 ], [ 79.888850859406944, 6.928550663472949 ], [ 79.889162404242128, 6.928569557299997 ], [ 79.88958402028932, 6.928533709539033 ] ] } },
{ "type": "Feature", "properties": { }, "geometry": { "type": "LineString", "coordinates": [ [ 79.875119927747747, 7.157411294124352 ], [ 79.875315881307529, 7.157685168773215 ], [ 79.875898508725427, 7.158610534914851 ], [ 79.876286548783753, 7.159422019854108 ], [ 79.876755793028977, 7.160217447928731 ], [ 79.876885098305138, 7.160509562173333 ], [ 79.876932979437427, 7.160931234884653 ], [ 79.877043996356448, 7.162277262570893 ], [ 79.877092004048606, 7.162634077121967 ], [ 79.877270044745472, 7.162910071509482 ], [ 79.87773976746287, 7.163462280997976 ], [ 79.879076076512661, 7.165021478301396 ], [ 79.879788626986141, 7.165930878858744 ], [ 79.880663493906297, 7.166856807811941 ], [ 79.881424690951476, 7.167798729997727 ], [ 79.883101040343462, 7.169828800869707 ], [ 79.884024060042449, 7.171046681323347 ], [ 79.884850083961169, 7.172053583098025 ] ] } },
{ "type": "Feature", "properties": { }, "geometry": { "type": "LineString", "coordinates": [ [ 79.920722960930306, 7.031024435013819 ], [ 79.920412017992234, 7.031286383628514 ], [ 79.919791713153572, 7.031675008978841 ], [ 79.919378315361527, 7.031857670131612 ], [ 79.919102939638776, 7.031857169006908 ], [ 79.918621074008882, 7.031833365092713 ], [ 79.918116427930457, 7.031717812641476 ], [ 79.917565886253314, 7.031602175996448 ], [ 79.91696932331422, 7.031555234649926 ], [ 79.916464384616688, 7.031600166337856 ], [ 79.915982267965319, 7.031713919020627 ], [ 79.915637461063298, 7.032034261692774 ], [ 79.915108565810201, 7.032629386831958 ], [ 79.914579164746726, 7.033499629601553 ], [ 79.913934179723228, 7.034828191926096 ], [ 79.913381109622875, 7.036088141563777 ], [ 79.913139311556392, 7.036546230196183 ], [ 79.91284026893112, 7.036935433820186 ], [ 79.912265636467922, 7.037438764234582 ], [ 79.911415666263551, 7.037918661187717 ], [ 79.910542915250446, 7.038306808135322 ], [ 79.909716101756032, 7.038672111305187 ], [ 79.909118854473974, 7.038991982914201 ], [ 79.90870502322106, 7.039403898227944 ], [ 79.908405932747357, 7.03981602478734 ], [ 79.907784716979251, 7.040686087718611 ], [ 79.907416609986839, 7.041189792225987 ], [ 79.907025681151651, 7.04162467447013 ], [ 79.906542957978672, 7.042059386534623 ], [ 79.905738615841202, 7.042676915059005 ], [ 79.904922669706338, 7.043363200064531 ], [ 79.904002941582121, 7.044324409252063 ], [ 79.903244020085538, 7.045194208709443 ], [ 79.902462019005554, 7.046132743232558 ], [ 79.901541596069521, 7.04746076923993 ], [ 79.90094304858259, 7.048468421335969 ], [ 79.90021810898358, 7.049567542658759 ], [ 79.899872763677052, 7.050162987700257 ], [ 79.899619083941744, 7.050827382983495 ], [ 79.899457241553776, 7.051469023001991 ], [ 79.899451750479656, 7.054403605178203 ], [ 79.899404908484328, 7.054907900713816 ], [ 79.899208726031986, 7.055503623170776 ], [ 79.898932393105184, 7.056007489656687 ], [ 79.898702387236469, 7.056282177566761 ], [ 79.898104680211119, 7.056831295294314 ], [ 79.897575991162682, 7.057288835370956 ], [ 79.897115847128177, 7.057906988541803 ], [ 79.896563646765301, 7.058662527374997 ], [ 79.89628705031339, 7.059303950036292 ], [ 79.895964037207847, 7.060220403003975 ], [ 79.895709654783374, 7.061251616802946 ], [ 79.894449455889941, 7.0662701442687 ], [ 79.894102445179101, 7.067736784474851 ], [ 79.892979598866532, 7.072916046255441 ], [ 79.892655612739745, 7.074336874369552 ], [ 79.891973642129528, 7.07694920034809 ], [ 79.891811211425264, 7.077888877157329 ], [ 79.891763573882798, 7.078805844422312 ], [ 79.891853419737842, 7.079837703756697 ], [ 79.892035327222928, 7.080732178547571 ], [ 79.892434958758002, 7.081787549922401 ], [ 79.893006589110897, 7.082912025383135 ], [ 79.893258001383344, 7.083462734766881 ], [ 79.893486593956709, 7.083944621661249 ], [ 79.893577397730894, 7.084472101202034 ], [ 79.893622387519073, 7.084953641350094 ], [ 79.893621302877023, 7.08552680024011 ], [ 79.893436657605605, 7.086076685966074 ], [ 79.892837860112067, 7.087176023139304 ], [ 79.891859504937344, 7.088733169272568 ], [ 79.891398577822429, 7.089741058941134 ], [ 79.89093716940333, 7.091001137535547 ], [ 79.890521398171316, 7.092398860342082 ], [ 79.890289797611231, 7.093498888629966 ], [ 79.890092578366307, 7.09462190829463 ], [ 79.889975337099642, 7.095928490843726 ], [ 79.890042357431582, 7.09689152713019 ], [ 79.890246560544952, 7.098129940801254 ], [ 79.890427420529875, 7.099574647759116 ], [ 79.890506266065742, 7.100354295236758 ], [ 79.89050539336796, 7.100812821660508 ], [ 79.890412541141956, 7.101362878972669 ], [ 79.89022792723874, 7.101889835491857 ], [ 79.889836314557115, 7.102645662375012 ], [ 79.889444744180523, 7.103378562428231 ], [ 79.889121851628303, 7.104203298261942 ], [ 79.888867855725181, 7.105005238471291 ], [ 79.888682975644187, 7.105669751723728 ], [ 79.888300511799471, 7.107640692299601 ], [ 79.888113964855421, 7.109176404344789 ], [ 79.88804191151786, 7.110849892713348 ], [ 79.887924654748716, 7.112156472619231 ], [ 79.887704201410585, 7.113417002645575 ], [ 79.887242883467323, 7.114608293273872 ], [ 79.886458917950989, 7.116486757294818 ], [ 79.885674505409497, 7.118594481775792 ], [ 79.884970813534395, 7.120496021409817 ], [ 79.88390787121206, 7.124208050848105 ], [ 79.883549594747095, 7.125514164258103 ], [ 79.88276510489915, 7.127644805704823 ], [ 79.881772838645546, 7.130394055396964 ], [ 79.880860272950642, 7.133464423301852 ], [ 79.880027007205143, 7.137062245706329 ], [ 79.879068016437799, 7.140384705723586 ], [ 79.878283072405111, 7.142721668328575 ], [ 79.87805171500311, 7.143661197990255 ], [ 79.87769299957364, 7.14517363761476 ], [ 79.877552605913323, 7.146548942338177 ], [ 79.877526933661102, 7.147947395651655 ], [ 79.87754658818632, 7.149643978416018 ], [ 79.877441914832133, 7.150354489915362 ], [ 79.877348985444158, 7.15092746647391 ], [ 79.877002717804316, 7.151935550299806 ], [ 79.87612596628243, 7.154249399769247 ], [ 79.875525635305749, 7.156059406664322 ], [ 79.874659223553039, 7.158946427497185 ], [ 79.874150829391297, 7.160687831239594 ], [ 79.873239251604232, 7.163185012517124 ], [ 79.872708565107388, 7.164582476058624 ], [ 79.871970341582951, 7.166460983276437 ], [ 79.870967324488092, 7.168751641618173 ], [ 79.869677048267889, 7.171202215995971 ], [ 79.869031385236255, 7.172691151410578 ], [ 79.867659160421141, 7.175943972738425 ], [ 79.867105347356272, 7.177410158170472 ], [ 79.86662012317359, 7.179014034749053 ], [ 79.86469298168015, 7.184260323428798 ], [ 79.864231376563794, 7.185520349359467 ], [ 79.861430356152013, 7.191521447494162 ], [ 79.860081740215279, 7.1943845326792 ], [ 79.859759216657977, 7.194957043815834 ], [ 79.859436783806345, 7.195483702563979 ], [ 79.858861836855581, 7.196009857721698 ], [ 79.85819479037751, 7.196673384943686 ], [ 79.857436010493458, 7.197290875570269 ], [ 79.856746555465733, 7.197679242178757 ], [ 79.855712669799217, 7.198112770818843 ], [ 79.854437792004973, 7.198522888001387 ], [ 79.851520736755091, 7.199342372644044 ], [ 79.849132075825366, 7.199956568228867 ], [ 79.846674495791348, 7.20059353726897 ], [ 79.845422654837549, 7.200957821911883 ], [ 79.844457714788405, 7.201345610296477 ], [ 79.843699330192067, 7.201756741372773 ], [ 79.843147734563047, 7.202076586637475 ], [ 79.842710964743802, 7.202373738261112 ], [ 79.842250864850442, 7.202854250057483 ], [ 79.841767480920865, 7.203495195959402 ], [ 79.841445021631486, 7.204021838428789 ], [ 79.841214339068856, 7.204571593265007 ], [ 79.841052243549768, 7.20525904343766 ], [ 79.840935872569744, 7.206038290506472 ], [ 79.840911045024328, 7.206955279782586 ], [ 79.841171719790708, 7.208583555981312 ], [ 79.841947417398075, 7.210946511977756 ], [ 79.84305538380076, 7.213608180920554 ], [ 79.843991933509926, 7.215902684245785 ], [ 79.8445398131974, 7.217416913308535 ], [ 79.844881411270933, 7.21877024128403 ], [ 79.845508572538805, 7.220811929002147 ], [ 79.846489940755589, 7.223656745212942 ], [ 79.84674083725163, 7.224459664442332 ], [ 79.846877647829359, 7.22491846210891 ], [ 79.846933922154932, 7.225468800545141 ], [ 79.846955853963891, 7.225973217329847 ], [ 79.847007292881486, 7.226072174698947 ], [ 79.847032630561287, 7.226125592891185 ], [ 79.847815232784043, 7.228926175816508 ], [ 79.848046846536505, 7.229888800295783 ], [ 79.848133072503728, 7.230559568003138 ], [ 79.848189746958127, 7.231405213139039 ], [ 79.848158240112483, 7.232542241712467 ], [ 79.847922417513445, 7.233649699807176 ], [ 79.847687008524005, 7.23455306496093 ], [ 79.847392701180681, 7.235704138078817 ], [ 79.847274194439422, 7.236549427493685 ], [ 79.847243039440315, 7.237511518939622 ], [ 79.847240724543212, 7.238648606072449 ], [ 79.847064000739337, 7.239406308386195 ], [ 79.846974985285641, 7.240105876316575 ], [ 79.846885434796775, 7.241067848844071 ], [ 79.847000321288533, 7.242001080477337 ], [ 79.847347150284179, 7.243736578672827 ], [ 79.847636566837181, 7.244990882961992 ], [ 79.848071940731941, 7.246260061704447 ], [ 79.848624135351983, 7.247514899285941 ], [ 79.849002038598698, 7.248332039842271 ], [ 79.849787876198093, 7.249558194437647 ], [ 79.850311651627024, 7.25043394251778 ], [ 79.851096874147643, 7.251966234633467 ], [ 79.851562140858277, 7.252900175752921 ], [ 79.852028060249495, 7.253513399489058 ], [ 79.852464309908584, 7.254359812656141 ], [ 79.853045308321072, 7.255818799020324 ], [ 79.853684883117012, 7.25719043472889 ], [ 79.854672829803363, 7.259554085531018 ], [ 79.855544435200756, 7.26169882862688 ], [ 79.856067053826806, 7.263157695200839 ], [ 79.856736198090459, 7.264354450792875 ], [ 79.857375911413058, 7.265667771439782 ], [ 79.858103106045647, 7.267039580282445 ], [ 79.858423054125922, 7.267652505917486 ], [ 79.858684281859695, 7.268425672603175 ], [ 79.858974385359602, 7.269359256740836 ], [ 79.859263960207215, 7.270555246049128 ] ] } },
{ "type": "Feature", "properties": { }, "geometry": { "type": "LineString", "coordinates": [ [ 79.863504496243365, 6.928291291730961 ], [ 79.863860340868598, 6.928434405574045 ], [ 79.866844056477703, 6.929246351358679 ], [ 79.868402694176567, 6.929894321533458 ], [ 79.869692495635746, 6.930488026413387 ], [ 79.872594434702805, 6.931891038901188 ], [ 79.873642146951838, 6.93251115131396 ], [ 79.875145697015554, 6.933857754279951 ], [ 79.878823976385604, 6.93719721837978 ], [ 79.881643132978027, 6.939755665699422 ], [ 79.883119027774868, 6.941532201718419 ], [ 79.883910467175667, 6.942581820446272 ], [ 79.884285739819177, 6.943254405400857 ], [ 79.884607122370738, 6.943980639995845 ], [ 79.886993864535029, 6.94769389335667 ], [ 79.888267483839925, 6.949792544655586 ], [ 79.889527465366797, 6.951998669697195 ], [ 79.889848860652179, 6.952724902241631 ], [ 79.889928345207196, 6.953370058326866 ], [ 79.889748960799807, 6.955815379811123 ], [ 79.889667069556054, 6.956460235240326 ], [ 79.889800897401159, 6.956809863891422 ], [ 79.890203434618726, 6.957294369668212 ], [ 79.891867884204373, 6.958963737771764 ], [ 79.892995771153679, 6.959906470677051 ], [ 79.89425794414025, 6.960956951909323 ], [ 79.895426085545324, 6.961953505508809 ], [ 79.896338816211809, 6.962895833423732 ], [ 79.896848452850833, 6.963649286852927 ], [ 79.897223310136638, 6.964563742942977 ], [ 79.897463188421185, 6.96574670309712 ], [ 79.897807866942756, 6.968434878089703 ], [ 79.898248030088965, 6.970397594385927 ], [ 79.899262700418021, 6.97440390097024 ], [ 79.899676024841924, 6.976339691894624 ], [ 79.899779088327307, 6.978785541832393 ], [ 79.899775258127505, 6.980854938807721 ], [ 79.899542051134375, 6.983327042096555 ], [ 79.899647351426964, 6.984563503920173 ], [ 79.899780495461926, 6.985289385166571 ], [ 79.900074578025922, 6.986257442325826 ], [ 79.900717287999967, 6.98779052660948 ], [ 79.901696125984699, 6.989377981882694 ], [ 79.902930947983208, 6.990724029446927 ], [ 79.904622400076875, 6.992420295485904 ], [ 79.905991333325247, 6.99398158699018 ], [ 79.906648657769551, 6.994896558798107 ], [ 79.90683595656354, 6.995434411048394 ], [ 79.907023206283867, 6.995999138575154 ], [ 79.907155720247658, 6.997074398336014 ], [ 79.90715364338206, 6.998203161688775 ], [ 79.906910271138642, 6.998901475131368 ], [ 79.906398259373461, 6.999411166591921 ], [ 79.906128729518827, 6.999706300281756 ], [ 79.905912996416419, 7.000001532772618 ], [ 79.90569671794438, 7.000592393464139 ], [ 79.905669274249917, 7.000887972292316 ], [ 79.905722080309729, 7.001425577395878 ], [ 79.906082239141256, 7.003038764016239 ], [ 79.906619074553646, 7.003657885899346 ], [ 79.907317403124736, 7.00422355340383 ], [ 79.908016227913151, 7.004520466897116 ], [ 79.908795898426206, 7.004736901586716 ], [ 79.909925057525825, 7.005061477413747 ], [ 79.910650981720082, 7.005250935307052 ], [ 79.911645452326653, 7.005682762336146 ], [ 79.912800826748992, 7.006383635842922 ], [ 79.913713868097147, 7.00721844186342 ], [ 79.91459942447581, 7.00837570172556 ], [ 79.915336941600486, 7.009586441512994 ], [ 79.916570088834888, 7.011899976703158 ], [ 79.917990466473341, 7.014805110522345 ], [ 79.919263792103351, 7.017226216276495 ], [ 79.920764117700998, 7.020561497822808 ], [ 79.921219071891869, 7.021852345729314 ], [ 79.921553075903518, 7.023089223238835 ], [ 79.921659065373248, 7.023976306155628 ], [ 79.921684208373094, 7.024943868956293 ], [ 79.921628797271822, 7.02583065923624 ], [ 79.92151914589266, 7.026959230360839 ], [ 79.921247310350864, 7.02851751461995 ], [ 79.92069101328741, 7.03117717589421 ], [ 79.920528045133324, 7.032036894633736 ], [ 79.92047316768442, 7.032628055058436 ], [ 79.920472091103747, 7.033219313240934 ], [ 79.92065922067178, 7.033864664378159 ], [ 79.920927150389119, 7.034456411377335 ], [ 79.92124878423715, 7.035102006754199 ], [ 79.921624366963187, 7.035667073556735 ], [ 79.922215156444636, 7.036232530711659 ], [ 79.923034652770411, 7.036771526478724 ], [ 79.924217312060222, 7.03731117869061 ], [ 79.926018888642133, 7.037744444931401 ], [ 79.927228989920565, 7.03798850927602 ], [ 79.927874125495265, 7.038258427886064 ], [ 79.928304103106697, 7.038501082485423 ], [ 79.928518825278744, 7.038770224471884 ], [ 79.928787252573557, 7.039093214144089 ], [ 79.928974734870579, 7.039550435492226 ], [ 79.929054710447872, 7.039953712182756 ], [ 79.929161199249009, 7.040572040697124 ], [ 79.929240108300306, 7.041566576696252 ], [ 79.929319114424828, 7.042507361825052 ], [ 79.929452068520192, 7.043367617576201 ], [ 79.929732737395284, 7.044362516843937 ], [ 79.930107561846398, 7.045357585536721 ], [ 79.930590283877521, 7.046191595125411 ], [ 79.931529363709274, 7.04756393522001 ], [ 79.932871198598946, 7.049367005509095 ], [ 79.934253685629358, 7.051008892693257 ], [ 79.935972165337162, 7.052812631344713 ], [ 79.937367979763067, 7.054535162028635 ], [ 79.938656052076368, 7.056338124030954 ], [ 79.939689139822619, 7.057818122279359 ], [ 79.94121877428671, 7.059944016522473 ], [ 79.942989730189083, 7.062527220784261 ], [ 79.943902356659052, 7.063684491408774 ], [ 79.945741455792771, 7.06578404847945 ], [ 79.946466682185303, 7.066430347019104 ], [ 79.947219241977692, 7.066834812577607 ], [ 79.947864430338157, 7.06710470928294 ], [ 79.948402389166233, 7.067159410931106 ], [ 79.949075051841618, 7.067106847252481 ], [ 79.950367046137458, 7.066732866748051 ], [ 79.951578283324167, 7.066385615993671 ], [ 79.952681908363871, 7.066038172849871 ], [ 79.953623643578638, 7.065959199321291 ], [ 79.954107844424954, 7.06598692433264 ], [ 79.954403726636656, 7.066014318760408 ], [ 79.954833933578357, 7.066149450985804 ], [ 79.955411917046746, 7.066392344226495 ], [ 79.956244911786214, 7.066958190892842 ], [ 79.957078002771837, 7.067470285112344 ], [ 79.957911424817311, 7.067794248936614 ], [ 79.958772032824342, 7.067957004745588 ], [ 79.959605973382011, 7.067985334167514 ], [ 79.960628562076721, 7.067825860600145 ], [ 79.961920599610195, 7.067424971637189 ], [ 79.96388548521044, 7.066863991036192 ], [ 79.965607916056342, 7.066490712513183 ], [ 79.966374784920319, 7.066411410687479 ], [ 79.966912840558763, 7.066412339829737 ], [ 79.967531511738528, 7.066467158885477 ], [ 79.968015529876283, 7.066602372236097 ], [ 79.968499269959636, 7.066898839070784 ], [ 79.968902255786034, 7.067222042143559 ], [ 79.969439246648363, 7.067841108778744 ], [ 79.970324772947578, 7.069159543850467 ], [ 79.971263693749606, 7.070719951230823 ], [ 79.971907286827687, 7.071930465516123 ], [ 79.972551252655322, 7.072925973783328 ], [ 79.97335696382504, 7.07373362838201 ], [ 79.97406874688123, 7.074406742154022 ], [ 79.9750091643009, 7.075107122059161 ], [ 79.976137862352459, 7.075834697889724 ], [ 79.977401081321361, 7.076562500884763 ], [ 79.978557195287479, 7.076994484667263 ], [ 79.979874870145892, 7.077346113254509 ], [ 79.981058029737966, 7.077697509857861 ], [ 79.98191839443858, 7.078021480227104 ], [ 79.982536582618735, 7.078371914378777 ], [ 79.982912639375854, 7.078721937495117 ], [ 79.983449662291065, 7.079340991239834 ], [ 79.984214547477549, 7.080444195028011 ], [ 79.985046331280657, 7.081762517659502 ], [ 79.986361388857816, 7.083672923835453 ], [ 79.987703814935458, 7.085314615044881 ], [ 79.988885007005081, 7.086848528434433 ], [ 79.991019134539741, 7.089674082313179 ], [ 79.991985429332971, 7.09101949774089 ], [ 79.992253614568597, 7.091530589122706 ], [ 79.992655916013021, 7.092283788106243 ], [ 79.993192831452646, 7.092983460764031 ], [ 79.993729613120848, 7.093763760339171 ], [ 79.996079172613648, 7.096509030044521 ], [ 79.997314633240933, 7.097801135005638 ], [ 79.998416069949428, 7.098797379247513 ], [ 79.999625310421635, 7.099686297103077 ], [ 80.001103471351939, 7.100656286686858 ], [ 80.002313213528041, 7.101249564317579 ], [ 80.003885598086754, 7.102192826436914 ], [ 80.006466311019651, 7.103514011582135 ], [ 80.007326389425131, 7.104052948627841 ], [ 80.008428262668161, 7.104807289876763 ], [ 80.009180591850509, 7.105426674418477 ], [ 80.009959518686045, 7.106234233320184 ], [ 80.010550110268099, 7.107041481989183 ], [ 80.01148959149802, 7.108386821638862 ], [ 80.012361813999235, 7.10973204968525 ], [ 80.014078927218875, 7.112691217223728 ], [ 80.01571543118888, 7.115596496754661 ], [ 80.016748806960337, 7.117130113828886 ], [ 80.018600854333897, 7.119874481628776 ], [ 80.01929857656198, 7.121004408335656 ], [ 80.020479610462644, 7.122753267335708 ], [ 80.023232198785351, 7.126036602907627 ], [ 80.024333192623118, 7.127382184693117 ], [ 80.025783502672297, 7.129023964568124 ], [ 80.026830783887902, 7.13031570296143 ], [ 80.027596719079256, 7.130881333622996 ], [ 80.028107473673188, 7.131177792224393 ], [ 80.02918318852312, 7.131528910673241 ], [ 80.030823952093996, 7.131880933229464 ], [ 80.033432984338646, 7.132476383127198 ], [ 80.03655313101028, 7.133153260889248 ], [ 80.037790387172208, 7.133450865270119 ], [ 80.03898715631648, 7.133829030560596 ], [ 80.039874367018555, 7.134287330853282 ], [ 80.040653694868709, 7.134906715475612 ], [ 80.041782351016977, 7.135822288500921 ], [ 80.043018301026564, 7.136953037456091 ], [ 80.043797552838257, 7.137626169695492 ], [ 80.044603332505247, 7.138541227734104 ], [ 80.04548954120186, 7.139644544098948 ], [ 80.046214816637743, 7.140425092574976 ], [ 80.047061136574044, 7.14123270637464 ], [ 80.04767925142589, 7.141717447163854 ], [ 80.048458729366814, 7.142256192524238 ], [ 80.04897047374044, 7.142593601091344 ], [ 80.049275308419567, 7.142723567491324 ], [ 80.049492109330501, 7.142870897713363 ], [ 80.050362841043238, 7.143761138357153 ], [ 80.051304881629804, 7.144580378772762 ], [ 80.052460091628362, 7.145666613680173 ], [ 80.053935460612379, 7.14689556530201 ], [ 80.054752978843339, 7.147679050771235 ], [ 80.055215245861334, 7.147999765891878 ], [ 80.056068683880198, 7.148578863022242 ], [ 80.056726296537263, 7.149184321418224 ], [ 80.057241189314098, 7.150002888852408 ], [ 80.05761377622342, 7.150767902598017 ], [ 80.057950490572225, 7.151710636467859 ], [ 80.058500903037768, 7.152582590694003 ], [ 80.059122168572017, 7.153676873932469 ], [ 80.05940637264932, 7.154050642939406 ], [ 80.059797233185463, 7.154513464633226 ], [ 80.060223802575663, 7.15490523085282 ], [ 80.060596810614541, 7.155403579619617 ], [ 80.061094550058741, 7.155813232659887 ], [ 80.061841037280658, 7.156507710363435 ], [ 80.062800635480102, 7.157513623272195 ], [ 80.063262753597215, 7.157940997088455 ], [ 80.063529191892044, 7.158296959115782 ], [ 80.063812936417278, 7.158972944533787 ], [ 80.063990297682921, 7.159382102181969 ], [ 80.064327413610684, 7.160075947058716 ], [ 80.064646649122182, 7.16082309709863 ], [ 80.064699198007361, 7.16137428364991 ], [ 80.064946512302043, 7.16259242964597 ], [ 80.065105638445459, 7.163286000740257 ], [ 80.065300199445318, 7.16408629185037 ], [ 80.065601502573102, 7.16492230202424 ], [ 80.06583144487692, 7.165864868197659 ], [ 80.066131970464596, 7.167207538782251 ], [ 80.066557271829225, 7.168434846230738 ], [ 80.066645422096059, 7.168986087296417 ], [ 80.066982042344762, 7.170008815998145 ], [ 80.06712364672012, 7.170524583752781 ], [ 80.067264978168737, 7.171218127152168 ], [ 80.067530415954536, 7.172231857703379 ], [ 80.067742264398575, 7.173369949316922 ], [ 80.067954741638246, 7.174099156834874 ], [ 80.068167314995037, 7.174766142812038 ], [ 80.06839797525322, 7.175246491529029 ], [ 80.068521809776513, 7.175744454226728 ], [ 80.06868135332364, 7.176171361128683 ], [ 80.068787470311918, 7.176615963830123 ], [ 80.069034649924973, 7.177931885319111 ], [ 80.069229548936732, 7.178518844712795 ], [ 80.069442016567919, 7.179256940633484 ], [ 80.069636671158833, 7.180003898053929 ], [ 80.069795617222823, 7.180821911256152 ], [ 80.069919481475694, 7.181302096178052 ], [ 80.070078946052689, 7.181782335516298 ], [ 80.070345320346703, 7.182191627805717 ], [ 80.070665040905354, 7.18263655671354 ], [ 80.071056044155966, 7.183028261471751 ], [ 80.071856015938479, 7.183705031866765 ], [ 80.073527615147057, 7.184765347428653 ], [ 80.074007921958014, 7.184961632111939 ], [ 80.075075311153327, 7.185372139911316 ], [ 80.076338451002485, 7.185818497490691 ], [ 80.078206398158557, 7.186532431391266 ], [ 80.079184780675988, 7.186951684496607 ], [ 80.079985336794394, 7.187255112762781 ], [ 80.080447661138393, 7.18757580758009 ], [ 80.0809634677058, 7.187843249623138 ], [ 80.081692449875888, 7.188395454394633 ], [ 80.082474513436722, 7.189161069787926 ], [ 80.082883172520752, 7.189659458286248 ], [ 80.083238404409784, 7.190175543902264 ], [ 80.083718026208189, 7.190834037282571 ], [ 80.084517643859058, 7.191768563909042 ], [ 80.084961855009681, 7.192302559552641 ], [ 80.085388266650327, 7.192836528197454 ], [ 80.086081074267426, 7.193779781463207 ], [ 80.08672058940185, 7.194651843565437 ], [ 80.087342386149444, 7.195470545501485 ], [ 80.087697760395656, 7.195897740309658 ], [ 80.088355228408062, 7.196672050263765 ], [ 80.089030725218606, 7.19729527615296 ], [ 80.089634861546415, 7.19802506091744 ], [ 80.090274415652814, 7.19887934145983 ], [ 80.09094946771296, 7.199804784790416 ], [ 80.092281924439632, 7.201557865691475 ], [ 80.092903951625061, 7.202234340532747 ], [ 80.093454908891104, 7.202821820943268 ], [ 80.094183560700912, 7.203622896152723 ], [ 80.094823684607803, 7.204103841123692 ], [ 80.095428102428656, 7.204655843276776 ], [ 80.095996919585332, 7.205207792153915 ], [ 80.09695692821974, 7.206053649597659 ], [ 80.097347869148336, 7.206516446167346 ], [ 80.097649332225643, 7.20729910903284 ], [ 80.097879985500484, 7.207815002040714 ], [ 80.098448652008955, 7.208473614367921 ], [ 80.098857397641723, 7.208936436136119 ], [ 80.099853061158001, 7.209755674503399 ], [ 80.100813413521408, 7.210379304452474 ], [ 80.102289549848265, 7.211314798181784 ], [ 80.10276976827096, 7.211599944601089 ], [ 80.103569994721468, 7.21217000187891 ], [ 80.104245509358066, 7.21281098661386 ], [ 80.105187943196697, 7.213523470815218 ], [ 80.105774532850432, 7.21411099075774 ], [ 80.106289788291591, 7.21478729474216 ], [ 80.106894130584351, 7.215410394784474 ], [ 80.107605218919304, 7.216078093674695 ], [ 80.108049532013652, 7.216576515692347 ], [ 80.108529190358894, 7.217252765899507 ], [ 80.109044375695518, 7.21798240045137 ], [ 80.109541528312178, 7.218872007905902 ], [ 80.110056510296346, 7.21974386307961 ], [ 80.110393735192531, 7.220437683054454 ], [ 80.111121889874141, 7.22162095634132 ], [ 80.111637238637059, 7.22224392249873 ], [ 80.111850009502675, 7.222830895279696 ], [ 80.11213434894951, 7.223169083231921 ], [ 80.112436490647468, 7.223507296770996 ], [ 80.112934298773069, 7.223952459081297 ], [ 80.11344978115585, 7.224486535107435 ], [ 80.114018387759998, 7.225216242333754 ], [ 80.114320480813035, 7.225590010232129 ], [ 80.114800272888019, 7.226186255643913 ], [ 80.11536949936567, 7.226489296662864 ], [ 80.115991363691066, 7.227325744944389 ], [ 80.117092989550812, 7.228785102552883 ], [ 80.118514140985582, 7.230884914872809 ], [ 80.119366743503264, 7.23221057815256 ], [ 80.120059525600198, 7.233260456534135 ], [ 80.120698852958924, 7.234345813221752 ], [ 80.121107287449163, 7.235057506732068 ], [ 80.121674964893216, 7.236453870752745 ], [ 80.122048001214949, 7.237023291105674 ], [ 80.122776807568442, 7.237788773615987 ], [ 80.123256762602622, 7.238287234491039 ], [ 80.12425245827302, 7.239159761528731 ], [ 80.125034502096184, 7.240049761027707 ], [ 80.12592304823977, 7.241162132567475 ], [ 80.126313946697323, 7.241696019925686 ], [ 80.127130796069252, 7.243154954347172 ], [ 80.127325868022993, 7.243688563627172 ], [ 80.127644612968467, 7.244889014201671 ], [ 80.128194757656985, 7.246116458697361 ], [ 80.128691824258354, 7.247112716683813 ], [ 80.128940307926356, 7.24764640099959 ], [ 80.129259588027978, 7.248473518435014 ], [ 80.129631635944975, 7.249754043384238 ], [ 80.129826486538917, 7.250447651556594 ], [ 80.130252499747911, 7.251337141410902 ], [ 80.130856494541888, 7.25226243750097 ], [ 80.13153196768603, 7.25300116702421 ], [ 80.131887652490306, 7.25326833453884 ], [ 80.133008319293054, 7.253927688741123 ], [ 80.133648855637645, 7.254195255301786 ], [ 80.134146717596408, 7.254640398667937 ], [ 80.134733371362174, 7.255245666101493 ], [ 80.136298429164725, 7.256403413838905 ], [ 80.136707628976481, 7.256599541704968 ], [ 80.137205882689926, 7.256769126957482 ], [ 80.138274151324268, 7.256717284525458 ], [ 80.139253999504334, 7.256238649325414 ], [ 80.140554179567189, 7.25584934598195 ], [ 80.142014598824588, 7.255451371941589 ], [ 80.143207561149296, 7.255346356965309 ], [ 80.144720857738307, 7.255330670070677 ], [ 80.145877820383561, 7.255510043446723 ], [ 80.146500613908913, 7.255742012619277 ], [ 80.147194302447204, 7.256205190159472 ], [ 80.147799172030858, 7.2565260221678 ], [ 80.148599536135833, 7.257096011242427 ], [ 80.149115477051694, 7.257354497258356 ], [ 80.150023176800502, 7.257551296715737 ], [ 80.150949021952727, 7.257499229535394 ], [ 80.151981905847705, 7.257287305965073 ], [ 80.153317833395732, 7.256791347147279 ], [ 80.154368724225961, 7.256428330728152 ], [ 80.155116607138226, 7.256322679381687 ], [ 80.155793059144727, 7.256376930605576 ], [ 80.156522752248819, 7.256555697918128 ], [ 80.157412265813122, 7.257036903830056 ], [ 80.1585150603279, 7.257785064036201 ], [ 80.159617978758561, 7.258444332693775 ], [ 80.161325653119007, 7.259522192090876 ], [ 80.161930658257162, 7.259754117263515 ], [ 80.162767252330767, 7.259879685099191 ], [ 80.163390444478324, 7.259827186840236 ], [ 80.164530437036461, 7.259402043645409 ], [ 80.166365877886989, 7.258142264448699 ], [ 80.167934389072272, 7.256784343808492 ], [ 80.1692534676164, 7.255559420430471 ], [ 80.170358475358611, 7.25465421152803 ], [ 80.17139141793028, 7.254388908880249 ], [ 80.173741835096308, 7.254098672540675 ], [ 80.174418194610325, 7.254224007472735 ], [ 80.17527223618049, 7.254616243425088 ], [ 80.17625031823421, 7.255453088420539 ], [ 80.177121630529356, 7.256254235993937 ], [ 80.178135512764726, 7.256948900904756 ], [ 80.179274173219497, 7.25752817003574 ], [ 80.180484317382565, 7.257903083412825 ], [ 80.181623365855202, 7.258189011675022 ], [ 80.182726600972927, 7.258634892173138 ], [ 80.183918671203884, 7.259223108666254 ], [ 80.185075241367386, 7.259731275643104 ], [ 80.186107408045672, 7.260070388966655 ], [ 80.18706794901037, 7.260729410886102 ], [ 80.187957095113049, 7.261530562763359 ], [ 80.189183872518328, 7.26282992923737 ], [ 80.189877094637268, 7.263701938188414 ], [ 80.190019295544957, 7.263879900022915 ] ] } },
{ "type": "Feature", "properties": { }, "geometry": { "type": "LineString", "coordinates": [ [ 79.998559386288932, 6.427331211449682 ], [ 80.000210805453165, 6.430612638806864 ], [ 80.00050647292224, 6.431101436724108 ], [ 80.000628232411827, 6.431293472899307 ], [ 80.000784652821565, 6.431625090444999 ], [ 80.00088863538403, 6.432043834627962 ], [ 80.000991908619255, 6.432933488572932 ], [ 80.000990594649366, 6.433805543681402 ], [ 80.000849532487322, 6.434851799395227 ], [ 80.000699988357411, 6.435741071917703 ], [ 80.000489813205277, 6.43636863572632 ], [ 80.000017417202343, 6.437449272886522 ], [ 79.999142335367296, 6.439628091643455 ], [ 79.998540894855964, 6.441005030502085 ], [ 79.996703349594341, 6.445471531124005 ], [ 79.994176994176698, 6.451397663008447 ], [ 79.992722149896764, 6.454970866455733 ], [ 79.99171585958679, 6.457389278030494 ], [ 79.98921113566675, 6.463337203169798 ], [ 79.986793631050489, 6.469219838341476 ], [ 79.984747949283431, 6.474230977801599 ], [ 79.984507246075566, 6.474841041516409 ], [ 79.984353693259308, 6.475473041451155 ], [ 79.984232631582984, 6.476235899503671 ], [ 79.984275379346371, 6.476780998431587 ], [ 79.984662644778226, 6.480051794755258 ], [ 79.984834718491186, 6.481534550315394 ], [ 79.984888364900428, 6.482079666120685 ], [ 79.984887013142426, 6.482951716182693 ], [ 79.9847984073254, 6.483867233486332 ], [ 79.984840580636046, 6.484782953610481 ], [ 79.984751602019429, 6.485938284514452 ], [ 79.984597537042262, 6.486897302577033 ], [ 79.984301318595683, 6.488161317870301 ], [ 79.983818300952805, 6.490406100569768 ], [ 79.983269310460244, 6.493021401312958 ], [ 79.982248005779368, 6.497990502447837 ], [ 79.982006570895578, 6.499058388359652 ], [ 79.981709722931171, 6.500714821842912 ], [ 79.981664699088952, 6.501630404965103 ], [ 79.981707204649751, 6.502328112024439 ], [ 79.982161172520819, 6.504748762018847 ], [ 79.982906927486354, 6.508761360206304 ], [ 79.983101337536382, 6.509895329775571 ], [ 79.983198304673124, 6.510614923079821 ], [ 79.983219149962821, 6.511225391219836 ], [ 79.983087274759257, 6.511922826019589 ], [ 79.982605748991404, 6.513186547498203 ], [ 79.981664214312758, 6.515888431781296 ], [ 79.979792180282772, 6.521183201726737 ], [ 79.977657627858591, 6.527044377382532 ], [ 79.976312072372323, 6.53018163137012 ], [ 79.975305583851252, 6.532556373382702 ], [ 79.973128599609467, 6.537610803790379 ], [ 79.971388969673853, 6.541772066347661 ], [ 79.970535648254369, 6.543754614808764 ], [ 79.969343109879006, 6.546565063841222 ], [ 79.968664896278568, 6.548090062002547 ], [ 79.968248792942745, 6.549288460602487 ], [ 79.967799953394575, 6.550508607314841 ], [ 79.967405819366775, 6.551598034018202 ], [ 79.966924590419254, 6.552621917086449 ], [ 79.966377890924122, 6.553689296679507 ], [ 79.96611538750048, 6.554255705258269 ], [ 79.965983960564643, 6.554647914906173 ], [ 79.965895817478469, 6.555236404294428 ], [ 79.965927396752704, 6.555934091602927 ], [ 79.966078698845337, 6.556740976872709 ], [ 79.96627325060031, 6.557765943004649 ], [ 79.966358979373311, 6.55868172867772 ], [ 79.966248545579845, 6.559575398201845 ], [ 79.966084242116906, 6.560076560540178 ], [ 79.965930627996471, 6.560708546788903 ], [ 79.965687501030914, 6.562779264083925 ], [ 79.965574469456271, 6.565286212826197 ], [ 79.965365405029445, 6.566506739840859 ], [ 79.965123779500715, 6.567640009642632 ], [ 79.964948395715382, 6.568250158794386 ], [ 79.96486031733005, 6.56879504509037 ], [ 79.964705924817977, 6.569906653747713 ], [ 79.96461735369769, 6.570756754853059 ], [ 79.964342354864669, 6.572304191131495 ], [ 79.964100968917975, 6.573284852121881 ], [ 79.9638600041053, 6.574003900110227 ], [ 79.963487531932287, 6.575158757783797 ], [ 79.963027785464078, 6.576357076063125 ], [ 79.962229634753982, 6.577860061513999 ], [ 79.961289527784174, 6.579515422659764 ], [ 79.960568446407848, 6.580538904889464 ], [ 79.959934989426998, 6.581300914905793 ], [ 79.959563528295703, 6.581823537671878 ], [ 79.95930106982695, 6.582346337235703 ], [ 79.959071382723138, 6.582825587709487 ], [ 79.958961528271928, 6.583348635078837 ], [ 79.95900399517248, 6.584046338810086 ], [ 79.959133487991366, 6.584853189492692 ], [ 79.959350255335124, 6.585616579924621 ], [ 79.959283576424895, 6.586401310480212 ], [ 79.959173047071886, 6.587338577205481 ], [ 79.958996759426725, 6.588493747594859 ], [ 79.95861155016398, 6.590760432433777 ], [ 79.958127626716745, 6.593397573619616 ], [ 79.958017803160246, 6.593898819146403 ], [ 79.957831532822155, 6.594487144179205 ], [ 79.957350518142121, 6.595336600799247 ], [ 79.95647583134182, 6.596948450499707 ], [ 79.955557285866988, 6.598712833468393 ], [ 79.95405942098391, 6.601435509738841 ], [ 79.953250903654521, 6.602567836580485 ], [ 79.952879238417182, 6.603199455988451 ], [ 79.952267360172556, 6.604070491288494 ], [ 79.952026717453592, 6.604571519076003 ], [ 79.951829569841507, 6.605138021350964 ], [ 79.951206355248942, 6.606270648376016 ], [ 79.950506831505862, 6.60740314838384 ], [ 79.949632710084799, 6.608644363767623 ], [ 79.949348314400595, 6.609232521360584 ], [ 79.949041972007464, 6.609907846461567 ], [ 79.948844926417081, 6.610408943912712 ], [ 79.948735304237204, 6.610779379765466 ], [ 79.948505014056096, 6.611607437061404 ], [ 79.948285623923951, 6.61243551216824 ], [ 79.947913402413391, 6.613394140017186 ], [ 79.947410041917038, 6.614548759048072 ], [ 79.947059727232741, 6.615442019108636 ], [ 79.946600581451065, 6.616226093225703 ], [ 79.946097829841449, 6.617010094325335 ], [ 79.945561974760849, 6.618033850490579 ], [ 79.945277567814102, 6.61862200427305 ], [ 79.944818669753403, 6.619253469526249 ], [ 79.944490402572427, 6.619994156485921 ], [ 79.943746655662594, 6.621475384039488 ], [ 79.943199307145278, 6.622847932590098 ], [ 79.94281561901947, 6.624133549376981 ], [ 79.942464996328624, 6.625201211182424 ], [ 79.94204838140675, 6.626617577553832 ], [ 79.94128186428847, 6.62866558555639 ], [ 79.941051586620915, 6.629471835349468 ], [ 79.94067875071849, 6.630779267951779 ], [ 79.940481138281839, 6.631607372821636 ], [ 79.939603761436743, 6.63474523710503 ], [ 79.938892091650374, 6.636575320722128 ], [ 79.937884167344606, 6.63953855223845 ], [ 79.937227394297139, 6.641128913791395 ], [ 79.936252925157817, 6.64363437635367 ], [ 79.935836528718809, 6.644898126396463 ], [ 79.935419945634635, 6.646270879965952 ], [ 79.935200438152052, 6.647142545183415 ], [ 79.934421990679056, 6.649757336619262 ], [ 79.934137290015357, 6.650498085162647 ], [ 79.933568698596915, 6.651499963203347 ], [ 79.933131185241294, 6.652349456304552 ], [ 79.93271543691634, 6.653220786614288 ], [ 79.932354344249163, 6.65400500561922 ], [ 79.932135307740126, 6.654593257508608 ], [ 79.931828648208366, 6.655421170022991 ], [ 79.931500480216286, 6.656074638659317 ], [ 79.930778321774412, 6.657621272455104 ], [ 79.930406505797393, 6.658296466545213 ], [ 79.930034205859414, 6.659255070596027 ], [ 79.929716785776336, 6.659995759083966 ], [ 79.929081793615481, 6.661564338186452 ], [ 79.92864392694311, 6.662610031988335 ], [ 79.927987197553819, 6.66413496986907 ], [ 79.927570868862617, 6.6653333047505 ], [ 79.92723126296741, 6.666291960985642 ], [ 79.926727825044878, 6.667424743030604 ], [ 79.926071455503731, 6.668731668833907 ], [ 79.925852515265021, 6.669254513525294 ], [ 79.925720941473003, 6.669690304550348 ], [ 79.925436549833492, 6.670234837530617 ], [ 79.924911036358623, 6.671520184417779 ], [ 79.924374804916695, 6.672696507830628 ], [ 79.923915261400467, 6.673654953981408 ], [ 79.923281016832149, 6.674765704526846 ], [ 79.922777671907028, 6.675833077685247 ], [ 79.922143008005193, 6.677183634119606 ], [ 79.921814885109782, 6.677793490817219 ], [ 79.921235630817577, 6.678620921783875 ], [ 79.920318287866365, 6.679513170026356 ], [ 79.919248043950546, 6.680557757026413 ], [ 79.918483667593222, 6.681254058602465 ], [ 79.918112343227463, 6.681624028430423 ], [ 79.917828048615206, 6.682103152692309 ], [ 79.917433745361663, 6.683148905970485 ], [ 79.917236252374593, 6.683867988733772 ], [ 79.916962365612051, 6.684630540233143 ], [ 79.91674352065715, 6.685087976329474 ], [ 79.916524940476165, 6.68539280735836 ], [ 79.916065974268179, 6.68600243112274 ], [ 79.915104352266724, 6.687265202351733 ], [ 79.914601620293183, 6.687961951078517 ], [ 79.913945718683166, 6.688963642553398 ], [ 79.913464331731603, 6.689922035804153 ], [ 79.913103137875382, 6.690728032939678 ], [ 79.912621747210466, 6.691686424867413 ], [ 79.912031289955138, 6.692666426101828 ], [ 79.911572158150847, 6.693363246570599 ], [ 79.91061016505634, 6.694822211250636 ], [ 79.910194716257621, 6.695475504947376 ], [ 79.909811744921342, 6.69625965940377 ], [ 79.908367336682517, 6.69924382127162 ], [ 79.907798090722821, 6.700550862747577 ], [ 79.907228994955886, 6.701770700574634 ], [ 79.906955003029424, 6.702576843950827 ], [ 79.90667037619113, 6.703230363428271 ], [ 79.906342329252155, 6.703774802634215 ], [ 79.905598625013425, 6.705081532357659 ], [ 79.905204888455486, 6.705778459311249 ], [ 79.904985982749196, 6.706257687788132 ], [ 79.904766845367419, 6.706867719769981 ], [ 79.904481248720458, 6.708066252429779 ], [ 79.904360313535861, 6.708632856250055 ], [ 79.904315081784191, 6.709548404685183 ], [ 79.904246346002964, 6.711423141156738 ], [ 79.904266955910856, 6.712098998503238 ], [ 79.904353022738121, 6.712753170965464 ], [ 79.90440645762709, 6.713363684353541 ], [ 79.904340267290678, 6.713799580698002 ], [ 79.904186658986475, 6.714344325650215 ], [ 79.903923826050018, 6.714997880478792 ], [ 79.903289667540335, 6.71599958782188 ], [ 79.9016058593417, 6.718656280744994 ], [ 79.901376078506672, 6.719113686210764 ], [ 79.900785676827994, 6.72002826398352 ], [ 79.900260653410612, 6.720964757722533 ], [ 79.899604594487656, 6.722010020410591 ], [ 79.898838683018752, 6.723512899256068 ], [ 79.89831322336326, 6.724689195966717 ], [ 79.897623392544915, 6.726323011244047 ], [ 79.897097536257874, 6.727717311239805 ], [ 79.896658786724601, 6.729177167906438 ], [ 79.896133158040385, 6.730440662712601 ], [ 79.895530459307111, 6.73211822994512 ], [ 79.895070362064715, 6.73331643832866 ], [ 79.894938854929038, 6.733686812693197 ], [ 79.894763381260233, 6.734253313507492 ], [ 79.894456085779353, 6.73536459252586 ], [ 79.894214875991409, 6.736105379696999 ], [ 79.893809170963564, 6.73736908528392 ], [ 79.893480259407696, 6.738371321220042 ], [ 79.893020110261489, 6.739591326466001 ], [ 79.89264777681268, 6.740484480295844 ], [ 79.892428800329057, 6.740985499396481 ], [ 79.892319056501918, 6.741377712201936 ], [ 79.892165697750244, 6.7417698463699 ], [ 79.891990413426399, 6.742227342673156 ], [ 79.891607329185234, 6.743033273445273 ], [ 79.891103554753556, 6.744253196818732 ], [ 79.890796832713562, 6.745037463733492 ], [ 79.890599344147631, 6.745712924744814 ], [ 79.890401539665646, 6.746562789527369 ], [ 79.890269984848985, 6.746954962001925 ], [ 79.89005037141655, 6.747804787059711 ], [ 79.88980946217896, 6.74837116610619 ], [ 79.889469904817958, 6.749220773739914 ], [ 79.889228836111116, 6.749874354228166 ], [ 79.889119126359674, 6.750244765089763 ], [ 79.888965919440153, 6.750549695492333 ], [ 79.888485003418808, 6.75118104051387 ], [ 79.888178666952598, 6.751747299686448 ], [ 79.887872369268209, 6.752291758081548 ], [ 79.887718962990263, 6.752705690244595 ], [ 79.887565239821427, 6.753294026077156 ], [ 79.886917670247357, 6.755625508441307 ], [ 79.886522986839225, 6.75680202036269 ], [ 79.88617255189817, 6.757629803624906 ], [ 79.885975010108865, 6.75832706137241 ], [ 79.885701218702081, 6.758980579177048 ], [ 79.885525999708378, 6.759394470332407 ], [ 79.885306806712279, 6.760004486050819 ], [ 79.885153116987766, 6.760571019820754 ], [ 79.884999903653622, 6.760875948101389 ], [ 79.884824722947442, 6.761268038361504 ], [ 79.884627693973869, 6.761681889226298 ], [ 79.884386372102142, 6.762466267989225 ], [ 79.884254607796237, 6.762967439610451 ], [ 79.88379476368803, 6.763991224963702 ], [ 79.883061316965126, 6.765559522598618 ], [ 79.882645323384665, 6.766452583201614 ], [ 79.882295032672701, 6.767193159874294 ], [ 79.882141216495143, 6.767825093048669 ], [ 79.881987040573776, 6.768653229919779 ], [ 79.881898129860417, 6.769568688064765 ], [ 79.88188279306803, 6.771988514877449 ], [ 79.882034335414218, 6.772599206113352 ], [ 79.882251703466366, 6.772992012868936 ], [ 79.882272833355316, 6.77336265994821 ], [ 79.882272274313593, 6.773667865845486 ], [ 79.88205358793347, 6.773994472915454 ], [ 79.881376037979592, 6.774799850003761 ], [ 79.880393002397028, 6.775691867369765 ], [ 79.879617427701987, 6.776431659979597 ], [ 79.878874443625676, 6.777236912339029 ], [ 79.87837143519063, 6.77799900379807 ], [ 79.87791216341877, 6.778695773613041 ], [ 79.877583422549222, 6.779567186891625 ], [ 79.8771453539037, 6.780591001523819 ], [ 79.877035424250039, 6.781070408998572 ], [ 79.876947263153795, 6.781571657001846 ], [ 79.876673483305524, 6.782203365424792 ], [ 79.876541542312168, 6.782791734320647 ], [ 79.87638738923215, 6.783598066661906 ], [ 79.876189174149076, 6.784644122472304 ], [ 79.87605690928126, 6.785406894012332 ], [ 79.875639914409888, 6.786823152851972 ], [ 79.875420249122982, 6.787672964229547 ], [ 79.875124290494227, 6.788500833871595 ], [ 79.874750907972739, 6.789917171726699 ], [ 79.874157650206769, 6.792292320796871 ], [ 79.873959586088475, 6.793251172814157 ], [ 79.87381648973286, 6.793970321792774 ], [ 79.873617574389897, 6.795386980772967 ], [ 79.873331620866523, 6.7966944758948 ], [ 79.872979993077195, 6.798132651204414 ], [ 79.872223502383463, 6.800311287884909 ], [ 79.871829383434175, 6.801138970952647 ], [ 79.87161010768105, 6.801770775049224 ], [ 79.871259118928563, 6.802860142388115 ], [ 79.870952032695754, 6.803796988149079 ], [ 79.870634202601792, 6.804646611920322 ], [ 79.869627156023967, 6.806672171629835 ], [ 79.869276443014755, 6.807608934070083 ], [ 79.86877138611392, 6.809439223590194 ], [ 79.868079998351547, 6.811770572305959 ], [ 79.867158939051279, 6.814450294904798 ], [ 79.866643571925309, 6.81595355492613 ], [ 79.866533415030815, 6.816541958339097 ], [ 79.866248282097047, 6.817391637977579 ], [ 79.865919158265925, 6.818437437986637 ], [ 79.86565583341303, 6.819287157841474 ], [ 79.865305223613262, 6.820158513857089 ], [ 79.864965271755437, 6.821160691553723 ], [ 79.864635567336137, 6.822511693617827 ], [ 79.86415330759344, 6.823797007155115 ], [ 79.863977178168923, 6.824668689495869 ], [ 79.863799445799913, 6.826390581924239 ], [ 79.86365586634507, 6.827349526493424 ], [ 79.863282529654185, 6.828700444087552 ], [ 79.863040550965636, 6.82979000470278 ], [ 79.862886556319054, 6.830487324977424 ], [ 79.862819723580301, 6.831228410178491 ], [ 79.862795689717203, 6.832405582628349 ], [ 79.862869682742129, 6.833648340917687 ], [ 79.862999233361052, 6.834346195808816 ], [ 79.863172818609684, 6.834826130475094 ], [ 79.863411673708072, 6.83539338952265 ], [ 79.863672258424756, 6.836004290147257 ], [ 79.863823992169429, 6.836505983835804 ], [ 79.863866421932286, 6.837138273427535 ], [ 79.863799094583086, 6.838140961662642 ], [ 79.863435416295019, 6.840145905737139 ], [ 79.863279851449931, 6.841671634823182 ], [ 79.86314436563957, 6.844113015032742 ], [ 79.862998342033066, 6.846358172004924 ], [ 79.86279836336206, 6.848298022145135 ], [ 79.862555335874731, 6.849932586043652 ], [ 79.862170361980773, 6.851654082074702 ], [ 79.861818268191556, 6.853288438372171 ], [ 79.861531649481464, 6.854901117767612 ], [ 79.86120218971125, 6.856099509744481 ], [ 79.860817203232486, 6.857821002960389 ], [ 79.860640301672362, 6.85908508427234 ], [ 79.86037424211996, 6.861351809337894 ], [ 79.860351268879171, 6.861962173782185 ], [ 79.860207662653593, 6.862921113607036 ], [ 79.859944251864107, 6.863792624434648 ], [ 79.859745074505895, 6.865296465273274 ], [ 79.859326230549087, 6.867606498088505 ], [ 79.858895518517585, 6.870417913441575 ], [ 79.858608997119589, 6.871965186742422 ], [ 79.858344577639244, 6.873359899809525 ], [ 79.857893994663442, 6.875146662003027 ], [ 79.857542483930061, 6.876454006683053 ], [ 79.857345081157717, 6.87702043644019 ], [ 79.857169574503303, 6.877543307366553 ], [ 79.857103050484966, 6.878109986903584 ], [ 79.856969709706519, 6.879395947054015 ], [ 79.856409336112648, 6.881553100307355 ], [ 79.855662579633133, 6.884211300670485 ], [ 79.855288988448734, 6.885649400680047 ], [ 79.855166419374271, 6.88700078037416 ], [ 79.85494543603383, 6.888482772536125 ], [ 79.854659176788729, 6.889877438147691 ], [ 79.854230999361647, 6.891337231476992 ], [ 79.854032703872861, 6.892361461200514 ], [ 79.853878244911854, 6.893276773802074 ], [ 79.85363606753036, 6.894431720049913 ], [ 79.853372536311554, 6.895346822522735 ], [ 79.853043813542456, 6.896130997971968 ], [ 79.85248478027377, 6.897568735931516 ], [ 79.852484275881295, 6.8978303374827 ], [ 79.852396514736114, 6.898091770981718 ], [ 79.852330483582222, 6.898396846723071 ], [ 79.851891338994392, 6.899878414590605 ], [ 79.85154066922469, 6.900727946429681 ], [ 79.851343245801118, 6.90129437086828 ], [ 79.851210970056627, 6.902013522236063 ], [ 79.851012197292548, 6.903277550058396 ], [ 79.85072646024075, 6.904388808312163 ], [ 79.850243800371828, 6.905804888316204 ], [ 79.850057279843782, 6.906371332700168 ], [ 79.849727570877818, 6.907656906131669 ], [ 79.849617315490832, 6.908267098006225 ], [ 79.849332119977973, 6.909094953078135 ], [ 79.848783836200141, 6.910598103830376 ], [ 79.848498510467522, 6.911491358219797 ], [ 79.848135900507089, 6.912864066185043 ], [ 79.848047413558845, 6.913496099517229 ], [ 79.847784153050455, 6.914258594760305 ], [ 79.847477092216948, 6.915108205376814 ], [ 79.847235517406901, 6.915936142608869 ], [ 79.847037995585922, 6.916546163539535 ], [ 79.846949378658508, 6.917243596525082 ], [ 79.846980871385313, 6.917875862309991 ], [ 79.847110871230996, 6.918333918184069 ], [ 79.847371634696543, 6.918857628504961 ], [ 79.84774168623251, 6.919272550140972 ], [ 79.848656863074723, 6.919819330237929 ], [ 79.849288614019315, 6.92027835882177 ], [ 79.849658795289045, 6.920627879031626 ], [ 79.8498545822534, 6.920911660650158 ], [ 79.849941124120463, 6.921282431267441 ], [ 79.849982978181089, 6.922198119623251 ], [ 79.849970166964155, 6.923179102556022 ], [ 79.849881043969887, 6.924138137354439 ], [ 79.849770824470042, 6.924726528283244 ], [ 79.849529458084064, 6.925445465803767 ], [ 79.849091624687347, 6.926229422364696 ], [ 79.848632101411894, 6.926947935720946 ], [ 79.848019486255325, 6.927862352359434 ], [ 79.847669334454579, 6.928428475786812 ], [ 79.84695795043551, 6.929647900536313 ], [ 79.846542008957869, 6.930388295874353 ], [ 79.846388576797224, 6.930758599551379 ], [ 79.846300591358045, 6.931129030613238 ], [ 79.846321258885041, 6.931717674724223 ], [ 79.846451004950424, 6.932306531292211 ], [ 79.846755404745508, 6.932830327567334 ], [ 79.847147323216205, 6.93322349321314 ], [ 79.847604987039446, 6.933464185505528 ], [ 79.848280851719949, 6.93368350155921 ], [ 79.848782614956306, 6.933684476879589 ], [ 79.850484713137007, 6.933447979621915 ], [ 79.851903501051538, 6.933058326259409 ], [ 79.852470965007527, 6.932928623755125 ], [ 79.852674955948743, 6.932896397381575 ], [ 79.853561187624123, 6.932682796877376 ], [ 79.85413614035248, 6.932492517254209 ], [ 79.855046774176699, 6.932039722578853 ], [ 79.855550318835085, 6.931633988734182 ], [ 79.856222048939102, 6.930917568405357 ], [ 79.856917671699904, 6.930225116682712 ], [ 79.857852746557739, 6.929509200344243 ], [ 79.859099370778054, 6.928626413074405 ], [ 79.859986144373579, 6.928125713737027 ], [ 79.860776786030485, 6.927816219286482 ], [ 79.861471159256155, 6.927769701725731 ], [ 79.862548263611941, 6.927891382518795 ], [ 79.863457554578687, 6.928132359766331 ], [ 79.864366892406267, 6.928349411587571 ], [ 79.865324158586247, 6.928542629270172 ], [ 79.866460753786157, 6.928855806283358 ], [ 79.867656883908182, 6.929336561442212 ], [ 79.868900853057141, 6.929841328698304 ], [ 79.870048970566998, 6.930393759018282 ], [ 79.87184299799668, 6.931210574030569 ], [ 79.873206456193998, 6.931835177243162 ], [ 79.874163418266619, 6.932195845557096 ], [ 79.874522488745626, 6.932220447815293 ], [ 79.874905726511258, 6.932125475626411 ], [ 79.875576979820778, 6.931648263041803 ], [ 79.876716345184789, 6.93050206008941 ], [ 79.877796213229487, 6.929164349872774 ], [ 79.878084540351679, 6.92861464046868 ], [ 79.878325480344685, 6.927801677858509 ], [ 79.878470160909771, 6.927251698017183 ], [ 79.878710379248844, 6.926821517495883 ], [ 79.879070256077497, 6.926415485465862 ], [ 79.879334279265677, 6.926057121171567 ], [ 79.879622557438068, 6.925531334201408 ], [ 79.87974320492097, 6.925029156562742 ], [ 79.880115992987157, 6.924120743591719 ], [ 79.880428074868476, 6.923666772471318 ], [ 79.880763962138317, 6.923284617676878 ], [ 79.881003817196898, 6.923045826804372 ], [ 79.881459182437538, 6.922783515161038 ], [ 79.881698857609535, 6.922640419580794 ], [ 79.882010802538744, 6.922258218874615 ], [ 79.882203312814113, 6.921732250486778 ], [ 79.882300373904698, 6.921038635395703 ], [ 79.882205597057322, 6.920512129798375 ], [ 79.881848326195978, 6.919530577060693 ], [ 79.881777311195634, 6.919099811950409 ], [ 79.881825863983735, 6.918741042456207 ], [ 79.882030118829135, 6.918334715966488 ], [ 79.88265422487838, 6.917450693202993 ], [ 79.883326566755343, 6.916375367064309 ], [ 79.883759145419688, 6.915490984782356 ], [ 79.884047634409185, 6.914845573690676 ], [ 79.88421615362509, 6.914343482982757 ], [ 79.884337015217895, 6.913721683174191 ], [ 79.88433799711585, 6.913195356129535 ], [ 79.884124276580295, 6.912261920400486 ], [ 79.883517064016715, 6.910514333998107 ], [ 79.883303211694965, 6.909652670009234 ], [ 79.883160911777736, 6.908934683621651 ], [ 79.882923165248627, 6.908049051005267 ], [ 79.882565452108963, 6.907306738824957 ], [ 79.882064771622396, 6.906205299252405 ], [ 79.881563154101144, 6.905606262285146 ], [ 79.881025717722224, 6.904959309983565 ], [ 79.880619637717871, 6.904480070861635 ], [ 79.880357196513557, 6.904001099954155 ], [ 79.880166619508586, 6.903498339264372 ], [ 79.880023698173531, 6.903115287745327 ], [ 79.87966594776762, 6.902396898232668 ], [ 79.879284169161252, 6.901726311658357 ], [ 79.879093459498947, 6.901295322559351 ], [ 79.879070192216275, 6.900936418749624 ], [ 79.879047552296015, 6.900242579854361 ], [ 79.878857694791463, 6.899357035979468 ], [ 79.878608930555615, 6.897968977480333 ], [ 79.878515324458021, 6.896820449445687 ], [ 79.878541728295374, 6.895504677748131 ], [ 79.878664694377193, 6.893758454108775 ], [ 79.878786405111498, 6.892682100559405 ], [ 79.878944963469749, 6.891103411139076 ], [ 79.879236257743329, 6.888950792576018 ], [ 79.879454569452378, 6.887420062010877 ], [ 79.879695075084754, 6.886822409921649 ], [ 79.88000708364541, 6.886392359248545 ], [ 79.880833908943856, 6.885891495583368 ], [ 79.881720579485773, 6.885390741648445 ], [ 79.882175994874402, 6.885080576299517 ], [ 79.882559860737302, 6.884626733087767 ], [ 79.882728099559259, 6.884268184964519 ], [ 79.882873111609982, 6.883526808631985 ], [ 79.882970601825448, 6.88259395140414 ], [ 79.882974116749665, 6.880703957012203 ], [ 79.882963304104052, 6.880081911278609 ], [ 79.883036364912499, 6.879412173146957 ], [ 79.883301910796561, 6.878216462774282 ], [ 79.883542761238701, 6.87742741541065 ], [ 79.883663608163758, 6.876805613737833 ], [ 79.883808037646787, 6.876375248289669 ], [ 79.884095918940801, 6.876040844989252 ], [ 79.884575306034279, 6.875706796275908 ], [ 79.884887169000891, 6.875348512713001 ], [ 79.885151465382364, 6.874822672257058 ], [ 79.885714988788635, 6.874297385178661 ], [ 79.886793403377766, 6.873653428291132 ], [ 79.88847031355192, 6.872986648325997 ], [ 79.888925624251598, 6.872724322381529 ], [ 79.88959655421543, 6.872366696544054 ], [ 79.890075669710015, 6.872176185515564 ], [ 79.890769875726207, 6.872177462457442 ], [ 79.892134086161505, 6.872323513670064 ], [ 79.892684619855288, 6.872348448210962 ], [ 79.893163646651914, 6.872205782051577 ], [ 79.893954351916349, 6.871800520931829 ], [ 79.895164455172917, 6.871132860091966 ], [ 79.896793734319431, 6.870322416258182 ], [ 79.898111857413241, 6.869487474957656 ], [ 79.899573778611298, 6.868557094367077 ], [ 79.900341101331321, 6.86784076428061 ], [ 79.901180800966486, 6.866813549591021 ], [ 79.90209278836484, 6.86552329785887 ], [ 79.902536680992171, 6.86494992176664 ], [ 79.903064485052099, 6.864304924466147 ], [ 79.903472295206143, 6.863827178680609 ], [ 79.903903695686353, 6.863540868809882 ], [ 79.904598497862125, 6.863207186225374 ], [ 79.905173394025454, 6.862992907041556 ], [ 79.906059437511544, 6.86280311285483 ], [ 79.907017466463174, 6.862517749760881 ], [ 79.907664131165618, 6.86232752092693 ], [ 79.908430484219124, 6.862137506521009 ], [ 79.909723123048849, 6.862139830566431 ], [ 79.911015590453985, 6.862237847841236 ], [ 79.911470579953686, 6.862142966797077 ], [ 79.912129297820869, 6.861904904736742 ], [ 79.912656528993452, 6.861570909241556 ], [ 79.912968362708156, 6.861212603380523 ], [ 79.913160421658887, 6.860901931531734 ], [ 79.913664912359906, 6.859898014329638 ], [ 79.914169486318102, 6.858846247882028 ], [ 79.91443331347773, 6.858559627765271 ], [ 79.91472099238959, 6.858320898594678 ], [ 79.915152552978924, 6.85793888024545 ], [ 79.915392740495363, 6.857484747265347 ], [ 79.915970187257528, 6.855835000686763 ], [ 79.915982796150274, 6.855476158758847 ], [ 79.915911666598774, 6.855093243332159 ], [ 79.915792704951528, 6.854686318371906 ], [ 79.915745513004225, 6.854303445595254 ], [ 79.915818221401977, 6.853801164990749 ], [ 79.915938462978033, 6.853490363387945 ], [ 79.916202157896009, 6.853275514392148 ], [ 79.916825083320774, 6.852965607388856 ], [ 79.917375812706609, 6.852870889832404 ], [ 79.918117998158507, 6.852800436123806 ], [ 79.918812521416271, 6.85261027506979 ], [ 79.919387187619591, 6.852515597599137 ], [ 79.919937746497453, 6.852516573959936 ], [ 79.920655824464177, 6.852541770778576 ], [ 79.921158593648798, 6.852494812437577 ], [ 79.921685639120128, 6.852256501854066 ], [ 79.922740278754475, 6.851468863344131 ], [ 79.924394613753762, 6.849964549282149 ], [ 79.925521140135089, 6.849129181442146 ], [ 79.926899297698753, 6.848126782131065 ], [ 79.927761834662974, 6.847673733971863 ], [ 79.928408935924381, 6.847220306263599 ], [ 79.929224183273362, 6.846432230812973 ], [ 79.929655722065718, 6.84605019649905 ], [ 79.930254652027301, 6.845764152170784 ], [ 79.930901246113862, 6.845597812309575 ], [ 79.931547630671176, 6.845551093139946 ], [ 79.932241889338471, 6.845504456641741 ], [ 79.932696860844089, 6.845409552951333 ], [ 79.933199789852068, 6.845266883600618 ], [ 79.933678489454422, 6.845291642344501 ], [ 79.934372539440275, 6.845364624412289 ], [ 79.934898863477116, 6.845533011365395 ], [ 79.935664017704838, 6.846012830505144 ], [ 79.936489473980387, 6.846229584661505 ], [ 79.936992112244724, 6.846254381807539 ], [ 79.937495041438382, 6.846111707930898 ], [ 79.937997762800691, 6.846088655294328 ], [ 79.9392663897315, 6.846114777403426 ], [ 79.940008399863473, 6.846139985694135 ], [ 79.94096543088618, 6.846404808868497 ], [ 79.941898484655283, 6.846693513344559 ], [ 79.94292732986699, 6.846958456789091 ], [ 79.943908508161712, 6.847103693759601 ], [ 79.944434962256992, 6.847200297702406 ], [ 79.944913418606902, 6.847368591976141 ], [ 79.945332032216513, 6.847536782970844 ], [ 79.945618991197179, 6.847704747436665 ], [ 79.946121344735189, 6.847897006157436 ], [ 79.946599925853931, 6.847993525670969 ], [ 79.94698292239454, 6.847994182822386 ], [ 79.947796913306334, 6.847923804994306 ], [ 79.948587130866116, 6.847757687072486 ], [ 79.949617007488271, 6.847424506115029 ], [ 79.95004796028023, 6.847377393757633 ], [ 79.950526705768937, 6.847378211642767 ], [ 79.950861582316733, 6.847522330516994 ], [ 79.951555314245667, 6.847786684022682 ], [ 79.952009796347895, 6.847978855211679 ], [ 79.952416649091717, 6.848027397747811 ], [ 79.95270385613982, 6.848051811611476 ], [ 79.953254577677811, 6.847957051381119 ], [ 79.953661838166582, 6.847766348303504 ], [ 79.954021468138691, 6.847432016681477 ], [ 79.954213699492868, 6.847001702040591 ], [ 79.954381748965687, 6.846714893350172 ], [ 79.954573572682165, 6.846523823104549 ], [ 79.954885082492069, 6.846332956073672 ], [ 79.955268200501337, 6.846261833066485 ], [ 79.955675174392056, 6.846238599296639 ], [ 79.956429157232876, 6.846263802691468 ], [ 79.956644633135326, 6.846240243402063 ], [ 79.956932123686897, 6.846097183304831 ], [ 79.957315565845121, 6.845834662771368 ], [ 79.957698804920383, 6.845691764289274 ], [ 79.958010110555264, 6.845620517435477 ], [ 79.958584563696363, 6.845645413570328 ], [ 79.959206405918252, 6.845957483795573 ], [ 79.959469513500594, 6.846077551053931 ], [ 79.95997227694626, 6.846030550813775 ], [ 79.960427327427212, 6.845887771288157 ], [ 79.960810323617324, 6.845888417227349 ], [ 79.9611215484246, 6.845865017331787 ], [ 79.961600455097255, 6.845770125989128 ], [ 79.962414805711489, 6.845484402109702 ], [ 79.962941989143147, 6.845150344775927 ], [ 79.963277875342456, 6.844696342370941 ], [ 79.963613921818308, 6.844146641568797 ], [ 79.963854339458805, 6.843525006087989 ], [ 79.964118170912229, 6.843214429383616 ], [ 79.96435770318277, 6.843119133045996 ], [ 79.964644948942521, 6.843119614987535 ], [ 79.965099473712556, 6.843287849407436 ], [ 79.965673363668429, 6.843647680237824 ], [ 79.966259543940865, 6.843816134232108 ], [ 79.96721703175001, 6.843817736414831 ], [ 79.969754535246096, 6.843726274767524 ], [ 79.971023207502313, 6.843728388005324 ], [ 79.971406083444847, 6.843800799003207 ], [ 79.972099745416301, 6.844112972743423 ], [ 79.973079979517166, 6.8448323403433 ], [ 79.973677815578284, 6.845192202257865 ], [ 79.974012778967364, 6.845288456502733 ], [ 79.974443690297619, 6.845265246344971 ], [ 79.974731215862917, 6.845098250325345 ], [ 79.974947088036885, 6.844835436822545 ], [ 79.975690967336632, 6.843736134332679 ], [ 79.976087436948049, 6.842827653166483 ], [ 79.976784345828563, 6.841178003297225 ], [ 79.97700049180942, 6.840747716285922 ], [ 79.97726423480978, 6.840484980374111 ], [ 79.977455929153521, 6.840365673411334 ], [ 79.977910812813846, 6.840318574504479 ], [ 79.978221994956399, 6.840319087625449 ], [ 79.97862872816053, 6.840439381387918 ], [ 79.978915539367733, 6.840703025360627 ], [ 79.979106326295067, 6.841133983800613 ], [ 79.97922451320089, 6.842043316210438 ], [ 79.979343370874005, 6.842545930183054 ], [ 79.979558174833215, 6.842929078745714 ], [ 79.979820932444198, 6.843264456813355 ], [ 79.980155699231517, 6.843480329856372 ], [ 79.980442867545094, 6.843528651625298 ], [ 79.980849801004737, 6.84352932076084 ], [ 79.981711581909096, 6.843506811988863 ], [ 79.98252537050594, 6.843555997023577 ], [ 79.983434790818905, 6.843677111516786 ], [ 79.983961175841145, 6.84382152196728 ], [ 79.984559098822359, 6.844133521875465 ], [ 79.984941704158118, 6.844373394870455 ], [ 79.985300646650217, 6.844445755953939 ], [ 79.985659745830176, 6.844422418196583 ], [ 79.985983134595116, 6.844279398263017 ], [ 79.986318257236633, 6.844279945541467 ], [ 79.986701020070925, 6.84442411864014 ], [ 79.987179610690589, 6.844520598317159 ], [ 79.98737114854211, 6.844496985959371 ], [ 79.987826231409713, 6.844330254723824 ], [ 79.988233517345876, 6.84411559572608 ], [ 79.988688482678896, 6.844020637602915 ], [ 79.988999668028669, 6.84402114402873 ], [ 79.989358533308433, 6.844141351460338 ], [ 79.989741219358152, 6.844333371571452 ], [ 79.990625618156045, 6.845124324837158 ], [ 79.991008033419618, 6.8454838168248 ], [ 79.991390760136184, 6.845651911135414 ], [ 79.991893290864553, 6.845748425200973 ], [ 79.992611569249561, 6.845653890340804 ], [ 79.99306661322872, 6.84551107876461 ], [ 79.993425713493181, 6.845487735248126 ], [ 79.99366489411409, 6.845607746009961 ], [ 79.994310430768749, 6.846087285065353 ], [ 79.99555336242004, 6.847213756624458 ], [ 79.995936169731436, 6.847333998227043 ], [ 79.996307240238835, 6.847310672008873 ], [ 79.996977684383381, 6.84719212887806 ], [ 79.997695926263162, 6.847121511266912 ], [ 79.998174638546615, 6.847146206403341 ], [ 79.998485518507067, 6.847338104664467 ], [ 79.998772345644966, 6.847601738429141 ], [ 79.999155269809961, 6.847650203426817 ], [ 79.999562439364098, 6.847507308781707 ], [ 80.000041690466148, 6.847197055937026 ], [ 80.000328979567627, 6.847173592116111 ], [ 80.00085549066732, 6.847246210866564 ], [ 80.001549756780193, 6.847199473805735 ], [ 80.002148732590925, 6.846865485619417 ], [ 80.002963758047528, 6.846149045135108 ], [ 80.003442929358386, 6.845886637969017 ], [ 80.003754308230342, 6.845767511240877 ], [ 80.004137346566637, 6.845744197920856 ], [ 80.004831305187196, 6.845888853873783 ], [ 80.00595572037308, 6.846297367527374 ], [ 80.006398260049608, 6.84648947060532 ], [ 80.006829098004417, 6.846514080901343 ], [ 80.007571124388676, 6.84653918541913 ], [ 80.007930340047892, 6.84644405676168 ], [ 80.008577110392608, 6.846157985549654 ], [ 80.009152105385368, 6.845847874725672 ], [ 80.009535333792144, 6.845704933167675 ], [ 80.009966095642156, 6.845777390168536 ], [ 80.010971131541865, 6.845994304638158 ], [ 80.011713044503153, 6.84609117708151 ], [ 80.012359434486982, 6.84604434843755 ], [ 80.013221564758354, 6.845806460334453 ], [ 80.013892231645229, 6.84554434407397 ], [ 80.014538658712439, 6.845473587591027 ], [ 80.014969346239454, 6.845593889793223 ], [ 80.015997984031415, 6.846026154990589 ], [ 80.017253730608601, 6.846650173605199 ], [ 80.017899671089538, 6.846890435468795 ], [ 80.018593862737944, 6.846891523214401 ], [ 80.019024815350861, 6.846844348198463 ], [ 80.019575755835987, 6.846605961309428 ], [ 80.019982807990345, 6.846534823112331 ], [ 80.020485348684261, 6.846631308043317 ], [ 80.021346580663391, 6.846967601363105 ], [ 80.022016723288786, 6.84704042137458 ], [ 80.022710990417281, 6.846993653495717 ], [ 80.023572933045401, 6.84687537074909 ], [ 80.024578575855244, 6.846709459870581 ], [ 80.025225078855669, 6.84659083929124 ], [ 80.025991047111106, 6.846615952650813 ], [ 80.026290119512353, 6.846712116074738 ], [ 80.026457534783376, 6.846808075288032 ], [ 80.026696651880897, 6.846975920355446 ], [ 80.026911608852942, 6.847287277494123 ], [ 80.027150615079861, 6.84752689700854 ], [ 80.027413485131476, 6.847814403239759 ], [ 80.027700441509509, 6.848006246879127 ], [ 80.028035495934674, 6.848054615137731 ], [ 80.028274836449071, 6.848078910239063 ], [ 80.028634013878275, 6.848007690684306 ], [ 80.029065152472967, 6.847840882227416 ], [ 80.029975636859021, 6.847292013881641 ], [ 80.030526426136191, 6.847149313503911 ], [ 80.031053019184483, 6.847174049886893 ], [ 80.031914298406562, 6.847486400268943 ], [ 80.032608198597885, 6.847678867140544 ], [ 80.032895451740458, 6.847679308628237 ], [ 80.03397276143312, 6.847609187934897 ], [ 80.035026206700181, 6.847491178270446 ], [ 80.035816372940374, 6.847348838403068 ], [ 80.037959607202708, 6.846825763969856 ], [ 80.039707755808593, 6.846373853275051 ], [ 80.040402387216531, 6.84608781005086 ], [ 80.041551979903787, 6.845706756633412 ], [ 80.04212695731394, 6.845396604018616 ], [ 80.042798011442628, 6.844871271058325 ], [ 80.043061797537732, 6.844560645460646 ], [ 80.043349811046241, 6.844058656169131 ], [ 80.043733356920569, 6.843700361365402 ], [ 80.044044799613985, 6.843533357350682 ], [ 80.044308294457693, 6.843414130682392 ], [ 80.045050324298089, 6.84343917707036 ], [ 80.045816111274192, 6.84358388334936 ], [ 80.04745562274671, 6.843729904625553 ], [ 80.048101795074714, 6.843826577195561 ], [ 80.048915675322604, 6.843827800720815 ], [ 80.049466385286806, 6.843732927610044 ], [ 80.049897550575622, 6.843542174270862 ], [ 80.050047363581257, 6.84351247480767 ], [ 80.050221451441629, 6.843467643301224 ], [ 80.05050823706938, 6.843351857927978 ], [ 80.050965119876338, 6.843124392237387 ], [ 80.051570412077055, 6.84287433317626 ], [ 80.051775991908301, 6.842783380665566 ], [ 80.052027225685833, 6.842692496348413 ], [ 80.052449661917407, 6.842601867845432 ], [ 80.052700724868757, 6.842625058128408 ], [ 80.053066076405116, 6.84254575128902 ], [ 80.053374377387541, 6.842454951459104 ], [ 80.053671162526996, 6.842432579385958 ], [ 80.054561398753279, 6.842445314590489 ], [ 80.055166280531253, 6.842469030808106 ], [ 80.056535893053521, 6.842476772246119 ], [ 80.056786990285559, 6.842477145398436 ], [ 80.057426028275401, 6.842557947212087 ], [ 80.058007914284445, 6.842695701115917 ], [ 80.058498526359955, 6.842810503987898 ], [ 80.058817995032697, 6.842885126440614 ], [ 80.059308709028855, 6.842931483425761 ], [ 80.059673891235406, 6.842966246628755 ], [ 80.060313015175652, 6.842990007150745 ], [ 80.061020721686276, 6.842945422874972 ], [ 80.061591499482262, 6.842877820372392 ], [ 80.062379285818849, 6.84270786924354 ], [ 80.063109903171139, 6.842606277865782 ], [ 80.06355506446603, 6.842584118149576 ], [ 80.063920289056426, 6.842590359320356 ], [ 80.064821941343027, 6.842603092377668 ], [ 80.065963144131686, 6.842707435622724 ], [ 80.066670582809721, 6.842845363461918 ], [ 80.067172594838681, 6.842971581973048 ], [ 80.067765923959513, 6.843092229811923 ], [ 80.068382038833931, 6.843241429169669 ], [ 80.068769899596745, 6.843378886765749 ], [ 80.069134966825871, 6.843493495662893 ], [ 80.069397328803873, 6.843596546806264 ], [ 80.069842358044397, 6.843665641658239 ], [ 80.070629744777037, 6.843769457857155 ], [ 80.0713829327875, 6.843844704097272 ], [ 80.072079127974632, 6.843868532239878 ], [ 80.072581474962405, 6.84376659442088 ], [ 80.073095301707497, 6.843619042437496 ], [ 80.073654765914966, 6.843482963664929 ], [ 80.073917526625877, 6.843312231236612 ], [ 80.074420104541815, 6.843050585679427 ], [ 80.075151143331823, 6.842658083194782 ], [ 80.075825171038048, 6.842225570511934 ], [ 80.076590736883205, 6.841633482841131 ], [ 80.077002052946014, 6.841337479668107 ], [ 80.077687441406084, 6.84093920314756 ], [ 80.078567138183843, 6.840347276434634 ], [ 80.07928682209473, 6.839909120179515 ], [ 80.080269285834035, 6.839283114981582 ], [ 80.081103322748845, 6.838691117395864 ], [ 80.081960045559441, 6.838196115205216 ], [ 80.082622321117114, 6.837991726795767 ], [ 80.082930582784186, 6.837923722299498 ], [ 80.083204489666699, 6.837935521656049 ], [ 80.083489793731346, 6.837958744746353 ], [ 80.083877623308794, 6.838119005360198 ], [ 80.08440217038671, 6.838450574882281 ], [ 80.084812338890757, 6.838953094756829 ], [ 80.085188284000338, 6.839444157939119 ], [ 80.085655505466704, 6.839958166200927 ], [ 80.085849274993222, 6.840140964005016 ], [ 80.086134336656286, 6.840335299390376 ], [ 80.086647604287649, 6.840575589923991 ], [ 80.087126753668358, 6.840730274374197 ], [ 80.087834133812933, 6.840913801767861 ], [ 80.088324689464045, 6.8410742051097 ], [ 80.08862123118351, 6.841222925029547 ], [ 80.08915724737804, 6.841520283434143 ], [ 80.089750186501007, 6.841920390482571 ], [ 80.090183409191837, 6.84226893644513 ], [ 80.090411244371722, 6.842577264643821 ], [ 80.090559362452524, 6.842759996167431 ], [ 80.090844363103741, 6.842999959449706 ], [ 80.091243500171799, 6.843240084032345 ], [ 80.091597096185126, 6.843400290630473 ], [ 80.092236000769006, 6.843583715273477 ], [ 80.092623983393167, 6.843641301179055 ], [ 80.093913908325021, 6.843511932637536 ], [ 80.094245016057897, 6.843432545655903 ], [ 80.095055399559001, 6.843422278503525 ], [ 80.095763188854988, 6.843320604846171 ], [ 80.096562319004818, 6.843196243046506 ], [ 80.098502931220025, 6.842987921204475 ], [ 80.099153715370662, 6.842840532125826 ], [ 80.099872853368311, 6.842784498655559 ], [ 80.100888745503852, 6.842728877923279 ], [ 80.102521171939614, 6.842531517390216 ], [ 80.103594258746895, 6.842384709255391 ], [ 80.103799735657702, 6.842362179227381 ], [ 80.104085028673495, 6.842396798090857 ], [ 80.104564052543211, 6.842648430700594 ], [ 80.104826154528212, 6.842945392845276 ], [ 80.104905765108398, 6.843150840813013 ], [ 80.104951103157902, 6.843379056572537 ], [ 80.104973550629879, 6.843652871181977 ], [ 80.105132724695167, 6.844097989958681 ], [ 80.105280422059636, 6.844588723388224 ], [ 80.105485196040803, 6.845073832035191 ], [ 80.105667245790386, 6.84548475944344 ], [ 80.105952003411602, 6.845907236650614 ], [ 80.10636218605147, 6.84642114845254 ], [ 80.106726888316487, 6.84680951295624 ], [ 80.107148549414873, 6.847277809506519 ], [ 80.107752421429367, 6.848042956310568 ], [ 80.108219416592476, 6.848745171547134 ], [ 80.108356051076271, 6.848984920781793 ], [ 80.10845838127085, 6.849270253263356 ], [ 80.108628579985265, 6.850000577753214 ], [ 80.108787507057357, 6.850628217810323 ], [ 80.109037438157657, 6.851478432542497 ], [ 80.109321619482103, 6.852322990587332 ], [ 80.109583320165669, 6.85291654920414 ], [ 80.109731165678681, 6.853304613113738 ], [ 80.110140155000821, 6.854691206311866 ], [ 80.110310609101191, 6.855239008384821 ], [ 80.11062908338792, 6.85604939022491 ], [ 80.11099318315371, 6.856882650013345 ], [ 80.111198100729027, 6.857270792154148 ], [ 80.111516930939402, 6.857824501877721 ], [ 80.111972424057925, 6.858600848543302 ], [ 80.112245529189735, 6.859205829516592 ], [ 80.112746257535875, 6.860290244492903 ], [ 80.112985318140673, 6.860752582740664 ], [ 80.113349848018331, 6.861277835169409 ], [ 80.113736893663472, 6.862031271397479 ], [ 80.113975838546935, 6.862579166568739 ], [ 80.114601464569844, 6.864148576858335 ], [ 80.114874122081389, 6.865084378285938 ], [ 80.115044553027076, 6.865654994590114 ], [ 80.11545387790855, 6.866813432277207 ], [ 80.115852391784529, 6.867532660073077 ], [ 80.116205327801183, 6.868194787021201 ], [ 80.116410160099505, 6.868651373454578 ], [ 80.116831442932479, 6.869416262439309 ], [ 80.117355307717801, 6.870289664001264 ], [ 80.11749188976539, 6.870575042005118 ], [ 80.117651238271208, 6.870906081693537 ], [ 80.117844783255151, 6.871271391005567 ], [ 80.118026992069943, 6.871579646478145 ], [ 80.118072244392835, 6.871876307426779 ], [ 80.118413296887383, 6.872886350704253 ], [ 80.118481393848171, 6.873171635124693 ], [ 80.118458004391584, 6.873582279070495 ], [ 80.118491842653498, 6.873878924440483 ], [ 80.118730860109721, 6.874381187475105 ], [ 80.119072888053751, 6.874678252874212 ], [ 80.119563164108655, 6.875078188926201 ], [ 80.119973959527769, 6.875170009441613 ], [ 80.120362034978072, 6.875181945056265 ], [ 80.120887277790189, 6.875051470947474 ], [ 80.121400865565064, 6.875097799263917 ], [ 80.121777480162592, 6.875143941176271 ], [ 80.122256778398025, 6.875224445060124 ], [ 80.122530508385182, 6.87538452357486 ], [ 80.12275839501747, 6.875681431871032 ], [ 80.122860831120832, 6.875898316417127 ], [ 80.122928095402003, 6.876799613541561 ], [ 80.123018823276738, 6.87723322795519 ], [ 80.123155402710822, 6.8775243085952 ], [ 80.1233833525135, 6.87777558609826 ], [ 80.123759567611089, 6.878118325585944 ], [ 80.124135860505902, 6.878404026567187 ], [ 80.124637574784501, 6.878792565900119 ], [ 80.125059326340349, 6.879226627459884 ], [ 80.125332758804134, 6.879609153896279 ], [ 80.125412305984625, 6.879871637832545 ], [ 80.125423165296667, 6.880282328776408 ], [ 80.125308525882815, 6.880647219524644 ], [ 80.125113984126969, 6.881012002254927 ], [ 80.124610475538006, 6.881946750743932 ], [ 80.124461027135425, 6.882727974089806 ], [ 80.124471931831948, 6.883104441983208 ], [ 80.124528201499245, 6.883697717002445 ], [ 80.12467585039181, 6.884245484953686 ], [ 80.124766302564396, 6.884884436880363 ], [ 80.124845486966734, 6.885415000688568 ], [ 80.124787857240278, 6.885825598868288 ], [ 80.124718951757714, 6.886133512738195 ], [ 80.124592957103417, 6.886452757003579 ], [ 80.124434760552845, 6.886849682337981 ], [ 80.124047073648981, 6.887715660614809 ], [ 80.123931598023447, 6.888133096074479 ], [ 80.123837128107397, 6.888467041575309 ], [ 80.12381588131889, 6.888728007716344 ], [ 80.123856773941711, 6.889385770377013 ], [ 80.124002108644959, 6.890059334275152 ], [ 80.124199809940293, 6.89063379103816 ], [ 80.124366498297704, 6.890968090394917 ], [ 80.12455122909239, 6.891478585734864 ], [ 80.12461609415972, 6.891791867514571 ], [ 80.124654613296883, 6.892274760330437 ], [ 80.124549087484539, 6.893057602183014 ], [ 80.12423454438273, 6.893905409396877 ], [ 80.123723668480991, 6.895092243255013 ], [ 80.123448544844962, 6.895757406724532 ], [ 80.123356481939553, 6.896240122174866 ], [ 80.123381773080482, 6.896846969496733 ], [ 80.123446460342265, 6.897290748529501 ], [ 80.123797965255847, 6.898074210211503 ], [ 80.124175764806509, 6.89872720996079 ], [ 80.124801316333418, 6.899641540222374 ], [ 80.125414015485333, 6.900405780396756 ], [ 80.125674772602252, 6.900706277612179 ], [ 80.126144408493658, 6.901046206587822 ], [ 80.127227270040336, 6.901765406562214 ], [ 80.127462018428375, 6.901987569328162 ], [ 80.12770977238327, 6.90224889880551 ], [ 80.127905240648943, 6.902549306863408 ], [ 80.12813953140207, 6.903110762236581 ], [ 80.128595487759256, 6.903913936843926 ], [ 80.128895194753895, 6.904384131898331 ], [ 80.129064671167512, 6.904593156309153 ], [ 80.129456086540117, 6.90484162887152 ], [ 80.129978015392723, 6.905142475801013 ], [ 80.130225877795837, 6.905325505834134 ], [ 80.130447307383008, 6.905743395789817 ], [ 80.130773063789249, 6.906265823946391 ], [ 80.13102083928716, 6.906514102300557 ], [ 80.131347018019596, 6.906723336584958 ], [ 80.131699454175589, 6.906828207866951 ], [ 80.131986712496726, 6.906848168026683 ], [ 80.132221763567983, 6.906848483357683 ], [ 80.132443581057714, 6.906979278419496 ], [ 80.132639246833534, 6.90713613783974 ], [ 80.132808743393468, 6.907332111403229 ], [ 80.133095406964969, 6.90779576196344 ], [ 80.133212355172404, 6.908226560695608 ], [ 80.133498538451306, 6.909049078840376 ], [ 80.133797938504188, 6.909754166716995 ], [ 80.133993168671907, 6.910237269153528 ], [ 80.134096727383195, 6.910915995277159 ], [ 80.134108894099171, 6.91158154933151 ], [ 80.134002790410705, 6.912801559842435 ], [ 80.1339759560028, 6.913336564039282 ], [ 80.134053870121079, 6.913662912317094 ], [ 80.134405612645949, 6.91428977154249 ], [ 80.13483556795984, 6.915021133258782 ], [ 80.134978671183447, 6.915425867184386 ], [ 80.134977858646721, 6.916032679934327 ], [ 80.134936899989071, 6.917363700625289 ], [ 80.134949207054774, 6.917924856720123 ], [ 80.135013958720648, 6.918329485852518 ], [ 80.135144021590008, 6.918721152574611 ], [ 80.135287169586078, 6.919093262135041 ], [ 80.135521807637218, 6.919406770064793 ], [ 80.135821390537274, 6.919981359875505 ], [ 80.135938186122701, 6.920529605845923 ], [ 80.135819783926792, 6.921181935592544 ], [ 80.135675508283114, 6.921651534072404 ], [ 80.135531363368486, 6.9220232594462 ], [ 80.135465737212812, 6.922271117084921 ], [ 80.135517011298973, 6.922988922328465 ], [ 80.135555331438624, 6.923628411689005 ], [ 80.135528357208003, 6.924267813692567 ], [ 80.135462643218034, 6.924580919947142 ], [ 80.135357647514297, 6.924972272146336 ], [ 80.135161029319434, 6.925520098725208 ], [ 80.134859492845337, 6.926400553375559 ], [ 80.134780754069297, 6.926687542480919 ], [ 80.134806119142354, 6.927248715862229 ], [ 80.134805366265752, 6.927809854241045 ], [ 80.134700263995043, 6.928279504503482 ], [ 80.134699913716815, 6.928540499085117 ], [ 80.134764665795643, 6.92894512818484 ], [ 80.134985749729395, 6.929630536441837 ], [ 80.135037338029591, 6.930113446398956 ], [ 80.135023526058106, 6.930674567237356 ], [ 80.134957390136734, 6.931300866699116 ], [ 80.134969757384113, 6.931816348449853 ], [ 80.135086728761152, 6.932234097259452 ], [ 80.135294641355244, 6.933004311182183 ], [ 80.135398659136968, 6.933343744070424 ], [ 80.135515666165418, 6.933735393362785 ], [ 80.13573705907389, 6.934192431183762 ], [ 80.135971511553095, 6.934649486405027 ], [ 80.136323409643168, 6.935171947479451 ], [ 80.136544935019828, 6.935531112055705 ], [ 80.136949193473413, 6.935962294518167 ], [ 80.137209975911418, 6.936262787441908 ], [ 80.137392385873198, 6.93657622528865 ], [ 80.137496370831656, 6.936941757344004 ], [ 80.137560706823322, 6.937659579798347 ], [ 80.137702796273089, 6.938827722622931 ], [ 80.137832394199265, 6.939571731724254 ], [ 80.137923128634313, 6.940080793320322 ], [ 80.13800078642754, 6.940602887203266 ], [ 80.138391816431067, 6.941164548735394 ], [ 80.139200050171027, 6.9422487566763 ], [ 80.139591553094618, 6.942458074624081 ], [ 80.140061377961459, 6.942693596089978 ], [ 80.140688020519178, 6.942851027224074 ], [ 80.141354006794799, 6.942884537117586 ], [ 80.14190262340864, 6.942793917521607 ], [ 80.14226842553856, 6.942690004961228 ], [ 80.142529838984686, 6.942520704834806 ], [ 80.142843801680044, 6.942116578446908 ], [ 80.143393161527058, 6.941464818041529 ], [ 80.143824449492158, 6.941217443432915 ], [ 80.144138029904553, 6.941100410390802 ], [ 80.144412311142901, 6.941074673566821 ], [ 80.144830176321577, 6.941101325387645 ], [ 80.14544344908218, 6.941493628425437 ], [ 80.145939403858932, 6.941722653867241 ], [ 80.146265819632632, 6.941775283392645 ], [ 80.146670695150902, 6.94174971743692 ], [ 80.147598307321459, 6.941450793775509 ], [ 80.148695690382368, 6.941152091150248 ], [ 80.149257397983931, 6.941035380368899 ], [ 80.149845172725975, 6.94095785240713 ], [ 80.150354633883666, 6.940847596684645 ], [ 80.151426049357639, 6.940431405376946 ], [ 80.152235985984021, 6.94023671661531 ], [ 80.152915277346281, 6.940081005435231 ], [ 80.153607559608403, 6.939977509336895 ], [ 80.154704664749175, 6.939887588519432 ], [ 80.156402474800586, 6.93981801908531 ], [ 80.156781314813713, 6.939727161542962 ], [ 80.157408062579705, 6.939806272078344 ], [ 80.158230684230688, 6.939898684866709 ], [ 80.158935755098412, 6.940003994280458 ], [ 80.159536233349087, 6.940200516398286 ], [ 80.159927854656672, 6.940324994633905 ], [ 80.160528552647662, 6.940351868334103 ], [ 80.161037818250577, 6.9403916734283 ], [ 80.16135129399386, 6.940352927324222 ], [ 80.162161378985687, 6.940040773131591 ], [ 80.162775555625942, 6.939741415921326 ], [ 80.163350385912196, 6.939572505581104 ], [ 80.164199404016514, 6.939449619925961 ], [ 80.164800335608746, 6.9392937909824 ], [ 80.165414393003019, 6.939085778714907 ], [ 80.166041575995649, 6.93882558307927 ], [ 80.167100133142043, 6.93823969060881 ], [ 80.16785809050306, 6.937836110839048 ], [ 80.168459210185446, 6.937530204178464 ], [ 80.16903405288501, 6.937348236713174 ], [ 80.16972639592926, 6.937192517186192 ], [ 80.17066693184573, 6.936984911568132 ], [ 80.171934065503734, 6.936686367868658 ], [ 80.173227217617381, 6.936466152481887 ], [ 80.173632179682116, 6.93636878897692 ], [ 80.1738673459609, 6.936290786100876 ], [ 80.174859820429916, 6.936318134463027 ], [ 80.175839317897996, 6.936280215228037 ], [ 80.176727449324105, 6.936203029929776 ], [ 80.177876946618454, 6.935982621546649 ], [ 80.178530181382285, 6.935768115510411 ], [ 80.179078900472021, 6.935586102725609 ], [ 80.179784363316756, 6.935378184976297 ], [ 80.180189299144516, 6.935300390433659 ], [ 80.180790042950306, 6.935288088536409 ], [ 80.181482071898628, 6.935380298230124 ], [ 80.182082637395681, 6.935511542953736 ], [ 80.182565758701131, 6.935570867003642 ], [ 80.182853063454104, 6.935571223384874 ], [ 80.183388576034858, 6.935506637861168 ], [ 80.183689118126679, 6.935363461612106 ], [ 80.184067918807742, 6.935298681216586 ], [ 80.18448580842464, 6.935305723112598 ], [ 80.184720762818372, 6.935397362682563 ], [ 80.185125326892987, 6.935619710378083 ], [ 80.185373421592502, 6.93564611653238 ], [ 80.1856869903269, 6.935529054808293 ], [ 80.185909095382044, 6.935451029644347 ], [ 80.186470839075497, 6.935295123864776 ], [ 80.186915177459497, 6.935034673829084 ], [ 80.187424715376025, 6.934852602803784 ], [ 80.187686029926653, 6.93474852524986 ], [ 80.188365209687618, 6.934671060763631 ], [ 80.18917494216835, 6.934626380139101 ], [ 80.189658104109967, 6.934653072328062 ], [ 80.190780628313561, 6.935124242545842 ], [ 80.191198366605093, 6.935255252224158 ], [ 80.191498635118961, 6.935333918505978 ], [ 80.191955472033271, 6.935530224743931 ], [ 80.192268688576036, 6.935700255563551 ], [ 80.19256873443608, 6.935961619325421 ], [ 80.192868653176333, 6.936327381850593 ], [ 80.193103219802367, 6.93673873917249 ], [ 80.193246618024872, 6.93694771209203 ], [ 80.193337731097174, 6.937195770943453 ], [ 80.193375953903526, 6.937978810667709 ], [ 80.193518859065122, 6.938592329403102 ], [ 80.193609813342803, 6.938970886883987 ], [ 80.193701022412611, 6.939140646492122 ], [ 80.193844373803813, 6.939388768888417 ], [ 80.193974817049124, 6.939512901629115 ], [ 80.194183609077498, 6.939643654626536 ], [ 80.194744911054045, 6.939853135583067 ], [ 80.195175698359549, 6.939997207926668 ], [ 80.195580367041401, 6.9401412481805 ], [ 80.196128658432343, 6.94031156212866 ], [ 80.196637708479287, 6.940534027488603 ], [ 80.196937870635637, 6.940704039766615 ], [ 80.197446684281957, 6.9411222524317 ], [ 80.197785701527948, 6.941559834074478 ], [ 80.198033389678088, 6.941925530676117 ], [ 80.198319767067247, 6.942695820671919 ], [ 80.198449841241541, 6.943126624395801 ], [ 80.198566698139842, 6.943687911072846 ], [ 80.198708482150806, 6.945234494853564 ], [ 80.198786160791926, 6.945795734146277 ], [ 80.198837736074267, 6.946343891995806 ], [ 80.198941628996721, 6.946826863578587 ], [ 80.19904567997348, 6.947179336406072 ], [ 80.199449377813579, 6.948132466170525 ], [ 80.199631724500563, 6.948537233000562 ], [ 80.199814158215759, 6.948870225472348 ], [ 80.200061914439132, 6.9491837218375 ], [ 80.200466182956831, 6.94966705542195 ], [ 80.200635691789557, 6.949889107944029 ], [ 80.201053084192964, 6.950320257345933 ], [ 80.20144435781944, 6.950751374999014 ], [ 80.201744425943687, 6.951006209044068 ], [ 80.202005275738671, 6.951293620516232 ], [ 80.202526929182014, 6.951907592741276 ], [ 80.202800839759774, 6.952195019534945 ], [ 80.203244512656113, 6.952495699844252 ], [ 80.204066670625096, 6.953005631921944 ], [ 80.204379856263685, 6.95321480556892 ], [ 80.204810267960539, 6.953685117407919 ], [ 80.205188472294751, 6.954129266662191 ], [ 80.205279789783802, 6.954214200262034 ], [ 80.20561908091527, 6.954436454311692 ], [ 80.206075911360514, 6.954658848548644 ], [ 80.207708304126299, 6.954739094966664 ], [ 80.209184289623607, 6.954558151794617 ], [ 80.209915992459543, 6.954265397329571 ], [ 80.210373429270959, 6.953978841623734 ], [ 80.210817944980434, 6.953574820886465 ], [ 80.211105803514045, 6.953118414606854 ], [ 80.211302304410339, 6.952609700353054 ], [ 80.211394295298973, 6.952126962216002 ], [ 80.211486146865582, 6.951761673134951 ], [ 80.21164345953656, 6.951259437262679 ], [ 80.211696115860065, 6.950907151685057 ], [ 80.211787874220192, 6.950620161899058 ], [ 80.212049594851081, 6.950176773807226 ], [ 80.21261182835832, 6.94961629087152 ], [ 80.213004191356433, 6.949133906466446 ], [ 80.213658125317664, 6.948332106559666 ], [ 80.214142088648899, 6.947693229731379 ], [ 80.214705119008798, 6.946450886021415 ] ] } }
]
}
